<?xml version="1.0" encoding="UTF-8"?>
<kml xmlns="http://earth.google.com/kml/2.2">
  <Document>
    <Placemark>
      <name>Алушта</name>
      <description>14.08.2018 15:54:03</description>
      <Style>
        <LineStyle>
          <color>A6000000</color>
          <width>2</width>
        </LineStyle>
        <PolyStyle>
          <color>33FF0000</color>
          <fill>1</fill>
        </PolyStyle>
      </Style>
      <Polygon>
        <extrude>1</extrude>
        <outerBoundaryIs>
          <LinearRing>
            <coordinates>34.3202819136301,44.5524117902094,0 34.3209685591379,44.5540534959739,0 34.3199815062204,44.5547592616905,0 34.3194665220896,44.5546211777718,0 34.3183721808115,44.554835974836,0 34.3184150961557,44.5560940558962,0 34.3191017416635,44.5564009007812,0 34.319552352778,44.5568304808833,0 34.3195952681223,44.5572140318477,0 34.3190373686472,44.5581192020317,0 34.3176855353037,44.5584413778287,0 34.3175997046152,44.5591010655232,0 34.3186940458933,44.5599294998687,0 34.3197883871714,44.5603897360401,0 34.3201960829416,44.5609266736075,0 34.3208398131052,44.5640561532877,0 34.3206896094004,44.5646083968138,0 34.3201746252695,44.5649305364332,0 34.3192304876963,44.5650379159072,0 34.3193163183847,44.5662037373511,0 34.3199385908762,44.5658509254491,0 34.3206681517282,44.5658816048304,0 34.321297526911,44.5660807026196,0 34.3213118818918,44.5667099419692,0 34.3200029638925,44.5674308924049,0 34.3187155035654,44.567584284954,0 34.3179859427133,44.5674002138463,0 34.3168272284189,44.5681058165743,0 34.3155183104196,44.5703912966796,0 34.3139948156992,44.5711582160506,0 34.3096603659311,44.573581614341,0 34.3054761198679,44.5708207727818,0 34.3007983473459,44.5731214832446,0 34.2998756674448,44.5750386719645,0 34.2971290854135,44.5759588999466,0 34.2900019150119,44.5730236564174,0 34.2865472298007,44.5736985152473,0 34.2767989488438,44.5736939087144,0 34.2774099020066,44.5782564418737,0 34.276855043472,44.596434808318,0 34.2668764512014,44.5992069730839,0 34.2664690547639,44.6021656040651,0 34.2572392252326,44.6041298443076,0 34.246430127696,44.6027203083643,0 34.246237008647,44.6046671731785,0 34.2422380156357,44.6107072329458,0 34.2533745474655,44.6150448318218,0 34.2554247342193,44.6187925284554,0 34.2639193566961,44.6370399888243,0 34.2641983064337,44.6393533805395,0 34.257417682044,44.639521902135,0 34.2555937799139,44.6428003151252,0 34.2540273698492,44.6439186096034,0 34.2419467004461,44.6426164838189,0 34.2381272348089,44.6426011645169,0 34.2350158723517,44.6433058481937,0 34.2316470178289,44.6448990143049,0 34.2306628548837,44.6472224155004,0 34.2308774316049,44.6485397549253,0 34.2338171326852,44.6506688793791,0 34.226426538081,44.6628348892513,0 34.2229950684804,44.6662690295674,0 34.2210638779897,44.6692090525301,0 34.2193043488759,44.6708627494692,0 34.2176735657948,44.6711996078366,0 34.212023339844,44.6717883526936,0 34.2116156440738,44.6720945827305,0 34.2108002525333,44.6720945827305,0 34.2068955061991,44.6742366286919,0 34.2016856681992,44.6771495880799,0 34.1990249168564,44.6763687668425,0 34.1967718612839,44.6763687668425,0 34.1946046363999,44.6767362134502,0 34.192995310991,44.6772108285132,0 34.1918151390244,44.6777619894812,0 34.1893045913865,44.6802574578112,0 34.1848631562343,44.686666373116,0 34.1810688938192,44.6912196607487,0 34.179953094869,44.6930563962121,0 34.1806996171613,44.7043985523023,0 34.1800483899742,44.7056807406252,0 34.1669377523094,44.7060786048982,0 34.1662725644737,44.7064917687292,0 34.1669162946373,44.707425202009,0 34.1668948369652,44.7081290924922,0 34.1645130353599,44.7092002136491,0 34.1636118131309,44.7101948082831,0 34.1636195040564,44.7203933176904,0 34.1652717448095,44.7206839905231,0 34.1676320887426,44.7201791367677,0 34.1711940623144,44.7184503615251,0 34.1731896258215,44.7181749765963,0 34.1757860041479,44.7185115579968,0 34.1791334009985,44.7198731626362,0 34.184798226438,44.7225503810511,0 34.1877164698462,44.7225197849738,0 34.1912999010901,44.7211276462225,0 34.1935744143347,44.7192765083943,0 34.1947760439734,44.719429497252,0 34.1989173746923,44.7219384564096,0 34.2050038162749,44.7277857059234,0 34.2067486399314,44.7318759129178,0 34.212045854476,44.733955799668,0 34.2158466929099,44.7364032178159,0 34.2298798294714,44.7466600725046,0 34.2432794503214,44.7486205696712,0 34.2550382546427,44.7511894157535,0 34.2626986435893,44.7513423196337,0 34.2688999108317,44.7501496585671,0 34.2716035775187,44.7490334276867,0 34.2743930748942,44.7487276072196,0 34.2759380272868,44.7585742079538,0 34.2792864845519,44.7628843278926,0 34.282193999124,44.7649557187208,0 34.2870434330229,44.7654983954693,0 34.2900582359557,44.7666678081985,0 34.2915924595122,44.7665837335687,0 34.2914831648583,44.7623085410699,0 34.2931139479394,44.7600153782784,0 34.2994654188867,44.7608485713578,0 34.3011820326562,44.7647544803794,0 34.3044221411462,44.7653124456795,0 34.3044543276544,44.7663366418354,0 34.3023300181146,44.7673455336068,0 34.3008172522302,44.7687824094429,0 34.301503897738,44.7693632639284,0 34.3034565459009,44.7704638141945,0 34.306900502276,44.7701810359332,0 34.3087136755701,44.7714726333916,0 34.3141424666162,44.7687518379912,0 34.3132284890708,44.7617005085503,0 34.313646094751,44.7595992370898,0 34.315311072145,44.7590214207269,0 34.3173602798324,44.7586086345437,0 34.3180254676681,44.7575155012361,0 34.3169954994064,44.7556655358999,0 34.3170706012588,44.7529439909126,0 34.3184209424427,44.7508070606214,0 34.3230021554401,44.7468084529484,0 34.328182286753,44.746996937162,0 34.3312721915381,44.7483960946532,0 34.3364127642192,44.7528225401365,0 34.3413802153148,44.7551695030723,0 34.3444416052007,44.757868300694,0 34.3515641746617,44.7610795207101,0 34.3601101004775,44.76327710534,0 34.3662926475858,44.7665299393304,0 34.3680414478635,44.76818848128,0 34.3685384996177,44.7718544140429,0 34.3701657317662,44.7743549506428,0 34.3731454451859,44.7759316209449,0 34.374969347316,44.7764971193799,0 34.37959328803,44.7768431435292,0 34.3813313594716,44.7780505331617,0 34.3819998688072,44.7796562681364,0 34.3784098042566,44.7878072062994,0 34.3834009857556,44.7922169637208,0 34.3890336246869,44.791682179541,0 34.3958864340203,44.7919739853002,0 34.4030532965081,44.793662349771,0 34.4135551089017,44.8005626462062,0 34.4192092055051,44.8026097614235,0 34.4245040154909,44.8124354637843,0 34.4443845249727,44.8183797844866,0 34.4757600030255,44.8370964488126,0 34.4744832715344,44.8383560045176,0 34.4745047292065,44.8392338602836,0 34.475491782124,44.8435160766581,0 34.4755407603254,44.8450237928397,0 34.4764838544263,44.8490462569607,0 34.4783042999322,44.853649035672,0 34.4736701246578,44.8563677508109,0 34.4852722414786,44.8647726236461,0 34.4897783526236,44.8626361661549,0 34.4935744752469,44.8643798742345,0 34.5006769647184,44.8680040640936,0 34.5365060115916,44.86520242904,0 34.5365413317434,44.8883730267692,0 34.5706755847452,44.8865697313965,0 34.5824319785915,44.884375107946,0 34.6045378421766,44.8766348353839,0 34.6035078739149,44.8735309720548,0 34.5988301013929,44.8731647839694,0 34.5971993183119,44.8703267467712,0 34.5942167018873,44.8677937558802,0 34.5877794002515,44.8651843527391,0 34.5967701648695,44.8600567575796,0 34.6027997707349,44.8628647833077,0 34.6065977787,44.8603925070435,0 34.5989373897535,44.8560276102664,0 34.6036398716443,44.8466972395572,0 34.6073759799829,44.8424161077538,0 34.6141780620447,44.8446754445901,0 34.6226753002039,44.8457898143675,0 34.6244550630488,44.8500369586668,0 34.6226740762629,44.8507085732609,0 34.6239246757434,44.8532930516812,0 34.6266283424304,44.8530946298818,0 34.6266927154468,44.8510798464821,0 34.6282162101672,44.8509424723026,0 34.6288813980029,44.8531556828165,0 34.6317138107227,44.8528351541824,0 34.6310915382312,44.8517819760254,0 34.6321215064929,44.8509119446624,0 34.6370353134082,44.8535677884212,0 34.6353186996387,44.8557808973657,0 34.638258400719,44.8569103130686,0 34.6404172640473,44.8552893043908,0 34.6457793830647,44.8589634697036,0 34.6419599174275,44.8616799834805,0 34.6579887985005,44.872910940304,0 34.6488478301778,44.877610196819,0 34.650521528603,44.8797918631623,0 34.6594915679959,44.8781695642541,0 34.6621523193387,44.878535720278,0 34.6697365029794,44.8754772356266,0 34.6754151033502,44.8774589956904,0 34.6923190865875,44.8725447776194,0 34.6934626383852,44.8893110814867,0 34.7014403098838,44.9008810740334,0 34.7131552837354,44.9004783740316,0 34.719396451714,44.8981824162385,0 34.7253616845632,44.8973893479786,0 34.7268336881448,44.8903374808643,0 34.7288936246683,44.8874392800752,0 34.7419477374896,44.8809192071739,0 34.7369554925602,44.8748983104576,0 34.7242085348957,44.8543124129526,0 34.7226057879977,44.8486748243045,0 34.7216771732549,44.841135702606,0 34.7217495512219,44.8330097590598,0 34.7223967092168,44.8277939586678,0 34.7239339327521,44.822942026762,0 34.7265155883507,44.8182650543573,0 34.7309700164621,44.8139402857979,0 34.7310343894785,44.8128863918048,0 34.7301760825937,44.8122448816202,0 34.7281805190866,44.8118324784221,0 34.7245327148264,44.8107021729563,0 34.7232667121713,44.8104730542651,0 34.7207347068613,44.8095107457555,0 34.7204128417795,44.8092968972249,0 34.7192112121408,44.8089913979394,0 34.7155634078806,44.8072194699587,0 34.7140613708322,44.8060585219129,0 34.7130957755869,44.8058141088005,0 34.7109714660471,44.8052183474713,0 34.7096625480478,44.8045614752361,0 34.7085038337534,44.8040726351972,0 34.7063580665414,44.8041337404301,0 34.7046414527719,44.8038434899933,0 34.7006503257578,44.8028352402104,0 34.699620357496,44.8024227692769,0 34.6981612357919,44.8018269726872,0 34.6959940109079,44.8007575786558,0 34.6933761749094,44.7988326191108,0 34.6917239341562,44.798038172514,0 34.6901575240915,44.7974576084215,0 34.6886125716989,44.7967548124412,0 34.6874109420602,44.7962506274076,0 34.6852651748483,44.7949825060508,0 34.6831837806528,44.7934851700156,0 34.681595912916,44.792629531863,0 34.6799007568185,44.7912085331425,0 34.6792141113107,44.7908876575887,0 34.6761885795419,44.7906278998726,0 34.6748152885263,44.7902459010932,0 34.6730772170847,44.7894054948187,0 34.6700946006601,44.7878621712123,0 34.6683350715463,44.7876023997878,0 34.6679488334482,44.7874801540043,0 34.6655241164987,44.7876635225818,0 34.663957706434,44.7872051000384,0 34.6623698386972,44.7870522917095,0 34.660717597944,44.7873579079602,0 34.6548811111276,44.7873884694956,0 34.6521345290964,44.7871745384052,0 34.6489158782785,44.7864257733027,0 34.6466842803781,44.7855089047577,0 34.6444526824777,44.7850963091291,0 34.6425644073312,44.7843475168867,0 34.6396890792673,44.7830791322071,0 34.6382514152353,44.7824067241306,0 34.6369639549081,44.7817954372191,0 34.6349254760568,44.7800685164882,0 34.6314493331735,44.7791056973959,0 34.6284881744211,44.7786777726108,0 34.6258274230783,44.777959463115,0 34.6235529098337,44.7765686680937,0 34.6227804336374,44.7761407243791,0 34.619819274885,44.775361247266,0 34.6173301849191,44.7743677806896,0 34.6159998092477,44.7744900544276,0 34.6129313621347,44.7750861351675,0 34.610463729841,44.7745664753814,0 34.6070090446298,44.7735271416854,0 34.6043912086313,44.7729310447445,0 34.6013442191904,44.7714025627452,0 34.5984045181101,44.7693543330156,0 34.5940486106699,44.7662512785218,0 34.5905080947702,44.7636831065041,0 34.5888987693613,44.762276677881,0 34.5874825630014,44.7604574419016,0 34.5864525947397,44.7596777516842,0 34.5852295074289,44.7599682257483,0 34.5845428619211,44.7597541923699,0 34.5843068275278,44.7594942936229,0 34.5829979095285,44.7595707345531,0 34.5809808883493,44.7589897809307,0 34.5793501052683,44.75839353294,0 34.5754018935983,44.7578890105712,0 34.5712605628793,44.7569258191878,0 34.566518417341,44.75525930703,0 34.5660463485544,44.755519224955,0 34.5644584808176,44.7553357536007,0 34.5619050178354,44.7556109604122,0 34.5609823379343,44.755519224955,0 34.5578924331491,44.7545865728175,0 34.5570555839365,44.7540514376998,0 34.5564547691171,44.7540055687433,0 34.5557681236093,44.7536997747632,0 34.5542017135446,44.7535621669406,0 34.5528470016985,44.7528685700235,0 34.5520530678301,44.752104066876,0 34.5503149963885,44.7517218114841,0 34.5479761101275,44.7507890976455,0 34.5468603111773,44.7500551482332,0 34.5458303429156,44.7489542065209,0 34.5447789169817,44.7483884365951,0 34.5427833534746,44.7472110056316,0 34.5416890121966,44.7458500488489,0 34.5401418006975,44.7447042187865,0 34.5379745758135,44.7426703287258,0 34.5366227424699,44.7408045917863,0 34.5356142318803,44.7404987274885,0 34.5336401260454,44.7393670154218,0 34.5322882927019,44.7387552698839,0 34.5299494064409,44.7382352810534,0 34.528340081032,44.7375623473428,0 34.5251858032304,44.7368129346128,0 34.5226752555925,44.7366752863137,0 34.5215165412981,44.7370270535334,0 34.519885758217,44.7367364633762,0 34.518254975136,44.7370270535334,0 34.5170318878252,44.7366752863137,0 34.515916088875,44.7360482176657,0 34.5152294433672,44.7361246898185,0 34.5141994751054,44.735696444451,0 34.5136844909746,44.7352987851793,0 34.5114743507463,44.7349470073747,0 34.5095217025835,44.7343658045426,0 34.5066678321916,44.7332492668123,0 34.5041358268816,44.7322091847447,0 34.5034062660295,44.7311384923571,0 34.5023977554399,44.730679618082,0 34.5007240570146,44.7303125160228,0 34.4989001548845,44.7303736998623,0 34.4973552024919,44.7300830760446,0 34.4945657051164,44.7285687492064,0 34.4935571945268,44.7281557440502,0 34.4917547500688,44.7278192191351,0 34.4899523056108,44.7268096325631,0 34.488536099251,44.7263354266863,0 34.4872057235796,44.7250504620589,0 34.4853174484331,44.7246833240301,0 34.4812190330583,44.7219450122376,0 34.4806611335832,44.7217920300765,0 34.4792020118791,44.7203539778551,0 34.4770777023393,44.7199715110998,0 34.4746959007341,44.7191453742215,0 34.4733869827348,44.7186405069495,0 34.4710051811296,44.7169881830503,0 34.4698250091631,44.7162691013335,0 34.4674432075578,44.7154123113722,0 34.4653618133623,44.7146626096792,0 34.462250450905,44.7129336684978,0 34.4590532577593,44.7113117825961,0 34.4569074905473,44.7103019059937,0 34.4560491836626,44.7095062331453,0 34.4548904693681,44.7087411527135,0 34.454139450844,44.7077924388378,0 34.4532811439592,44.7074863987641,0 34.4512426651079,44.7053287700179,0 34.4502126968462,44.7046707536505,0 34.4469725883562,44.7007224973084,0 34.4451453507926,44.6986549841295,0 34.4438149751212,44.6977520177521,0 34.442334395745,44.6960990934188,0 34.4413688004996,44.6946757038442,0 34.4402744592215,44.6927624903238,0 34.4385852015795,44.6921950614515,0 34.437061706859,44.6909246399871,0 34.4363965190233,44.6899756321528,0 34.4364823497118,44.689700110817,0 34.4359029925646,44.6894858155324,0 34.4348086512865,44.6887663898102,0 34.4331993258776,44.6880163406486,0 34.4317402041735,44.687113207254,0 34.430581489879,44.6858885969562,0 34.4292296565355,44.684862965776,0 34.427513042766,44.6833015220111,0 34.4265474475206,44.6822452272022,0 34.4259895480455,44.6810052042069,0 34.4244231379808,44.6801938166738,0 34.4228996432604,44.6788159625797,0 34.4214834369005,44.6774533855346,0 34.4205392993273,44.6770859435055,0 34.4199599421801,44.6757845674526,0 34.4184774871538,44.6750527010553,0 34.4167823310564,44.67419529691,0 34.415816735811,44.6726488750005,0 34.4156236167619,44.6717608119566,0 34.4145936485002,44.6701224528033,0 34.4134993072222,44.6677490461004,0 34.4127053733537,44.666141198871,0 34.4121048065376,44.6641560331779,0 34.4111177536201,44.6626859114471,0 34.4097444626045,44.6612004378259,0 34.4082638832283,44.6601437373896,0 34.4072553726387,44.6588726082759,0 34.4062683197212,44.6570960434715,0 34.4053241821479,44.6543085641112,0 34.4038650604438,44.6533742688662,0 34.402985295887,44.6516741189688,0 34.4015047165107,44.6472473671683,0 34.4007966133308,44.6441377152901,0 34.3999110702021,44.6401128145382,0 34.3993960860712,44.6393314909982,0 34.3984090331538,44.6389638056668,0 34.3973146918757,44.6380139410365,0 34.3963490966303,44.6371253438223,0 34.3949543479426,44.6358383856363,0 34.3916498664362,44.6331418086351,0 34.3881737235529,44.6304144603994,0 34.3874012473566,44.6296789736164,0 34.3867146018488,44.6283612029967,0 34.3860494140131,44.6277942459045,0 34.3852554801447,44.6275643968464,0 34.3838473768548,44.6257265895916,0 34.3827101202325,44.6236118678551,0 34.3815514059381,44.6203323633628,0 34.380615063368,44.6166919528283,0 34.3799713332044,44.6161095546475,0 34.3779972273695,44.6150673537513,0 34.3767097670423,44.6135959792494,0 34.3757012564527,44.6121858767978,0 34.3752935606825,44.610346560926,0 34.3756368834364,44.608783096324,0 34.3756154257642,44.6078633914708,0 34.3746498305189,44.6074495195035,0 34.3743923384535,44.6067597262935,0 34.3734267432081,44.6058399891846,0 34.3729546744215,44.6046443090239,0 34.3727186400282,44.6046136502324,0 34.3724826056349,44.6030653600788,0 34.3719247061598,44.6019922633201,0 34.3725469786512,44.6011644321852,0 34.3724611479627,44.6005818772305,0 34.3729117590772,44.6001986141846,0 34.3729761320936,44.5997233644727,0 34.3725469786512,44.5990641406506,0 34.3721178252088,44.5977763328559,0 34.3716886717664,44.5964271700585,0 34.371602841078,44.595415277263,0 34.3720319945203,44.5953079542593,0 34.3720963675367,44.5946486800011,0 34.3718174177992,44.5941580524101,0 34.3713238913404,44.5937440821363,0 34.3708518225538,44.5937440821363,0 34.370894737898,44.5928701351417,0 34.3712166029798,44.5925634839374,0 34.3704655844557,44.5924101577244,0 34.3698647696363,44.5922108330386,0 34.3699076849806,44.5919195111058,0 34.3702724654066,44.5917508503675,0 34.3695858198988,44.5911682003889,0 34.3680623251783,44.590907539284,0 34.3669894415724,44.5910148704697,0 34.366753407179,44.5913828615916,0 34.3662598807203,44.591367528675,0 34.3655303198682,44.5921495022275,0 34.3634060103285,44.5919655094035,0 34.3623974997389,44.5918121816021,0 34.360616512953,44.5907695417519,0 34.3587496954786,44.5894355486012,0 34.3565395552503,44.5884388669328,0 34.3544796187269,44.5876568431152,0 34.3530419546949,44.5871814901281,0 34.3520549017774,44.5861541009467,0 34.3514970023023,44.5845133071772,0 34.3503382880079,44.5835472105317,0 34.349994965254,44.5836085504819,0 34.3488791663038,44.5816456397569,0 34.3496087271558,44.5814309423481,0 34.3490722853529,44.5803114357838,0 34.3498662192213,44.5801120693245,0 34.3502309996473,44.5795906460999,0 34.3503812033521,44.5791305628743,0 34.3500378805982,44.578563121848,0 34.3501451689588,44.5776122622237,0 34.3493726927625,44.5767534078166,0 34.3489649969923,44.5756491476692,0 34.349093743025,44.5748362760144,0 34.348728962599,44.5744221671879,0 34.3482139784681,44.574483516831,0 34.3481066901075,44.5747135774124,0 34.3475058752882,44.5745295290206,0 34.3464544493543,44.5714312930661,0 34.3457678038465,44.5685629760084,0 34.3460038382398,44.5679800920298,0 34.3473556715833,44.5674892378023,0 34.3477848250257,44.5665995538851,0 34.3476131636488,44.5655871382795,0 34.3483641821729,44.565157623269,0 34.3485358435499,44.5645133447663,0 34.3482783514845,44.5635929344431,0 34.3486002165662,44.5633168084871,0 34.3479135710584,44.5625651255882,0 34.347656078993,44.5611844580545,0 34.3479135710584,44.5600952415005,0 34.3472269255506,44.5598497814143,0 34.346754856764,44.5593588581141,0 34.3466261107313,44.5565973368439,0 34.3473556715833,44.5559836475308,0 34.3478062826978,44.55530858176,0 34.3478062826978,44.5544954238855,0 34.3479564864027,44.5526389262423,0 34.34782774037,44.5513807699756,0 34.3472269255506,44.5501225863243,0 34.3475702483045,44.5493860758705,0 34.3474415022718,44.5488643752884,0 34.3455317694532,44.5480818155877,0 34.3448451239454,44.5480971599973,0 34.3445661742078,44.5482352595011,0 34.3401120884244,44.5474341481853,0 34.338588593704,44.5474188035996,0 34.3376873714749,44.5473881144161,0 34.3368290645902,44.5476336274281,0 34.3357990963285,44.5475722492728,0 34.333202718002,44.5483241271845,0 34.330499051315,44.5488611768488,0 34.3280957920377,44.5493982215242,0 34.3244479877774,44.5507945143314,0 34.3221305591886,44.551868562772,0 34.3210362179105,44.5523135198511,0 34.3202819136301,44.5524117902094,0 </coordinates>
          </LinearRing>
        </outerBoundaryIs>
      </Polygon>
    </Placemark>
  </Document>
</kml>