<?xml version="1.0" encoding="UTF-8"?>
<kml xmlns="http://earth.google.com/kml/2.2">
  <Document>
    <Placemark>
      <name>Армянск</name>
      <description>31.08.2018 0:41:56</description>
      <Style>
        <LineStyle>
          <color>A6000000</color>
          <width>1</width>
        </LineStyle>
        <PolyStyle>
          <color>80008000</color>
          <fill>1</fill>
        </PolyStyle>
      </Style>
      <Polygon>
        <extrude>1</extrude>
        <outerBoundaryIs>
          <LinearRing>
            <coordinates>33.6263583394353,46.0708337528159,0 33.627334384326,46.0717982163909,0 33.6319692415037,46.0744863938691,0 33.6364324373045,46.0783093526217,0 33.6402089875975,46.0829084965938,0 33.6418397706785,46.0833863076072,0 33.6408956331053,46.0866114230084,0 33.6372907441893,46.0913293055085,0 33.6346299928465,46.0970618819024,0 33.6299951356688,46.1028535634894,0 33.6226136964598,46.1115100900957,0 33.6185796541014,46.1177180665949,0 33.6166913789549,46.123089785857,0 33.6153180879393,46.1285803318675,0 33.6149747651854,46.1346073622823,0 33.6373765748777,46.1405740651591,0 33.6178228734931,46.213230605979,0 33.6160204290351,46.2133497748226,0 33.6140463232001,46.2125155874525,0 33.6131021856269,46.2126943429625,0 33.6133596776923,46.2139456151366,0 33.6150762914618,46.2146606149254,0 33.6170503972968,46.2154947695043,0 33.6143038152655,46.2263376185995,0 33.6460611700019,46.2293160459448,0 33.651125180622,46.2263971887404,0 33.6579916357001,46.2229420130247,0 33.6643431066474,46.221810097526,0 33.6742994665107,46.2149585287389,0 33.6851999639472,46.2063183677674,0 33.6883756994208,46.2047093591321,0 33.69687293758,46.2033386847354,0 33.7080309270819,46.2002396418346,0 33.735410916706,46.1861129296312,0 33.7384149908026,46.1853975558572,0 33.7403032659491,46.1850994806861,0 33.7483713506659,46.1541504302896,0 33.7492678853337,46.1369854965613,0 33.7497828694646,46.1287507358832,0 33.7461779805486,46.1223052761506,0 33.7187121602361,46.1270797636487,0 33.7133906575505,46.1146652298994,0 33.7411998006169,46.0893499613941,0 33.7333033772771,46.0852888769083,0 33.7259219380681,46.0785993758914,0 33.7130473347966,46.0756127279427,0 33.715278932697,46.0633060223933,0 33.667728731281,46.0624695441238,0 33.6663554402653,46.0705947931263,0 33.6263583394353,46.0708337528159,0 </coordinates>
          </LinearRing>
        </outerBoundaryIs>
      </Polygon>
    </Placemark>
  </Document>
</kml>