<?xml version="1.0" encoding="UTF-8"?>
<kml xmlns="http://earth.google.com/kml/2.2">
  <Document>
    <Placemark>
      <name>Бахчисарайский р-н</name>
      <description>14.08.2018 13:31:24</description>
      <Style>
        <LineStyle>
          <color>A6000000</color>
          <width>1</width>
        </LineStyle>
        <PolyStyle>
          <color>80008000</color>
          <fill>1</fill>
        </PolyStyle>
      </Style>
      <Polygon>
        <extrude>1</extrude>
        <outerBoundaryIs>
          <LinearRing>
            <coordinates>33.6126428764176,44.9260162823308,0 33.6472314163257,44.9316050761487,0 33.6472987639633,44.9087653006978,0 33.6701672060343,44.9142307780364,0 33.6705963594767,44.911974189147,0 33.6720125658366,44.9118522088279,0 33.6722915155741,44.9123706233838,0 33.6733643991801,44.9122029015426,0 33.6766474230143,44.9130720002895,0 33.678213833079,44.912004684186,0 33.6811964495036,44.9115167616067,0 33.6838572008463,44.9122181490031,0 33.6902301294657,44.9147491709919,0 33.694242714152,44.9115777521572,0 33.6977403147074,44.9137733685779,0 33.7184577672312,44.899042808546,0 33.7398069005544,44.9109510520774,0 33.7457989183553,44.9067757572062,0 33.745920868821,44.898471030658,0 33.7965829868586,44.8983887055493,0 33.8139861705806,44.9010511101838,0 33.8323653518448,44.8989854467657,0 33.8336098968277,44.9002055131236,0 33.8334526231661,44.9108240572122,0 33.832711408609,44.9144201683899,0 33.8333122234283,44.9173322463291,0 33.8333704029729,44.9209748220504,0 33.8736722389996,44.92057233983,0 33.8972862009892,44.9113697669103,0 33.8974626133034,44.9019445777006,0 33.9193161236135,44.9022114211363,0 33.9401883271634,44.8795386227171,0 33.9568392118005,44.8846838641174,0 33.9673026577771,44.8732821323595,0 34.0113483533001,44.8729776608443,0 34.0114549567872,44.8694518715684,0 34.0085540034157,44.8681570046894,0 34.0066733628133,44.8642613718865,0 34.0071293383458,44.8640019468438,0 34.0047626360701,44.8590047957911,0 34.0046581763196,44.8581043813795,0 34.005983187573,44.8575549501585,0 34.0081182259488,44.8575778432315,0 34.0107467907834,44.8570513002361,0 34.0125331419873,44.8566277730049,0 34.0140459078717,44.8562042426376,0 34.016438438313,44.8553724351308,0 34.0175542372632,44.8549107385878,0 34.0252158147879,44.8529954476917,0 34.0277146336645,44.8549634469442,0 34.0401106211888,44.8501534700715,0 34.0368059763935,44.8467422431762,0 34.0397744660927,44.8443934715469,0 34.0425653467588,44.8440729958394,0 34.0468317525921,44.8386994243464,0 34.0485634142804,44.8381748298767,0 34.0538160667438,44.8324322620985,0 34.0444418505536,44.8264890283008,0 34.0435191706524,44.8270616631541,0 34.0417351367818,44.8264771065484,0 34.0385756512546,44.8289211725233,0 34.0346345798348,44.830997341742,0 34.0339318410729,44.8309820726032,0 34.0325907365655,44.8316119211955,0 34.0313676492547,44.8315584797658,0 34.0310457841729,44.8314821347797,0 34.0306910740166,44.830369244318,0 34.0357646386958,44.8277938077256,0 34.0347148354569,44.8267309072251,0 34.0330411370316,44.8266392855042,0 34.0293497588706,44.8279166183646,0 34.0293497588706,44.8279166183646,0 34.0261499108611,44.8239371816498,0 34.0232491166,44.8262556613021,0 34.0221926225398,44.8290653748767,0 34.0212431205485,44.8304281750967,0 34.0195694221232,44.8315504568019,0 34.0169462217067,44.8323139011702,0 34.0088191283915,44.8336957095848,0 34.0050442602298,44.8318143145644,0 34.0016392500052,44.8292331799172,0 33.9963749725661,44.8279702203103,0 34.0010894037432,44.8212811350059,0 34.0050568899637,44.8150655220225,0 34.0038123449808,44.8141032906573,0 34.0054216703897,44.8123620690035,0 34.0081253370767,44.8118274727887,0 34.0107860884195,44.8119496666491,0 34.05298931202,44.7840646132663,0 34.0544799745863,44.7828995732035,0 34.0561107576674,44.7765877763949,0 34.0599516809767,44.7718496516899,0 34.0638569773024,44.7691747310405,0 34.0669259482085,44.7676433372213,0 34.0680632048309,44.7659007038823,0 34.0693314257405,44.7608111536402,0 34.0729769942712,44.7556733487578,0 34.0900387187934,44.7456585357101,0 34.113182832356,44.7295150960747,0 34.1242210508902,44.7431602570303,0 34.1242210508902,44.7451941297378,0 34.1251222731192,44.747350261982,0 34.1251651884634,44.7495216041126,0 34.1368733764473,44.7578732867185,0 34.1449414611641,44.7612978372203,0 34.1517864585701,44.7607321889499,0 34.1515289665046,44.7631170465581,0 34.1523872733894,44.7652113589999,0 34.1543184638801,44.7666941471362,0 34.1638242126289,44.7710200007548,0 34.1696177841011,44.7757123423799,0 34.172514456777,44.7774395754293,0 34.1777501287741,44.7773173079789,0 34.1830501737875,44.7765836978031,0 34.1954741659445,44.7773478748659,0 34.2000231924338,44.7789984625741,0 34.2031130972189,44.7754221291679,0 34.2078767004294,44.7749483246807,0 34.2156229200644,44.7759570650141,0 34.2257509413046,44.7790595945399,0 34.228347319631,44.7813825609557,0 34.2271027746481,44.7842250102617,0 34.2272100630087,44.7873270925203,0 34.2254934492392,44.7915138733687,0 34.2249999227804,44.7948753009194,0 34.2283795530251,44.7982067299192,0 34.2481050950201,44.7969842018801,0 34.2648206216009,44.7945090790661,0 34.2646410335385,44.7863899732064,0 34.2693402637326,44.7798493194416,0 34.2703487743222,44.7767009818197,0 34.273940907483,44.7741573427618,0 34.2765184448485,44.7707338159607,0 34.2792864845519,44.7628843278926,0 34.2759380272868,44.7585742079538,0 34.2743930748942,44.7487276072196,0 34.2716035775187,44.7490334276867,0 34.2688999108317,44.7501496585671,0 34.2626986435893,44.7513423196337,0 34.2550382546427,44.7511894157535,0 34.2432794503214,44.7486205696712,0 34.2298798294714,44.7466600725046,0 34.2158466929099,44.7364032178159,0 34.212045854476,44.733955799668,0 34.2067486399314,44.7318759129178,0 34.2050038162749,44.7277857059234,0 34.1989173746923,44.7219384564096,0 34.1947760439734,44.719429497252,0 34.1935744143347,44.7192765083943,0 34.1912999010901,44.7211276462225,0 34.1877164698462,44.7225197849738,0 34.184798226438,44.7225503810511,0 34.1791334009985,44.7198731626362,0 34.1757860041479,44.7185115579968,0 34.1731896258215,44.7181749765963,0 34.1711940623144,44.7184503615251,0 34.1676320887426,44.7201791367677,0 34.1652717448095,44.7206839905231,0 34.1636195040564,44.7203933176904,0 34.1636118131309,44.7101948082831,0 34.1645130353599,44.7092002136491,0 34.1668948369652,44.7081290924922,0 34.1669162946373,44.707425202009,0 34.1662725644737,44.7064917687292,0 34.1669377523094,44.7060786048982,0 34.1800483899742,44.7056807406252,0 34.1806996171613,44.7043985523023,0 34.179953094869,44.6930563962121,0 34.1810688938192,44.6912196607487,0 34.1848631562343,44.686666373116,0 34.1893045913865,44.6802574578112,0 34.1918151390244,44.6777619894812,0 34.192995310991,44.6772108285132,0 34.1946046363999,44.6767362134502,0 34.1967718612839,44.6763687668425,0 34.1990249168564,44.6763687668425,0 34.2016856681992,44.6771495880799,0 34.2068955061991,44.6742366286919,0 34.2061015723307,44.6725524060038,0 34.2048141120036,44.6673156897697,0 34.2050543166185,44.6594348749492,0 34.2046251631761,44.6578114802911,0 34.20243648062,44.6571988666411,0 34.202264819243,44.6562952496131,0 34.2039599753404,44.6540438031499,0 34.2056980467821,44.6523436730141,0 34.2058920620779,44.6502123835126,0 34.2058920620779,44.6455557420686,0 34.2065530356999,44.6393693237954,0 34.2090831193636,44.6321778591122,0 34.2133497492445,44.6236520734855,0 34.213263918556,44.6205104980269,0 34.2117618815077,44.618809378425,0 34.2075561777723,44.6167710338997,0 34.205994230343,44.6124849511843,0 34.2052774600307,44.5999300168096,0 34.2063466083635,44.5892328897493,0 34.2018834125627,44.5876535191295,0 34.2008836814703,44.5844332935982,0 34.1888899175945,44.5747534146331,0 34.1835254995647,44.5768239172009,0 34.182302412254,44.5752442071387,0 34.185006078941,44.5717012051301,0 34.1645171396696,44.5606518258159,0 34.1564061396086,44.5580898094916,0 34.142654872591,44.557349129709,0 34.1299413955868,44.5497972229184,0 34.1231205540243,44.5460678814492,0 34.1181546836507,44.5403039259595,0 34.1178618223072,44.5349446181003,0 34.1148971541006,44.53040131166,0 34.1086958868582,44.5252898343206,0 34.1057411145371,44.5197148292538,0 34.1007843922776,44.518348490558,0 34.0977803181809,44.5163833626141,0 34.0877048913053,44.5137953895706,0 34.0824916227569,44.5048385741885,0 34.0774061544647,44.5030726204943,0 34.0714427752645,44.5062864240512,0 34.0657135768087,44.5032766676469,0 34.055695591832,44.5008570965071,0 34.0444088562973,44.496910228218,0 34.0435720070847,44.496111607362,0 34.0440411464158,44.4940952117814,0 34.0451784030382,44.4921446197237,0 34.0438480273668,44.4910694621623,0 34.0413160220567,44.4906086742412,0 34.0382690326158,44.488581163844,0 34.0356347653294,44.4845599204536,0 34.0354266604274,44.4764085192405,0 34.0326371630519,44.4738888630682,0 34.0309205492824,44.4735815804316,0 34.0215659291153,44.4743016125996,0 34.017725005806,44.4752541716371,0 34.0061807782059,44.4738099631002,0 34.0043354184036,44.4740557883712,0 34.0031767041092,44.4734412232388,0 34.0026831776505,44.4725347277745,0 34.0030694157486,44.4690161619272,0 34.0013228610982,44.4641994180007,0 33.9981359256189,44.4584333103362,0 33.9938090939327,44.4522672449968,0 33.9820923902238,44.4417805756843,0 33.9760559699524,44.437850489314,0 33.9658850333679,44.4349755472451,0 33.9538472793091,44.4327923410234,0 33.9466763066084,44.4259348449975,0 33.9261627720625,44.4214292686053,0 33.8974524067671,44.4251044920111,0 33.8944042933354,44.4608748403422,0 33.8935674441227,44.4623501054543,0 33.8933528674015,44.4644707332963,0 33.8926903617748,44.4647588560943,0 33.8921968353161,44.4648971545288,0 33.8914163124927,44.4652064040012,0 33.8907645357021,44.4653619885158,0 33.8901529920467,44.4655290973443,0 33.890029610432,44.465596324898,0 33.8895655882724,44.4656885225592,0 33.8890479219326,44.4658978875371,0 33.8885704887279,44.4661283802164,0 33.8883827340969,44.4662743584393,0 33.888039411343,44.4664318608466,0 33.8879074052301,44.4674361348809,0 33.887725015017,44.4667984506131,0 33.8875909045663,44.466886804876,0 33.8873629168,44.4671941230027,0 33.886998136374,44.4675436953914,0 33.8867701486077,44.467603237731,0 33.8867111400094,44.4677184807953,0 33.8864938810792,44.4679355212776,0 33.8863919571366,44.4681007019852,0 33.8862256601777,44.4681948163639,0 33.885745544764,44.4683023754667,0 33.8852412894692,44.4685405413415,0 33.8851474121537,44.4685328585866,0 33.8848896095467,44.4686589391784,0 33.8839186810909,44.4693350831192,0 33.8836826466976,44.4692793838867,0 33.8831006073414,44.4695041011525,0 33.8829718613087,44.4694848945826,0 33.8826419495998,44.4694023062597,0 33.8826982759891,44.4695886099843,0 33.8826097630916,44.4698267705748,0 33.8820491814075,44.4701379143883,0 33.8817699957917,44.4707513202257,0 33.8873699757816,44.4708172750776,0 33.8950902303103,44.4829604994312,0 33.8867324670199,44.4835288790348,0 33.8819795926455,44.4806638818243,0 33.8738745288505,44.480734756662,0 33.8721364574088,44.4801817120754,0 33.8670831756248,44.4799359127871,0 33.8619242671015,44.478393058333,0 33.8612271975589,44.4817433629514,0 33.8648167896271,44.4838861624071,0 33.8662008094788,44.4840474573114,0 33.8687459400545,44.4864545114301,0 33.8729782625427,44.4912818560286,0 33.8600703634042,44.5001899689529,0 33.8565337238364,44.506271206621,0 33.858778024232,44.511809061369,0 33.8596577887889,44.5125076657955,0 33.8592115993934,44.5146483769895,0 33.8646531989693,44.5158462420268,0 33.8569239612952,44.5166138851957,0 33.8555184837714,44.5165140921595,0 33.8534585472479,44.5153549450554,0 33.8535551067725,44.5149864695901,0 33.8553575512305,44.5153856512383,0 33.8548962112799,44.5142802183911,0 33.8533405300513,44.5123993987094,0 33.8462916847601,44.5123533370526,0 33.8462809559241,44.5129981969129,0 33.8390667560229,44.5208065035985,0 33.839556681553,44.5295648291781,0 33.841176735798,44.5298027432364,0 33.8429469937478,44.5302325209905,0 33.8433761471902,44.5307927621974,0 33.8429487910883,44.5315630417323,0 33.8442147937433,44.5323151278201,0 33.8439680305139,44.5328830230802,0 33.8435388770715,44.5328369777263,0 33.8424016204492,44.5328906973023,0 33.8422299590723,44.5329904620969,0 33.8412643638269,44.5328369777263,0 33.8399018016473,44.5331285976822,0 33.8398371182252,44.5341866686638,0 33.8403159440943,44.5397109843101,0 33.8337989023129,44.5440803929369,0 33.8373073261346,44.5480320694939,0 33.837189308938,44.5485998104279,0 33.8352050170772,44.5494676988672,0 33.832844673144,44.5498589706617,0 33.8316263381,44.5515302185345,0 33.8311355349998,44.5533069223202,0 33.8315378040246,44.5550919464755,0 33.8338230461053,44.5573242445342,0 33.8308344811056,44.5587497056612,0 33.8294487755579,44.5604053738087,0 33.8288689296115,44.5619738934905,0 33.8273025195468,44.5637227095698,0 33.8267660777439,44.5656018608351,0 33.8269055526126,44.5659546742581,0 33.8260043303836,44.5670849825138,0 33.8272586780593,44.569328927934,0 33.8270977455184,44.5697814199157,0 33.8273441153968,44.5736347784084,0 33.8200121553135,44.576896054878,0 33.8131514271192,44.5785833638171,0 33.8123574932508,44.5781846182785,0 33.8128269596685,44.5754479272298,0 33.8111639900793,44.5750798345398,0 33.8092901957657,44.5779114858535,0 33.8087108386185,44.5780035047342,0 33.8074233782913,44.5779114858535,0 33.8071980727341,44.5765771956064,0 33.8061788333084,44.5769529471274,0 33.8064792407181,44.5773133595547,0 33.8063612235214,44.5782795604968,0 33.8053428893547,44.5795083263524,0 33.8055789237481,44.5801754414698,0 33.8052999740105,44.5805051621878,0 33.8049459224205,44.5807888738568,0 33.8047957187157,44.5812259404571,0 33.8026861430766,44.5820167784934,0 33.8010124446513,44.5829445628685,0 33.7996069671275,44.5822161383769,0 33.7994031192424,44.5814416980501,0 33.7972466231944,44.5806289079229,0 33.7970535041453,44.5809739617328,0 33.7954227210643,44.5820014430893,0 33.7956158401134,44.5827452054999,0 33.7943820239665,44.5842173667657,0 33.7922401652933,44.5853915176501,0 33.7909097896219,44.5857518774132,0 33.7898690925242,44.5856368692225,0 33.78876402241,44.5857288757934,0 33.7873800025583,44.585161499604,0 33.7872370798079,44.5874711786697,0 33.7867435533491,44.5885752127661,0 33.7862607557264,44.5903002237749,0 33.7840613443342,44.5928684779947,0 33.7837823945967,44.5939110799337,0 33.7831386644331,44.5945856946826,0 33.7855741102186,44.6059916229508,0 33.7844583112684,44.609210630227,0 33.7817117292372,44.6125214217635,0 33.7757894117323,44.6082602753357,0 33.7749740201917,44.608781439634,0 33.7744161207166,44.6083982310493,0 33.7743732053724,44.607999691421,0 33.7742015439955,44.6078770632892,0 33.7732359487501,44.6077850920193,0 33.7718197423902,44.6064208342982,0 33.7702318746534,44.6059456358314,0 33.7695666868177,44.6060069519825,0 33.7618633825269,44.6050258857449,0 33.7622710782972,44.6058689905508,0 33.7608334142652,44.6057463578902,0 33.7599965650526,44.6054244459158,0 33.7596961576429,44.6045353463705,0 33.7591382581678,44.6051025321454,0 33.7585803586927,44.6051791784441,0 33.7577649671522,44.6050105564526,0 33.7569066602674,44.604688640373,0 33.7557050306288,44.6049339099299,0 33.7546536046949,44.6054857626208,0 33.7449761945692,44.6065281366361,0 33.735644339293,44.6013074000707,0 33.7291426646409,44.6045573275242,0 33.7217544572522,44.612786694727,0 33.7221406953503,44.6135070699569,0 33.7170552270581,44.6178291324082,0 33.7161891223663,44.6227459605107,0 33.7161247493499,44.6245235845864,0 33.7221609958675,44.6316902624775,0 33.716496170428,44.6349844423066,0 33.7194902580703,44.6385959227226,0 33.726464001509,44.640878612466,0 33.7245113533461,44.6420429026143,0 33.7227732819045,44.6428088701461,0 33.7287828852726,44.6490817926506,0 33.7338836802286,44.6508628276607,0 33.7370474131859,44.6530778383094,0 33.7384421618736,44.6549923713078,0 33.7399656565941,44.6576113493781,0 33.7416822703636,44.6594951020713,0 33.7442142756737,44.6608121608491,0 33.7479908259667,44.6634155605093,0 33.7494070323265,44.6632624226109,0 33.7499739027536,44.6638828196477,0 33.7505103445566,44.6646638102565,0 33.7534929609811,44.6719066106039,0 33.7530638075388,44.6722434628629,0 33.7544585562265,44.6741267369021,0 33.755273947767,44.6749841420687,0 33.7658382853244,44.6813886502737,0 33.7772081467851,44.6899943953577,0 33.7765215012773,44.6903923681612,0 33.7705990774787,44.6946489289998,0 33.7609480380439,44.7011786437694,0 33.7512920855903,44.6995564262364,0 33.7501762866401,44.7010103025685,0 33.7382887362861,44.7060909290712,0 33.7277270760509,44.7156310192086,0 33.7199379410717,44.7167478993454,0 33.7140704680952,44.7061481301249,0 33.7120749045881,44.7061634325235,0 33.7100578834089,44.7053217945552,0 33.7066890288862,44.7051993734607,0 33.7057878066572,44.7056431486879,0 33.7057663489851,44.7076783498205,0 33.7067534019025,44.7076477458257,0 33.7076975394758,44.7090859519789,0 33.7080623199018,44.7109833213847,0 33.7046934653791,44.7120849910127,0 33.7021185447248,44.7143035671625,0 33.7031270553144,44.7150379735061,0 33.697827010301,44.7145330701528,0 33.6927200843366,44.7145330701528,0 33.6864329864057,44.7135079497013,0 33.6880208541425,44.710508984904,0 33.6895872642072,44.7084585821899,0 33.6902953673872,44.707249728414,0 33.6904241134199,44.7063162922853,0 33.6901022483381,44.7044187688513,0 33.6899735023054,44.7025670928752,0 33.6889220763715,44.7019090449037,0 33.6882139731916,44.7021845077616,0 33.6832572509321,44.7035924084278,0 33.6808110763105,44.7045411916077,0 33.6752535392316,44.7057807073366,0 33.6759401847395,44.7080913381611,0 33.6745883513959,44.7104171773911,0 33.6743094016584,44.7117330710653,0 33.6697603751691,44.7131560384654,0 33.6702539016279,44.711702469229,0 33.6710907508405,44.7106313946931,0 33.6696960021528,44.7099428362391,0 33.6647607375654,44.7122073974458,0 33.6627866317304,44.7127582231696,0 33.6608983565839,44.7143800682611,0 33.6531649477297,44.7157271087976,0 33.6516629106813,44.7159413063122,0 33.647457206946,44.715788308169,0 33.6163333705537,44.7119979362646,0 33.6144454611418,44.7290600981276,0 33.6130482250165,44.7305333384824,0 33.6105591350507,44.7341277646901,0 33.6103047716649,44.7388606818142,0 33.6141671526464,44.7389524438918,0 33.6134254090131,44.744574450625,0 33.6110366823615,44.7505744434405,0 33.6233103402972,44.7517059346314,0 33.6332237848163,44.7530208828606,0 33.6424009393795,44.7565962315937,0 33.6825552203622,44.7698501537363,0 33.6775568352993,44.7857054797474,0 33.6636982150265,44.7955365117214,0 33.603929933803,44.8104234117177,0 33.5849613516497,44.8083460252996,0 33.5768074362444,44.8191598299432,0 33.5701984732317,44.8306434432577,0 33.5679668753313,44.8358347464364,0 33.570799288051,44.8372393710723,0 33.5731810896563,44.837514184904,0 33.5756272642779,44.8384607557799,0 33.5782451002764,44.839544712877,0 33.5805839865374,44.8407965814419,0 33.5830516188311,44.8427811949981,0 33.584832605617,44.844460429634,0 33.5855621664691,44.84478100519,0 33.5859698622393,44.8452847631493,0 33.5866779654192,44.8454832120368,0 33.5870642035174,44.8459259032287,0 33.5879225104022,44.846139614992,0 33.5889953940081,44.8460022289501,0 33.5912913649249,44.8451931711229,0 33.593480047481,44.8459564335295,0 33.5945100157427,44.8463380609147,0 33.5963124602007,44.8476355749853,0 33.5975570051837,44.8490551743187,0 33.5987586348223,44.8510395014521,0 33.6004108755755,44.853832706858,0 33.6028999655413,44.8588998133122,0 33.6053484999959,44.8638233028944,0 33.6079886011392,44.8719026420243,0 33.6087580590643,44.8768455379605,0 33.6092200730478,44.8816517101457,0 33.6103546614658,44.8884233319406,0 33.6109148008053,44.8942457123762,0 33.6113688603113,44.8986728851908,0 33.612368152326,44.9000239939328,0 33.6127114750799,44.9025860565896,0 33.6131822878043,44.9057138286815,0 33.6135899835745,44.909297277192,0 33.6133861000765,44.9146320663093,0 33.613300269388,44.9203060997131,0 33.6126428764176,44.9260162823308,0 </coordinates>
          </LinearRing>
        </outerBoundaryIs>
      </Polygon>
    </Placemark>
  </Document>
</kml>