<?xml version="1.0" encoding="UTF-8"?>
<kml xmlns="http://earth.google.com/kml/2.2">
  <Document>
    <Placemark>
      <name>Белогорский р-н</name>
      <description>14.08.2018 17:23:24</description>
      <Style>
        <LineStyle>
          <color>A6000000</color>
          <width>1</width>
        </LineStyle>
        <PolyStyle>
          <color>3300FFFF</color>
          <fill>1</fill>
        </PolyStyle>
      </Style>
      <Polygon>
        <extrude>1</extrude>
        <outerBoundaryIs>
          <LinearRing>
            <coordinates>34.189637087215,45.225165132962,0 34.1859071279453,45.2253084297177,0 34.1871497329299,45.2528385495631,0 34.2062041457717,45.2555666025315,0 34.2079226109201,45.2682325522099,0 34.2157332035715,45.2661718316518,0 34.21600838778,45.2821341571896,0 34.217081271386,45.2819220799728,0 34.2184545624016,45.282558309229,0 34.2184545624016,45.2840731118831,0 34.2167379486321,45.2847396121522,0 34.2915046332603,45.2862359892128,0 34.292706262899,45.2856300962919,0 34.2921483634239,45.2806615286121,0 34.3156659720665,45.2802979576811,0 34.3180485433991,45.2411210819597,0 34.3213530249054,45.2360576273267,0 34.3238826369141,45.2347076719932,0 34.3313011489063,45.2085939393269,0 34.3361505828052,45.2085029306654,0 34.3455061278491,45.2068950868092,0 34.3465790114551,45.208442258143,0 34.3808510634355,45.2084607109361,0 34.3810553246014,45.2165684368046,0 34.4320617205471,45.2172563104201,0 34.4475330051453,45.2260799376385,0 34.489184223173,45.2255910304202,0 34.5188172120713,45.2247086017382,0 34.5209743631796,45.2097897305049,0 34.5438482416586,45.2095167098588,0 34.5479389183713,45.2175822466499,0 34.5592705097647,45.2266702517755,0 34.5529119145462,45.237217884061,0 34.533761992168,45.2393706215388,0 34.5322976303422,45.2542362872233,0 34.55843561336,45.2542918414163,0 34.5589505974908,45.2498661666848,0 34.6083749953568,45.2491485257468,0 34.6102464905356,45.2606357763128,0 34.6439530324055,45.2607319542614,0 34.6404031431651,45.2492817430528,0 34.639673582313,45.2458864344245,0 34.6415618574595,45.2444918734802,0 34.6438792860484,45.2436429934235,0 34.6473983442759,45.2441280693052,0 34.6487716352916,45.2450375753453,0 34.6529362229911,45.2440283358055,0 34.6529791383354,45.2434219892304,0 34.6546957521049,45.2425124571527,0 34.6564123658744,45.2427550004733,0 34.6598026780693,45.2400263280176,0 34.6768400697319,45.2370246359443,0 34.6835362711049,45.2366476007741,0 34.6815192499257,45.2244875178904,0 34.6736228265859,45.2247301386633,0 34.6735799112416,45.2171780784184,0 34.6687439469182,45.188087909171,0 34.6950315194701,45.187430969631,0 34.6956952364473,45.2062992022509,0 34.7054799349336,45.208786816594,0 34.7106297762422,45.209757563215,0 34.7133763582735,45.2113653256191,0 34.715822532895,45.213943716969,0 34.7359432000733,45.2154984791501,0 34.7371328596139,45.2238119052278,0 34.7681670899011,45.2237738101937,0 34.7648045575095,45.1613206185941,0 34.7846314465476,45.1598632446362,0 34.7878071820212,45.1788061789863,0 34.7987935101462,45.1778349007324,0 34.8250577008201,45.1785633609864,0 34.8643681561423,45.1780777218595,0 34.8640258573113,45.1602861146721,0 34.8905475400506,45.1600432171788,0 34.8874936655031,45.1332799168826,0 34.8627744272218,45.1321255941057,0 34.8643280634087,45.1064611982653,0 34.8610015337349,45.0808045652285,0 34.8688986405049,45.076512344714,0 34.879541645876,45.0830190761715,0 34.8886396988545,45.082654232467,0 34.888553868166,45.0785799850992,0 34.9002340596114,45.0785799147947,0 34.9113920491134,45.0793704632735,0 34.9226358693038,45.0790664074694,0 34.9234941761886,45.0670244882117,0 34.9133661549483,45.0653822104052,0 34.9119928639327,45.0640440229999,0 34.912765340129,45.0624320735733,0 34.9187734883224,45.0611546471919,0 34.9220672704856,45.0552917656459,0 34.9222389318626,45.051945643583,0 34.9266162969749,45.0479908815841,0 34.947001085488,45.0499378757395,0 34.964450649939,45.0586440865518,0 34.9684417769532,45.0560586166745,0 34.9709697839787,45.0454804638634,0 34.9652459692041,45.0364545046146,0 34.963958508877,45.0358763605318,0 34.9611260961573,45.0296229001018,0 34.961036107535,45.0279058765823,0 34.9620231604525,45.0246646636221,0 34.9571067767867,45.0106194620366,0 34.9488387929446,45.0106076855637,0 34.9386645947727,45.0082334967162,0 34.9377295344774,45.0001495191841,0 34.93453020193,44.9967712889292,0 34.932362977046,44.9962384163832,0 34.929852429408,44.9969235373117,0 34.9286722574415,44.9982633055184,0 34.9288439188184,44.9997552829971,0 34.9284791383924,45.0015669173556,0 34.9244880113782,45.0029979154927,0 34.920840207118,45.0023585377933,0 34.9089356874489,44.9929759680789,0 34.8973214699574,44.99766312128,0 34.8957979752369,45.0004796063053,0 34.8928797318287,45.0024738978992,0 34.8890173508473,45.002778363749,0 34.8839962555714,45.0013778073521,0 34.8827517105885,45.000753635246,0 34.883202321703,44.999703183808,0 34.8789477530504,44.9480382493997,0 34.8573734203988,44.9447905515908,0 34.8289974523693,44.9317453461986,0 34.8369582487255,44.922629757319,0 34.8281176878124,44.9190776369571,0 34.8277099920421,44.9178427278744,0 34.8263152433544,44.9159826909256,0 34.8257972603542,44.9135540182789,0 34.8184587364895,44.911541365385,0 34.8119356041653,44.9117853270908,0 34.8092319374782,44.911099182136,0 34.8072363739712,44.9092389254389,0 34.8056485062343,44.9049540052437,0 34.8050262337429,44.9040237843584,0 34.7992112045986,44.9018277929781,0 34.8009699974856,44.8992647358059,0 34.7705720663405,44.8967177757456,0 34.755714511171,44.8942382088928,0 34.7532254212052,44.8919655769489,0 34.7528667648708,44.8892371954492,0 34.7535062344799,44.8865973707994,0 34.7419477374896,44.8809192071739,0 34.7288936246683,44.8874392800752,0 34.7268336881448,44.8903374808643,0 34.7253616845632,44.8973893479786,0 34.719396451714,44.8981824162385,0 34.7131552837354,44.9004783740316,0 34.7014403098838,44.9008810740334,0 34.6934626383852,44.8893110814867,0 34.6923190865875,44.8725447776194,0 34.6754151033502,44.8774589956904,0 34.6697365029794,44.8754772356266,0 34.6621523193387,44.878535720278,0 34.6594915679959,44.8781695642541,0 34.650521528603,44.8797918631623,0 34.6488478301778,44.877610196819,0 34.6579887985005,44.872910940304,0 34.6419599174275,44.8616799834805,0 34.6457793830647,44.8589634697036,0 34.6404172640473,44.8552893043908,0 34.638258400719,44.8569103130686,0 34.6353186996387,44.8557808973657,0 34.6370353134082,44.8535677884212,0 34.6321215064929,44.8509119446624,0 34.6310915382312,44.8517819760254,0 34.6317138107227,44.8528351541824,0 34.6288813980029,44.8531556828165,0 34.6282162101672,44.8509424723026,0 34.6266927154468,44.8510798464821,0 34.6266283424304,44.8530946298818,0 34.6239246757434,44.8532930516812,0 34.6226740762629,44.8507085732609,0 34.6244550630488,44.8500369586668,0 34.6226753002039,44.8457898143675,0 34.6141780620447,44.8446754445901,0 34.6073759799829,44.8424161077538,0 34.6036398716443,44.8466972395572,0 34.5989373897535,44.8560276102664,0 34.6065977787,44.8603925070435,0 34.6027997707349,44.8628647833077,0 34.5967701648695,44.8600567575796,0 34.5877794002515,44.8651843527391,0 34.5942167018873,44.8677937558802,0 34.5971993183119,44.8703267467712,0 34.5988301013929,44.8731647839694,0 34.6035078739149,44.8735309720548,0 34.6045378421766,44.8766348353839,0 34.6045378421766,44.8766348353839,0 34.5824319785915,44.884375107946,0 34.5706755847452,44.8865697313965,0 34.5365413317434,44.8883730267692,0 34.5365060115916,44.86520242904,0 34.5006769647184,44.8680040640936,0 34.4935744752469,44.8643798742345,0 34.4897783526236,44.8626361661549,0 34.4852722414786,44.8647726236461,0 34.4736701246578,44.8563677508109,0 34.456126129982,44.8633375141908,0 34.4550116177981,44.8703131700081,0 34.4207476587472,44.8655845574494,0 34.413140913981,44.8695672549568,0 34.4111453504739,44.871444062203,0 34.4096754999337,44.8776233579454,0 34.4080876321969,44.8787218294774,0 34.4061027975259,44.8789125341898,0 34.4053410501657,44.8775013042498,0 34.4053088636575,44.8762578673723,0 34.4044050634111,44.8750422723564,0 34.4042870462145,44.8736614623701,0 34.4075056970324,44.8698392674197,0 34.4073876798357,44.8678937407144,0 34.4062289655413,44.8667950610908,0 34.4035145700182,44.8681760369307,0 34.3999746574635,44.8763973579024,0 34.3980112804646,44.8785485576517,0 34.3949428333516,44.8797614324535,0 34.3875828518147,44.8803945581313,0 34.3864905708204,44.8906147898219,0 34.3854391448866,44.8917206381081,0 34.3837547176252,44.8918045291735,0 34.3819844596754,44.8892572364509,0 34.3794095390211,44.887525927767,0 34.3779075019728,44.8874801655923,0 34.3747317664991,44.8896080679412,0 34.372371422566,44.8931620220149,0 34.3666958682905,44.8913316870134,0 34.3681657188307,44.8891733416449,0 34.3656551711927,44.8889445370025,0 34.3636917941938,44.8894326524654,0 34.3616425865064,44.8905080171301,0 34.3577072294038,44.8930981864169,0 34.3571171434205,44.8965756652419,0 34.3574183767887,44.9003088162301,0 34.3561201876255,44.9000953068852,0 34.3534165209385,44.8985244635944,0 34.3513351267429,44.8992488869849,0 34.3485456293675,44.9009798404034,0 34.3466895407291,44.900163934976,0 34.3495052133689,44.8953374458466,0 34.3475740228781,44.8946816075233,0 34.3450098310599,44.8973659213681,0 34.3437330995688,44.8971829039769,0 34.3444944844294,44.8944119846855,0 34.3424989209223,44.893550228118,0 34.3401171193171,44.8945568805308,0 34.3393124566126,44.8934205821997,0 34.3428744301844,44.8910335194745,0 34.3449236378718,44.890156458593,0 34.3449128631877,44.8892431668539,0 34.3440009121226,44.8883203169852,0 34.3371773723887,44.8891058843462,0 34.3370808128642,44.8862610114702,0 34.3336368564891,44.8866042342103,0 34.3302091466856,44.8878722012808,0 34.3272767451782,44.8900340618648,0 34.3243247714275,44.8934301543824,0 34.3218571391338,44.8971058827677,0 34.3185050448581,44.9027048366785,0 34.3134567097956,44.9076605517979,0 34.3083605126673,44.9101384078262,0 34.3040825509991,44.9126477333441,0 34.3036748552288,44.9135778137324,0 34.3037836648465,44.9184656277919,0 34.3030596726532,44.9240093458507,0 34.301839292783,44.927370182601,0 34.2997364409154,44.9298548044808,0 34.2976476178589,44.9332469368856,0 34.2942251191559,44.934816824886,0 34.2917038426819,44.9366991093648,0 34.2912961469116,44.9379336103952,0 34.2908091737262,44.9402729979623,0 34.3014762111165,44.9464797076554,0 34.3056603469744,44.9511101685074,0 34.3009561392575,44.9650539938854,0 34.3009735124138,44.9659517589473,0 34.3001366632012,44.9665839290912,0 34.3001581208733,44.9678177831438,0 34.2992890851525,44.9684347001505,0 34.2984856014697,44.9702822195949,0 34.2955272937871,44.9727620059499,0 34.2926412621735,44.9785943784049,0 34.2914526582165,44.98416216911,0 34.2889421105785,44.9869184122007,0 34.2881815558481,44.989555812105,0 34.2792766219187,44.9896471727627,0 34.2769306872293,44.9997640753285,0 34.2761844553876,45.0229431880717,0 34.2839050979975,45.0282510139568,0 34.2817988965323,45.045395550778,0 34.2790845010092,45.0474871412795,0 34.275677717117,45.0492999686231,0 34.2753991406877,45.0545299625642,0 34.271858624788,45.0545299625642,0 34.2707075746845,45.0626011049415,0 34.274934736092,45.0652775162215,0 34.2749853429929,45.0861662348186,0 34.2700715360776,45.0850413549165,0 34.2663379011289,45.0851325622257,0 34.2630977926389,45.0858774164309,0 34.2618747053281,45.0873366942867,0 34.2616386709348,45.0894343404557,0 34.2632791593771,45.091612028622,0 34.2611548498373,45.0936031242724,0 34.2604252889853,45.0955789516358,0 34.2613050535421,45.0961564881745,0 34.263987262557,45.095305379644,0 34.266326148818,45.0932535476509,0 34.2640972110766,45.1072395098495,0 34.2660284015673,45.107649781001,0 34.270274594832,45.1066780816083,0 34.2789864097124,45.106541322544,0 34.2787074599749,45.1129551324322,0 34.2516234741799,45.1465005908201,0 34.226066246181,45.1413929540267,0 34.2117551182807,45.1550237012761,0 34.2034826432052,45.1508941503324,0 34.1956772351667,45.1700676787122,0 34.1956772351667,45.1716006800674,0 34.1970505261824,45.1725417098288,0 34.1970719838545,45.1743630132887,0 34.1962351346418,45.1756075369293,0 34.1949476743147,45.176244965264,0 34.1927589917585,45.176244965264,0 34.1919221425459,45.1768975630223,0 34.1919650578901,45.1784303793089,0 34.1933383489058,45.179659637604,0 34.1954626584455,45.1811316771997,0 34.1946687245771,45.1826340286217,0 34.1907848859236,45.1845460545307,0 34.1895832562849,45.1867007999006,0 34.189637087215,45.225165132962,0 </coordinates>
          </LinearRing>
        </outerBoundaryIs>
      </Polygon>
    </Placemark>
  </Document>
</kml>