<?xml version="1.0" encoding="UTF-8"?>
<kml xmlns="http://earth.google.com/kml/2.2">
  <Document>
    <Placemark>
      <name>Джанкойский</name>
      <description>15.08.2018 0:04:07</description>
      <Style>
        <LineStyle>
          <color>A6000000</color>
          <width>1</width>
        </LineStyle>
        <PolyStyle>
          <color>80008000</color>
          <fill>1</fill>
        </PolyStyle>
      </Style>
      <Polygon>
        <extrude>1</extrude>
        <outerBoundaryIs>
          <LinearRing>
            <coordinates>34.062879167085,45.6497931377674,0 34.0707674976912,45.6495124286852,0 34.077204799327,45.6656429325924,0 34.100808238658,45.6667261570276,0 34.1025737823164,45.680033858624,0 34.1068653167402,45.6799135301991,0 34.1098693908369,45.6838240706803,0 34.1111158510994,45.6942244273787,0 34.0999390306188,45.7185900051038,0 34.1001739431196,45.762642945843,0 34.1181983876996,45.7625227963637,0 34.1213466493786,45.7840198737839,0 34.1005756227673,45.7851608405584,0 34.0994866533843,45.7967947055206,0 34.0791447802153,45.798595805699,0 34.0792306109038,45.8026180511973,0 34.0789731188384,45.8202644495576,0 34.1025795596796,45.8202477672627,0 34.1017241119248,45.8521348280063,0 34.0991491912705,45.8535142957736,0 34.1000933288438,45.8565729927576,0 34.104642355333,45.8565729927576,0 34.1089338897569,45.8560332350059,0 34.1149420379502,45.8541740290534,0 34.123181784044,45.8587919414461,0 34.1534800170762,45.853934126954,0 34.1533510606077,45.879057707303,0 34.1320650498656,45.8793574483806,0 34.1315499613585,45.9125829929437,0 34.1081181834044,45.9079096618808,0 34.0963593790831,45.9086885778946,0 34.0967885325255,45.9142605023631,0 34.0882054636778,45.9140208612849,0 34.0864030192198,45.9130622865569,0 34.0788499186339,45.9136014868919,0 34.0764466593566,45.934686075196,0 34.0706101725401,45.9526495285629,0 34.0585938761534,45.9722828669433,0 34.0537873575987,45.9876015824929,0 34.067520267755,45.998848547688,0 34.0699235270323,46.030662600863,0 34.0788499186339,46.0519414166685,0 34.0431443522276,46.0574390952763,0 34.0634003947081,46.0808578129907,0 34.1135255167784,46.0684327999696,0 34.1643372843566,46.0586341699092,0 34.2398682902159,46.0323365144496,0 34.2645875284972,46.0414225835811,0 34.2786637614073,46.0505071490474,0 34.2845002482237,46.0419007560929,0 34.2766038248839,46.027314620613,0 34.2796937296691,46.0074616885864,0 34.2851868937316,46.0014804839312,0 34.3040696451964,46.0081793894069,0 34.3167725870909,45.9971736135617,0 34.3219224283995,45.99047336677,0 34.3318787882628,45.9962164854359,0 34.3332520792784,46.0110500989651,0 34.3325654337706,46.0254013974033,0 34.3462983439269,46.0304234661853,0 34.3456116984191,46.0392707557325,0 34.3576279948058,46.0354450757367,0 34.3905869791808,46.0077009232346,0 34.3926469157042,45.9938235922234,0 34.3977967570128,45.9797034024782,0 34.4053498575987,45.9691707316094,0 34.422859318048,45.9600727114682,0 34.4389954874816,45.9562415162353,0 34.4468919108214,45.9454648502212,0 34.4626847575011,45.9366024560088,0 34.4709245035948,45.9375606214192,0 34.4832841227355,45.9260615366631,0 34.4898072550597,45.9171960210432,0 34.4815675089659,45.9073704058882,0 34.4764176676573,45.8951458557519,0 34.4825974772276,45.8850765449847,0 34.5004502604308,45.8807605636294,0 34.5165864298644,45.8886729383214,0 34.5272294352355,45.9085687453778,0 34.5354691813292,45.9246239823433,0 34.5574418375792,45.9155186009356,0 34.5711747477355,45.9078497448087,0 34.580101139337,45.9133618429496,0 34.5831910441222,45.9227071849251,0 34.5694581339659,45.9447463308336,0 34.56190503338,45.9509731874556,0 34.5529786417784,45.9725222546789,0 34.5536652872862,45.986644287742,0 34.558128483087,45.9885588605812,0 34.5722047159972,45.981378868766,0 34.5952073405089,45.9653401695827,0 34.6178666422667,45.9579176969559,0 34.6405259440245,45.9492967953159,0 34.6501389811339,45.9375606214192,0 34.6443024943175,45.9241447892379,0 34.6346894572081,45.9155186009356,0 34.6281663248839,45.904494284875,0 34.6261063883605,45.8884331860567,0 34.6158067057433,45.8807605636294,0 34.5897141764464,45.8742859588278,0 34.5780412028136,45.8699691337776,0 34.5522919962706,45.8558171745271,0 34.5540086100401,45.8490997217717,0 34.5529786417784,45.8407017574143,0 34.5306626627745,45.8239020005955,0 34.5172730753722,45.8193411858644,0 34.5234528849425,45.7876451440127,0 34.5419923136534,45.7912478810594,0 34.5502320597472,45.8044559115727,0 34.5595017741026,45.799893493664,0 34.5818177531066,45.8217416615461,0 34.6048203776183,45.8335024866363,0 34.6044770548644,45.8392619782583,0 34.6212998698058,45.845260810682,0 34.6326295206847,45.8555772795622,0 34.6580354044737,45.868050436539,0 34.6927110026183,45.8766840491421,0 34.7294465372862,45.8821992615784,0 34.7527924845519,45.8970636113927,0 34.763435489923,45.8886729383214,0 34.7709885905089,45.8757248255156,0 34.7620621989073,45.8675707518133,0 34.7517625162901,45.8591755946641,0 34.7452393839659,45.8416615893519,0 34.7421494791808,45.827502378175,0 34.7579423258605,45.8174207303174,0 34.766868717462,45.8046960284139,0 34.7809449503722,45.7962913191505,0 34.7819749186339,45.7895666329395,0 34.7672120402159,45.7753940848026,0 34.7507325480284,45.7604969909989,0 34.7424928019347,45.7460766357047,0 34.7177735636534,45.728767258721,0 34.7541657755675,45.7330951092877,0 34.8022309611144,45.7335759607366,0 34.8520127604308,45.7422305742161,0 34.8698655436339,45.744874770139,0 34.8781052897276,45.7504031360892,0 34.8801652262511,45.7446343939005,0 34.8691788981261,45.7376630297986,0 34.8633424113097,45.7302099130821,0 34.854759342462,45.7237176731,0 34.8420564005675,45.7229962662197,0 34.8556968368173,45.717633980689,0 34.8294399226604,45.6776940188067,0 34.8144168090273,45.6699218539135,0 34.8111552428652,45.6664616785275,0 34.8104685973574,45.6640243822874,0 34.8104108817527,45.6597516825977,0 34.8075355536888,45.6546356292037,0 34.8068760169859,45.6348742958097,0 34.7427859009809,45.6431906854837,0 34.7289315531554,45.6434036529657,0 34.7174824737746,45.6246182120655,0 34.7163480247558,45.6110919692523,0 34.7586399478168,45.6104205147582,0 34.7584324416655,45.6023530457685,0 34.7975283202666,45.6021120525678,0 34.7970064044575,45.5837112173533,0 34.7024248679854,45.5838103894663,0 34.6962879737593,45.5851664077118,0 34.6959229040988,45.5663570903969,0 34.6124593745482,45.5656127170047,0 34.6120302211058,45.5567798449147,0 34.5945636760008,45.5694107236747,0 34.5855085383665,45.5625982420123,0 34.5924608241331,45.557955632083,0 34.572975167969,45.5478678106081,0 34.5741119586592,45.5222511516252,0 34.5619654235907,45.5223995882957,0 34.5204233703681,45.522158249628,0 34.5158431803541,45.5427332950087,0 34.5060584818678,45.5451457462218,0 34.5057151591139,45.5471962478209,0 34.4616322213988,45.5472870443043,0 34.4617180520872,45.5664013018798,0 34.4180372760232,45.5676673149345,0 34.4171789691384,45.5609149134207,0 34.4031885669168,45.5608546204417,0 34.4025877520974,45.5498802137018,0 34.3297249479202,45.5500568775728,0 34.2556530637649,45.5522278036335,0 34.2555546455601,45.564840608404,0 34.2518639259556,45.5679152476991,0 34.2555546455601,45.5703868937144,0 34.2549732341478,45.6267489027721,0 34.190342725725,45.6274715596134,0 34.1816738326931,45.6004546154664,0 34.1814163406277,45.598647079501,0 34.1603878219509,45.5988880876829,0 34.1597870071316,45.5807493109996,0 34.14184839324,45.5812314810593,0 34.1402126174024,45.6137235298751,0 34.1024471144727,45.6138440015008,0 34.1023612837842,45.6303461517915,0 34.0634799819043,45.6324537385468,0 34.062879167085,45.6497931377674,0 </coordinates>
          </LinearRing>
        </outerBoundaryIs>
      </Polygon>
    </Placemark>
  </Document>
</kml>