<?xml version="1.0" encoding="UTF-8"?>
<kml xmlns="http://earth.google.com/kml/2.2">
  <Document>
    <Placemark>
      <name>Джанкой</name>
      <description>31.08.2018 0:57:05</description>
      <Style>
        <LineStyle>
          <color>A6000000</color>
          <width>1</width>
        </LineStyle>
        <PolyStyle>
          <color>80008000</color>
          <fill>1</fill>
        </PolyStyle>
      </Style>
      <Polygon>
        <extrude>1</extrude>
        <outerBoundaryIs>
          <LinearRing>
            <coordinates>34.4158354050242,45.6764791552209,0 34.4098927973304,45.6806896583124,0 34.4093348978553,45.6804490040413,0 34.4005801676307,45.686104103964,0 34.3887263335624,45.6868560685885,0 34.3875247039237,45.6849911776474,0 34.3750470675864,45.6849460585428,0 34.3744140662589,45.6850964554155,0 34.3710827626624,45.6848934195413,0 34.3705624141135,45.6846001441912,0 34.3702083625236,45.6849460585428,0 34.3629536266861,45.6849975228982,0 34.3633646752175,45.6859275086761,0 34.3638637247551,45.6865024894428,0 34.3643278828559,45.6883380772304,0 34.3644190779624,45.6885453301642,0 34.3650236012805,45.6890684744359,0 34.3651657583583,45.689321310189,0 34.3655289392898,45.6902091550342,0 34.3659838698833,45.6913240020018,0 34.366681381792,45.6930268103922,0 34.3695957206027,45.6928278386674,0 34.3696522100979,45.6935627055433,0 34.3740604613271,45.6931122664037,0 34.3743742797819,45.6934524887458,0 34.3748192947983,45.6943631798303,0 34.3746610444664,45.6944045320024,0 34.3708735089944,45.6947935430414,0 34.3708601356178,45.6949980883407,0 34.367005416973,45.695398181033,0 34.3674675894962,45.6968029001219,0 34.3633883277343,45.6970049029838,0 34.3609475175307,45.6972060150592,0 34.3620305499039,45.7016371211478,0 34.3618401130638,45.701732970403,0 34.3625108630667,45.7044681307096,0 34.36298502789,45.706120860263,0 34.3633995169743,45.7088979644001,0 34.3630052322491,45.7089487015105,0 34.3654725284534,45.7123123284965,0 34.3680975510865,45.7128191949154,0 34.3724819900338,45.7156570521214,0 34.3735709668938,45.7159219798237,0 34.3748503805939,45.7159050695826,0 34.3760144593064,45.7159877418234,0 34.3768083931748,45.716256425756,0 34.3771570803467,45.7166697831132,0 34.3773376442227,45.7171198004275,0 34.3769030074031,45.7177857942442,0 34.376522133723,45.7187684253071,0 34.3772702120326,45.720187881944,0 34.3778495691798,45.7204452729762,0 34.3801991842769,45.7212756797023,0 34.3815126471838,45.7219196538314,0 34.382841978075,45.7229191644787,0 34.3832604026813,45.7229529806826,0 34.3825090903477,45.7241060929548,0 34.382369615479,45.7244761834846,0 34.3814082383296,45.7249832099795,0 34.3811748861453,45.7251334984725,0 34.3813931343758,45.7264110460269,0 34.3805428741181,45.7269661578414,0 34.38194741188,45.7293759560945,0 34.3826928819859,45.7295590705697,0 34.3846762905766,45.7296320026333,0 34.3903177110422,45.7284845275018,0 34.3913766377277,45.7284839842444,0 34.3919566319411,45.7279044814756,0 34.3954035693786,45.7271340555367,0 34.4011086279533,45.7258096719239,0 34.401237373986,45.7260501297365,0 34.4014787727974,45.7261703582521,0 34.4038199209251,45.7261917458278,0 34.4057149539409,45.7269966194186,0 34.4068361173091,45.7270642468373,0 34.4124996180192,45.7272829800168,0 34.4146728699285,45.7283877072364,0 34.4149518196661,45.7286525741829,0 34.415654558428,45.7286206399372,0 34.4170090739805,45.7288009742599,0 34.4244800044162,45.7287145080412,0 34.4241622552524,45.7270593822736,0 34.4237967503277,45.7259168485986,0 34.4222144678398,45.7225060383967,0 34.4206021168953,45.7200046487701,0 34.4212351182229,45.719621376895,0 34.4174315909413,45.7157577910234,0 34.4167664031056,45.7160584175612,0 34.4118713662415,45.7111680020646,0 34.4121342227249,45.7106042763203,0 34.4148656752891,45.7096140637493,0 34.4188125458545,45.7084593270577,0 34.4192551103419,45.7083973144811,0 34.4197298613376,45.7086087207077,0 34.4229354091754,45.7113688807279,0 34.423473566551,45.711640625602,0 34.4393084695873,45.711586058752,0 34.4396947076855,45.7090906081725,0 34.438792228352,45.69952064634,0 34.4350243106804,45.6886786308892,0 34.434605886074,45.6887087082761,0 34.4337153926811,45.6893102525955,0 34.4158354050242,45.6764791552209,0 </coordinates>
          </LinearRing>
        </outerBoundaryIs>
      </Polygon>
    </Placemark>
  </Document>
</kml>
