<?xml version="1.0" encoding="UTF-8"?>
<kml xmlns="http://earth.google.com/kml/2.2">
  <Document>
    <Placemark>
      <name>Евпатория</name>
      <description>15.08.2018 11:00:32</description>
      <Style>
        <LineStyle>
          <color>A6000000</color>
          <width>1</width>
        </LineStyle>
        <PolyStyle>
          <color>80008000</color>
          <fill>1</fill>
        </PolyStyle>
      </Style>
      <Polygon>
        <extrude>1</extrude>
        <outerBoundaryIs>
          <LinearRing>
            <coordinates>33.2425728436935,45.1613671952878,0 33.249193872201,45.1599918801641,0 33.2497046757474,45.159916664631,0 33.2504530120626,45.1597743410785,0 33.2521732551532,45.1595293041829,0 33.2533822739809,45.1592430052487,0 33.253678658077,45.159321758398,0 33.2542888534069,45.1592817242512,0 33.2553769354753,45.1591127675984,0 33.2575482928213,45.1588352320963,0 33.2575912081656,45.1590392324619,0 33.2579638102489,45.1599304696853,0 33.2580415943103,45.1599266743962,0 33.2583688238101,45.1608356388826,0 33.2582400777774,45.1608546150212,0 33.2586585023837,45.1621639532137,0 33.2585887649493,45.1626611142739,0 33.2602839210467,45.1627370163415,0 33.2612066009479,45.1625624414338,0 33.2613568046527,45.1653479854853,0 33.2613031604724,45.1681792711425,0 33.2610349395709,45.1706609739734,0 33.2606165149646,45.1737117255376,0 33.2606272438006,45.1746678973897,0 33.2914382961711,45.1765133563141,0 33.2944638279399,45.180049418653,0 33.2960302380046,45.1810965363197,0 33.3046084336869,45.1846843208857,0 33.3060460977188,45.1849574614991,0 33.3056598596207,45.1865507554499,0 33.3068185739151,45.1865052333886,0 33.3072477273575,45.1847601934106,0 33.3094793252579,45.1855947844665,0 33.3114963464371,45.1840925116974,0 33.3211093835465,45.1949110192328,0 33.3212381295792,45.1989920782373,0 33.3199077539078,45.1991134435102,0 33.3189421586625,45.200615317196,0 33.3208089761368,45.2021171509736,0 33.3213025025956,45.2056819501417,0 33.3209039948628,45.2095827778191,0 33.322889040373,45.221362287301,0 33.3328454002362,45.2215897568936,0 33.3352486595136,45.2243496482889,0 33.3365146621686,45.224789398746,0 33.3373729690534,45.2246074334549,0 33.3414284690839,45.2225906122171,0 33.3442179664594,45.2225451191781,0 33.3456985458356,45.2270639154121,0 33.3356134399396,45.2358426904177,0 33.3430270656568,45.2358654315854,0 33.3429295285398,45.2430703979808,0 33.3572225398944,45.2431333869562,0 33.3569543189929,45.2458012767998,0 33.3574478454516,45.2459111729664,0 33.3609669036792,45.2459566471796,0 33.3604490858159,45.249293303369,0 33.3604866367421,45.2505361775108,0 33.3667523414845,45.2485770228659,0 33.3688391000981,45.2485277614208,0 33.3690879511871,45.2474296546764,0 33.3726201560239,45.2464061750283,0 33.3721802737455,45.2453830045173,0 33.373537471507,45.2451101559146,0 33.3739719893674,45.2461219628584,0 33.378839969903,45.2461283284167,0 33.3800469639597,45.2464921196967,0 33.3807926180659,45.2464314879796,0 33.3827184441386,45.246980960536,0 33.3832066061793,45.2471552748497,0 33.3835954346596,45.2457360680502,0 33.3875763432613,45.2432298804289,0 33.3798455994148,45.2409673139375,0 33.3809578479785,45.2393205528077,0 33.381767875101,45.2395858495144,0 33.3817195953387,45.239654068466,0 33.3843195240517,45.2402093385911,0 33.3869606317538,45.2406849225866,0 33.3870303691882,45.240590175751,0 33.3869552673358,45.2404878489898,0 33.3866870464343,45.2403021443938,0 33.3863973678607,45.2401657079748,0 33.3857053579349,45.2400595905319,0 33.3853298486728,45.2400444308809,0 33.3849704326648,45.2399269434478,0 33.3844500841159,45.2398814643758,0 33.3848953308124,45.2389984051303,0 33.3865314783115,45.238683835624,0 33.3870357336063,45.2391575842124,0 33.38770628586,45.2395365802203,0 33.3879047693271,45.2392788632118,0 33.3878350318927,45.2392561234193,0 33.388076430704,45.2388430155933,0 33.3883231939334,45.2386383555503,0 33.3884685617545,45.2382888806783,0 33.3883880954841,45.2381789696684,0 33.3881306034187,45.2380576883058,0 33.3881466966728,45.2376597320041,0 33.3882808071235,45.2375081288654,0 33.3883344513038,45.2371708104211,0 33.3884739261726,45.2368410702182,0 33.3885049555029,45.2362334768368,0 33.3890157323936,45.2358707890231,0 33.38981503068,45.2357532929025,0 33.3902924638847,45.2355599923011,0 33.3905999744288,45.2353819639392,0 33.3908735597483,45.2353289007459,0 33.3912919843546,45.2353364812051,0 33.3916031206004,45.235245515627,0 33.3923058593623,45.235200032783,0 33.3927511060587,45.2352568863323,0 33.3936094129435,45.2355866357891,0 33.394862657183,45.2357038753494,0 33.3966742843578,45.2331548501614,0 33.3964543432186,45.2330676714497,0 33.3962236732433,45.2328895232289,0 33.3961968511531,45.2325825005078,0 33.396347054858,45.2322224100038,0 33.3969220309433,45.2317082793556,0 33.397056141394,45.2310259900994,0 33.3969971327957,45.2306696802106,0 33.397061505812,45.2301844886611,0 33.3973286788065,45.2296363492085,0 33.3973501364787,45.2294013307712,0 33.3971901902483,45.2285270645252,0 33.3969809779451,45.2280153195235,0 33.3969834258469,45.2277010002481,0 33.3971443583878,45.2269504283446,0 33.3970907142075,45.2266357917002,0 33.3974876811417,45.2262642907547,0 33.3977988173874,45.2261960556214,0 33.3981904199036,45.2259799771555,0 33.3988918623888,45.2259018224239,0 33.3997501692736,45.2259056132866,0 33.4001632294619,45.2257501877092,0 33.4004099926913,45.2252156720925,0 33.4004022806702,45.2247409983836,0 33.400187703949,45.2243543211078,0 33.4002306192932,45.2239676411844,0 33.4004934757767,45.2234937651187,0 33.4003330658998,45.2230066491749,0 33.4008802365389,45.2224834808677,0 33.4014113139238,45.221903440775,0 33.4018665905341,45.2200220985363,0 33.4019685144766,45.2199159432273,0 33.4021938200339,45.2198211615328,0 33.4023164827195,45.2196692649658,0 33.4023433048096,45.2191498570593,0 33.4025525171128,45.218687314611,0 33.4026651698914,45.2183612578221,0 33.4028421956864,45.218289221766,0 33.4034466550685,45.2182939285714,0 33.4037953422405,45.218161230344,0 33.404063563142,45.2178010478696,0 33.4042727754451,45.2171602965274,0 33.4051590222734,45.2159420915645,0 33.4054272431749,45.2157638893109,0 33.4067576188463,45.2153581927218,0 33.4070419330019,45.2152937359862,0 33.4081738252062,45.2145998735277,0 33.4086137074846,45.2144747498823,0 33.4090053100008,45.2144747498823,0 33.4096426137198,45.21464557542,0 33.4099591143836,45.2145811178713,0 33.4102541573752,45.2144294527605,0 33.4103399880637,45.2142284958617,0 33.4101693165489,45.2135260180385,0 33.4098420870491,45.2132113066019,0 33.4095738661476,45.2125970454947,0 33.4097562563606,45.2123354137356,0 33.409837329722,45.2120121632349,0 33.4097836855417,45.2118832420544,0 33.4098909739023,45.2116746924632,0 33.4096817615991,45.21157989694,0 33.409654939509,45.211371346229,0 33.4098158720499,45.2110793739404,0 33.410025084353,45.2108746132534,0 33.4101270082956,45.2106698518243,0 33.4102611187464,45.2105636789393,0 33.4104059580332,45.2106243491838,0 33.4106795433527,45.2105674708315,0 33.4108672979837,45.2104157949456,0 33.4109853151804,45.2104650896532,0 33.4111730698114,45.2104385463544,0 33.4112375175156,45.2102993806936,0 33.411124864737,45.2100263625103,0 33.4111892377533,45.2099277722865,0 33.4113984500565,45.2098329738322,0 33.4114306365647,45.209078372464,0 33.4115637403963,45.2087307012852,0 33.4112204176424,45.2080102137792,0 33.4107040119642,45.2075004107425,0 33.4106932831281,45.2073563108387,0 33.4097054611684,45.2064375960855,0 33.4094747911932,45.2060925076328,0 33.4095659862997,45.2060356247185,0 33.4095713507177,45.2059635729448,0 33.4095069777013,45.2058611834242,0 33.4095767151357,45.2057208715576,0 33.4097215544225,45.2056677804902,0 33.4098717581274,45.2054667924261,0 33.4107453744547,45.2046989421921,0 33.4129194433632,45.2030636584211,0 33.4130803759041,45.2030484888365,0 33.413246672863,45.2029612636462,0 33.4132949526253,45.2028285294026,0 33.4135256226006,45.2026464933615,0 33.4136382753792,45.2026654554765,0 33.4139497981432,45.2024331834909,0 33.4139390693071,45.2023383724628,0 33.4140463576677,45.2022814857696,0 33.4141751037004,45.2022890706654,0 33.4144111380937,45.2020994479665,0 33.4145613417986,45.2020691082757,0 33.4145720706346,45.2018832773138,0 33.4148563847902,45.2016557283651,0 33.4152211652162,45.201583671007,0 33.4155752168062,45.2014395560152,0 33.4156449542406,45.2013561208519,0 33.4157996503515,45.2013307258456,0 33.416073235671,45.2006746174746,0 33.4161107865972,45.2004167230817,0 33.4165475528639,45.1995955585088,0 33.4178618352812,45.1981429631829,0 33.4183281231807,45.1976980568868,0 33.4184890557216,45.1977321916776,0 33.4186178017543,45.1976146162003,0 33.4186553526805,45.1974401489123,0 33.4198636141122,45.1964268454399,0 33.4201050129236,45.195990667045,0 33.4202666601251,45.1958120188287,0 33.4216720974925,45.1947487237314,0 33.4218759453776,45.1948890628393,0 33.421940318394,45.1948359615962,0 33.421757928181,45.1946804505259,0 33.4228787703417,45.1937502183069,0 33.4230772538088,45.193875387847,0 33.4231630844973,45.1937957345353,0 33.4229753298662,45.1936667717928,0 33.4242091460131,45.1926691971099,0 33.4243325276278,45.1927260934777,0 33.4244398159884,45.1926502316412,0 33.4243325276278,45.1925819559013,0 33.4304358306291,45.1893929627893,0 33.4308864417436,45.1890705302731,0 33.4323777499559,45.1890591502684,0 33.4317056656635,45.1918043814853,0 33.4317182781559,45.1921252637971,0 33.4314983370167,45.1925880237132,0 33.432093787418,45.1930128491538,0 33.4415708470208,45.1871121561561,0 33.4460501926562,45.1854421425497,0 33.4463827865741,45.1851727978735,0 33.447450305762,45.1847061836375,0 33.4519371249428,45.183184781138,0 33.4532996871224,45.1829306006979,0 33.4532728650323,45.1828585194696,0 33.4530153729668,45.1829040444666,0 33.4523984648934,45.1827143567375,0 33.4496503648007,45.1817308216655,0 33.4481058562967,45.1797620367949,0 33.4484760011407,45.1796482179108,0 33.4484062637063,45.1795799264704,0 33.4480629409524,45.1797089213442,0 33.447800084469,45.1794319614,0 33.4481302161206,45.1791684164328,0 33.448352619526,45.1793712576693,0 33.4484438146325,45.1793181418516,0 33.4482024158212,45.1791094720847,0 33.4493664945337,45.178115434627,0 33.4553102697107,45.174799320738,0 33.4569336712764,45.173730836907,0 33.4675760418319,45.1676186802997,0 33.4762857344238,45.1629203455156,0 33.4927162268107,45.1552139342933,0 33.4929629900401,45.1548951025505,0 33.4927859642451,45.1547015252591,0 33.4926250317042,45.1547774380013,0 33.4925123789256,45.154804007437,0 33.4923407175486,45.1547850292699,0 33.4922227003519,45.1547280947304,0 33.4887304642146,45.1514713437592,0 33.4855026310003,45.1536901881618,0 33.4814145170251,45.1563678604341,0 33.4769513212243,45.1592827508261,0 33.4711935719181,45.162958271599,0 33.4688316883849,45.1644275104516,0 33.4686922135161,45.1643516106512,0 33.4685312809752,45.164435100426,0 33.4643041195678,45.1672964482538,0 33.4580507541103,45.171073637769,0 33.4503597169078,45.1755435227973,0 33.4467123974842,45.1776222675965,0 33.4399746884388,45.1812872518866,0 33.4307830156878,45.1859898207329,0 33.4232588374986,45.1893635457638,0 33.4174471982524,45.1917823798504,0 33.412524005827,45.1935463257849,0 33.4093246812533,45.1945964749342,0 33.4039778404715,45.1961782015178,0 33.4027869396689,45.1963906011477,0 33.4017033272269,45.1964816293162,0 33.3999116116049,45.1967622985795,0 33.3968753510001,45.1972705339693,0 33.3931776894299,45.1976333564175,0 33.3906456841199,45.1978988489954,0 33.3890256298749,45.1978305795945,0 33.3871588124005,45.1978078231092,0 33.3855816734997,45.1973982048071,0 33.3823201073376,45.1967913574218,0 33.3784577263562,45.195357654597,0 33.3754000080792,45.1933777194875,0 33.3744701295464,45.1920816333751,0 33.3742770104974,45.191201619782,0 33.3755537419884,45.1898967468276,0 33.3755322843163,45.1872565629303,0 33.3771416097253,45.1869682595217,0 33.3774312882989,45.1869682595217,0 33.3795341401665,45.1860122955966,0 33.3793624787896,45.1858453796032,0 33.3777853398888,45.1865585626756,0 33.3752640634148,45.1855039589912,0 33.3741268067925,45.1852232338327,0 33.371337309417,45.1845024466375,0 33.3690198808282,45.1842824150318,0 33.3665629773705,45.1840244458521,0 33.3654686360924,45.1836981890279,0 33.3635052590935,45.1832960559339,0 33.3626576810448,45.1830001448498,0 33.362679138717,45.1828787449827,0 33.3606192021935,45.1820744642815,0 33.3590635209649,45.1810956544132,0 33.3584734349816,45.1800637124872,0 33.358548536834,45.1796236138799,0 33.3582052140801,45.1788724031735,0 33.3576795011132,45.1782805331656,0 33.356392040786,45.1777417743123,0 33.3551689534753,45.1771119511187,0 33.353688374099,45.1765428277436,0 33.3519395738213,45.1753893868079,0 33.3498903661339,45.1746836514803,0 33.3486672788232,45.1744711703023,0 33.346650257644,45.1744104612477,0 33.3453735261529,45.1742283336931,0 33.3439358621209,45.1735757051406,0 33.3430453687279,45.1733480422464,0 33.3417042642205,45.1733404534675,0 33.3400091081231,45.1735225838806,0 33.3384319692223,45.1736288263508,0 33.3370372205346,45.1735605276428,0 33.3357175736993,45.1732645656223,0 33.334043875274,45.1728547694992,0 33.3327564149468,45.172740936716,0 33.3315225988,45.1728244141127,0 33.330632105407,45.1730369014759,0 33.3294733911126,45.173606060124,0 33.3271023183434,45.1743573407715,0 33.3226283937066,45.1749568403935,0 33.3192702680199,45.1751010228991,0 33.3165451436608,45.1750479030714,0 33.3142706304162,45.1747823031844,0 33.3108052163689,45.1746608856779,0 33.307758226928,45.1742207450323,0 33.3054729848473,45.1735225838806,0 33.3039387612908,45.1732797431995,0 33.3019646554558,45.1720731131076,0 33.2997008710473,45.1703883412487,0 33.2982310205071,45.1688932539369,0 33.29694356018,45.1672311561887,0 33.2966646104424,45.1663052175466,0 33.29658950859,45.1645975040818,0 33.2966967969506,45.1645064245827,0 33.2967826276391,45.1636639322674,0 33.2969650178521,45.1632996073816,0 33.2970079331963,45.1622369797345,0 33.2964714913933,45.1612198745841,0 33.2956668286889,45.1601192551359,0 33.2953771501153,45.1595651420722,0 33.2943364530175,45.1586163057354,0 33.2928666024773,45.1575687719462,0 33.2911178021996,45.1567034033239,0 33.2894655614464,45.1558152480866,0 33.2877167611687,45.1544260542587,0 33.2867189794152,45.1534088087417,0 33.285066738662,45.1516931144429,0 33.2841762452691,45.1504404729355,0 33.2838543801873,45.1494155638151,0 33.2838543801873,45.1489904108838,0 33.2834252267449,45.1484361888766,0 33.282009020385,45.1480489894609,0 33.2798096089928,45.1476010495786,0 33.2774063497155,45.1473049517788,0 33.274799242553,45.1466671974125,0 33.2729646115868,45.1468038596671,0 33.2711299806206,45.1470771831868,0 33.2696279435723,45.1471075523854,0 33.267771854934,45.1468190443417,0 33.2649823575585,45.1468797829994,0 33.2599355293134,45.1479652112367,0 33.2573713374951,45.1490964351435,0 33.2544951947372,45.150947808763,0 33.2539802106063,45.1514260890508,0 33.2523687061739,45.1530322593838,0 33.249675768323,45.1552033876522,0 33.2486780979053,45.1562257262414,0 33.2475944854632,45.1568405999696,0 33.2445153095141,45.1591254425826,0 33.2425728436935,45.1613671952878,0 </coordinates>
          </LinearRing>
        </outerBoundaryIs>
      </Polygon>
    </Placemark>
  </Document>
</kml>