<?xml version="1.0" encoding="UTF-8"?>
<kml xmlns="http://earth.google.com/kml/2.2">
  <Document>
    <Placemark>
      <name>Керчь</name>
      <description>15.08.2018 11:24:25</description>
      <Style>
        <LineStyle>
          <color>A6000000</color>
          <width>1</width>
        </LineStyle>
        <PolyStyle>
          <color>800000FF</color>
          <fill>1</fill>
        </PolyStyle>
      </Style>
      <Polygon>
        <extrude>1</extrude>
        <outerBoundaryIs>
          <LinearRing>
            <coordinates>36.3881587842054,45.3643767060604,0 36.3893665320991,45.374048109882,0 36.4060310967086,45.3806595785054,0 36.4170054878825,45.3818156860462,0 36.4182178463572,45.3785795856123,0 36.4191512550944,45.3774378327885,0 36.4204548086756,45.3750294899711,0 36.4204333510035,45.374889598754,0 36.4208867016281,45.3737160229344,0 36.4211334648575,45.373731146642,0 36.4213158550705,45.3731640048228,0 36.4214499655212,45.3731715667513,0 36.4229164673724,45.3702037711678,0 36.4234690024295,45.3696403749429,0 36.4261994912066,45.3699579949858,0 36.4354799343981,45.3694740018229,0 36.4376257016101,45.3694853454604,0 36.4473138405719,45.369118566689,0 36.4485691143908,45.3686080974037,0 36.4488909794726,45.3686648164422,0 36.4501301600375,45.3680598104134,0 36.4512084080615,45.3691072229774,0 36.4522544695773,45.3698483406501,0 36.4533756329455,45.3703550175147,0 36.4550064160266,45.3708390030887,0 36.4570127083697,45.3710961187292,0 36.4629403902926,45.3704192970888,0 36.4640454604068,45.3705554182971,0 36.4653758360781,45.3707633806175,0 36.4668778731265,45.3711339297536,0 36.4665706776533,45.3738955013765,0 36.4670159243497,45.3751280662485,0 36.4645643853101,45.3761904700969,0 36.4670659162029,45.3794036162575,0 36.4703918553814,45.3785454260763,0 36.4714164592251,45.3786134768776,0 36.4722640372738,45.3787873841066,0 36.4780765451527,45.3822615840094,0 36.4788919366932,45.3830894750487,0 36.4808767713643,45.3846242544635,0 36.4818477310276,45.384722539401,0 36.4824646391011,45.3837585835465,0 36.4840042270756,45.3842084316709,0 36.4865576900578,45.3845902327143,0 36.4878827013112,45.3846280346566,0 36.4890789665318,45.384499507949,0 36.4903610624409,45.3842046514496,0 36.4916699804402,45.3837396822859,0 36.4926248468495,45.3832331261327,0 36.4933007635212,45.3828210733546,0 36.4939659513569,45.382201098341,0 36.4945292152501,45.3816000184707,0 36.4959239639378,45.379445150975,0 36.4969271101094,45.3786739151511,0 36.4985632576085,45.377641803584,0 36.5003496088124,45.3770936047475,0 36.509281364832,45.3759669448255,0 36.5164852327648,45.3749215355001,0 36.5169143862072,45.3754017009236,0 36.5193896549512,45.3775266204443,0 36.5175144402603,45.3789105443607,0 36.5142570182521,45.3818105684782,0 36.5139727040965,45.3817708744469,0 36.5127549812038,45.3824475593341,0 36.5142371387687,45.3841395701921,0 36.5166378285878,45.385482654197,0 36.5165980657442,45.3858504557768,0 36.5169065197809,45.3861812144865,0 36.5193708168649,45.3876073291583,0 36.5213920323609,45.38904224437,0 36.5212096421479,45.3891802103978,0 36.5214407213052,45.3895290047885,0 36.5226693200571,45.3905372295123,0 36.5240050601465,45.3914103554094,0 36.5243001031382,45.3912005796474,0 36.5266791114233,45.3926256027771,0 36.526716461498,45.3931684712295,0 36.5309681979857,45.3940422544905,0 36.5311371771536,45.3933298030574,0 36.5318543563242,45.393454593465,0 36.5324739466066,45.393426246467,0 36.5327663073893,45.3932731724304,0 36.5341771493311,45.3933657728234,0 36.5356148133631,45.3933128583318,0 36.5359051713333,45.3917924075839,0 36.5356752620947,45.3905420769694,0 36.5329200692266,45.3843578484823,0 36.5321770973295,45.3844447932713,0 36.5315641408569,45.3855180074793,0 36.5321515446311,45.385722134293,0 36.5312954560248,45.3885870326224,0 36.529525198075,45.3887079901388,0 36.527182687752,45.3878176413633,0 36.5265496864245,45.3881408285738,0 36.5254446163103,45.3876021821896,0 36.525947533648,45.3863798949784,0 36.5225449711852,45.3841399087013,0 36.5215532145135,45.3829049832689,0 36.5217398974179,45.3818522138269,0 36.5243715223021,45.3789095894046,0 36.5249593835992,45.3766392096075,0 36.5259701580405,45.3735427073427,0 36.530363850953,45.3721862565294,0 36.5348109534997,45.3706227787277,0 36.5370371869821,45.3692067256157,0 36.5392795137185,45.3695319105284,0 36.545491509797,45.3716417855214,0 36.5479484132547,45.372738284248,0 36.5514889291543,45.3737137720237,0 36.5540531209726,45.3749690259457,0 36.5555229715127,45.3699629666979,0 36.5565100244302,45.3696755962856,0 36.5617671540994,45.3690932885755,0 36.562492909877,45.3668075122377,0 36.5658617643997,45.3668907028068,0 36.5901840357468,45.3694922366397,0 36.6007090239212,45.3667848238792,0 36.6016317038223,45.3682973610561,0 36.6035843519852,45.3678738547504,0 36.6052151350662,45.3650151036994,0 36.6178751616165,45.3693258630811,0 36.6206432013199,45.3699611049272,0 36.6229820875809,45.3732884448822,0 36.6251493124649,45.3749066708173,0 36.6252136854813,45.3753906171826,0 36.6246128706619,45.3757460126397,0 36.6231001047775,45.3772431858357,0 36.6209972529099,45.3805549726558,0 36.6211246273319,45.3818675603151,0 36.6210602543155,45.3827786242078,0 36.6212909242908,45.3837993006421,0 36.6236834547321,45.3842529286587,0 36.6242766566647,45.385807370672,0 36.6278654523266,45.3880338134286,0 36.6285520978344,45.3883437695966,0 36.6272324509991,45.3883891288923,0 36.6264170594585,45.3898179279514,0 36.6268837666886,45.3938241270837,0 36.6277206159013,45.3942549968552,0 36.6338789677994,45.3911330059692,0 36.6349947667496,45.3906945526691,0 36.6361534810441,45.390528241901,0 36.6371405339616,45.3900293066409,0 36.6387713170426,45.3895303669472,0 36.639565250911,45.3896664418488,0 36.640638134517,45.3899537100026,0 36.6412174916642,45.3898176357972,0 36.6415178990739,45.3895152474934,0 36.6413462376969,45.3891070207001,0 36.6417753911393,45.3885324742593,0 36.6434920049088,45.3873984837693,0 36.6435349202531,45.3871565628343,0 36.6433203435319,45.3868390400254,0 36.6435134625809,45.3863551922927,0 36.6434490895646,45.3860527853428,0 36.6449511266129,45.3848431412582,0 36.646217129268,45.3842231885661,0 36.6459596372025,45.3837846813102,0 36.646410248317,45.3829983838635,0 36.6469037747758,45.3828018077817,0 36.6469252324479,45.3825749883709,0 36.646410248317,45.3822423182446,0 36.6461742139237,45.3818340385784,0 36.6461956715958,45.381516485675,0 36.6459596372025,45.3813199044065,0 36.6451657033341,45.3810628355557,0 36.6444790578263,45.380699912822,0 36.6439211583512,45.3807301564727,0 36.6431486821549,45.3807906437253,0 36.6425907826798,45.3803823535064,0 36.6425049519913,45.3797623515728,0 36.6425907826798,45.3790969760309,0 36.6425264096635,45.3786433063695,0 36.642268917598,45.3785828168045,0 36.6413462376969,45.3788852639782,0 36.6404450154679,45.3791272205447,0 36.638835690059,45.378839897006,0 36.6372049069779,45.3782803680023,0 36.635595581569,45.3776149749051,0 36.633793137111,45.3770403108873,0 36.6319048619645,45.3765715016765,0 36.6308748937028,45.3761783038376,0 36.6299092984574,45.3754977626128,0 36.6294586873429,45.3752860369947,0 36.6289007878678,45.3746206084288,0 36.6286218381303,45.3739551719809,0 36.6287291264909,45.3719134427793,0 36.6291368222611,45.3706732451162,0 36.6299951291459,45.3693271459405,0 36.6300380444901,45.3683137691047,0 36.629480145015,45.3680868911899,0 36.6293728566544,45.367829761779,0 36.6294372296708,45.3666877904732,0 36.6290831780808,45.3666575392621,0 36.6287720418351,45.3667709812196,0 36.6283750749009,45.366680227672,0 36.6264975285905,45.3647365540109,0 36.6250705933945,45.3633071168638,0 36.6249954915421,45.3628986995724,0 36.6253495431321,45.362444899101,0 36.6252100682633,45.3622860680703,0 36.6249633050339,45.3622633778864,0 36.6245877957719,45.3623390117971,0 36.6239977097886,45.3622406876934,0 36.623171589412,45.3615826681105,0 36.6199851251023,45.3600775138933,0 36.6145992494004,45.3584588608617,0 36.6106295800584,45.3574831082453,0 36.6095888829606,45.3569158024261,0 36.6084838128464,45.3559551515165,0 36.6081619477647,45.3553046226806,0 36.6082692361253,45.3550398704177,0 36.6085374570267,45.3549566623061,0 36.6086983895676,45.3533681201938,0 36.6084516263383,45.3533529910055,0 36.6085267281907,45.3530352771111,0 36.6078293538468,45.3528461608454,0 36.607944850522,45.352377173198,0 36.6079877658662,45.3519232877785,0 36.6077302738008,45.3514996580812,0 36.6073225780305,45.3512273230187,0 36.606871966916,45.3510306357644,0 36.6065930171785,45.3508263828873,0 36.6063677116212,45.3504708298129,0 36.6049836917696,45.3491772028471,0 36.604887132245,45.3489048565355,0 36.6045759959993,45.3486098132094,0 36.6043185039339,45.3482466808366,0 36.60362112959,45.3478003274155,0 36.6017650409517,45.3469983954191,0 36.6010247512636,45.3468849135525,0 36.6008101745424,45.3470891807475,0 36.6002200885591,45.3472329238843,0 36.5991364761171,45.3469681336104,0 36.5987395091829,45.3467638659757,0 36.5985463901338,45.3467789969371,0 36.5984927459535,45.346710907579,0 36.597677354413,45.3466806456155,0 36.5973447604951,45.3460754029274,0 36.5961002155122,45.346430983796,0 36.5962289615449,45.3467714314569,0 36.5957139774141,45.3469983954191,0 36.5938471599397,45.3475279744351,0 36.5932034297761,45.3475204090557,0 36.5927635474977,45.3471799659293,0 36.5918408675966,45.3475733666901,0 36.5893625064668,45.3476414550039,0 36.5891908450899,45.3478684154545,0 36.5889118953523,45.3480575484636,0 36.5880321307954,45.3481256361912,0 36.5876995368776,45.3480499831555,0 36.586701755124,45.3478684154545,0 36.5860043807802,45.3478759807871,0 36.5852211757478,45.3476868471673,0 36.5848027511415,45.3476565857291,0 36.5843414111909,45.3475052782938,0 36.5837298675355,45.3475355398135,0 36.5833758159456,45.3474296244235,0 36.5828822894868,45.3474674513714,0 36.5822278304872,45.3473085780193,0 36.5814017101106,45.3474750167579,0 36.5800927921114,45.3475809320624,0 36.5794705196199,45.3475279744351,0 36.5791164680299,45.3476263242746,0 36.5781830592927,45.3477246739422,0 36.5771852775392,45.3479440687345,0 36.5763913436708,45.3479440687345,0 36.5757368846712,45.3477776313842,0 36.5751575275239,45.3477776313842,0 36.5739344402132,45.3480424178463,0 36.5724324031648,45.3481180708922,0 36.5717135711488,45.3482315502702,0 36.5714560790834,45.3481407667861,0 36.5708230777559,45.348148332082,0 36.5701900764284,45.3482542461183,0 36.5699647708711,45.3485417260681,0 36.5694390579042,45.3487157263764,0 36.5684841914949,45.3486854654919,0 36.5680335803804,45.3482845072348,0 36.5669714256105,45.3484433778296,0 36.5670465274629,45.3486325089048,0 36.5669177814302,45.3487535524591,0 36.5657590671358,45.3488594653553,0 36.5648471160707,45.3487838133069,0 36.5640424533662,45.348458508339,0 36.5633450790224,45.3481634626709,0 36.5622078224,45.3478003274155,0 36.5610169215974,45.3476565857291,0 36.5595148845491,45.3475052782938,0 36.559139375287,45.3475052782938,0 36.5590642734346,45.3476187589085,0 36.5586565776643,45.3476641510902,0 36.5571330829439,45.3473161434272,0 36.5561996742067,45.3468697826197,0 36.555888537961,45.3468622171517,0 36.5540753646669,45.3470967461849,0 36.5521441741762,45.3470286572115,0 36.5517364784059,45.3470967461849,0 36.5510927482423,45.3470210917649,0 36.5498589320955,45.3472177930451,0 36.5489898963747,45.3470891807475,0 36.5480994029817,45.3470664844291,0 36.5479062839326,45.3469681336104,0 36.5473912998018,45.3468319552697,0 36.5469085021791,45.346536901067,0 36.5469085021791,45.3463780250858,0 36.5470265193758,45.3462872386093,0 36.5471874519166,45.3460375750431,0 36.5469192310152,45.3459921815484,0 36.5464900775728,45.3460148783003,0 36.5460931106386,45.3461964519862,0 36.5449343963441,45.3454474567533,0 36.5435396476564,45.3461056652165,0 36.5431426807222,45.3459846159624,0 36.5426276965913,45.3467865624162,0 36.5427135272798,45.3471875313545,0 36.5425955100832,45.3473917974502,0 36.5415221180573,45.3476583198508,0 36.5408783878937,45.347718842709,0 36.5382176365509,45.3474313585522,0 36.5367155995026,45.346092268244,0 36.5363293614045,45.3462965383182,0 36.5377133812561,45.3478701495697,0 36.5374129738465,45.3482332843741,0 36.5381318058625,45.3495269330563,0 36.5378313984528,45.3501094435048,0 36.5372842278138,45.350578473506,0 36.5352672066346,45.3513274003964,0 36.5354281391755,45.3514938272395,0 36.5342273350226,45.3517801754842,0 36.533755266236,45.3517877402905,0 36.5326180096137,45.3520222487801,0 36.5312018032538,45.3523853567696,0 36.5288736458289,45.3523853567696,0 36.5274681683051,45.3525744745854,0 36.5263416405188,45.3524761334006,0 36.5257408256995,45.3521735440607,0 36.5257086391913,45.3520525078688,0 36.5255155201422,45.3520525078688,0 36.5251400108802,45.3521886735664,0 36.5245606537329,45.3521357202787,0 36.5243568058478,45.3519768601165,0 36.5239169235694,45.3519617305538,0 36.5239705677497,45.3521735440607,0 36.5237023468482,45.3523475331301,0 36.5228869553077,45.3524836981132,0 36.5219750042426,45.3524685686869,0 36.5217389698493,45.3522491915483,0 36.5214814777839,45.3520600726384,0 36.5205051537024,45.3520222487801,0 36.5202798481452,45.3521735440607,0 36.5195610161292,45.3523324036672,0 36.5191318626868,45.35235509786,0 36.5190889473426,45.3525517804811,0 36.5192069645392,45.3526576862228,0 36.5193035240638,45.3537696844663,0 36.5193142528998,45.354034442711,0 36.5189709301459,45.3546849862452,0 36.5187241669165,45.3546547285733,0 36.5184344883429,45.3555700159427,0 36.5180053349006,45.3563491331187,0 36.5181340809333,45.35648528841,0 36.5178658600318,45.3567727262753,0 36.5179731483924,45.3569693934415,0 36.5177478428351,45.3571887521614,0 36.5163358989299,45.357610640435,0 36.5158423724711,45.3576560245503,0 36.5154132190288,45.3579132005112,0 36.5148553195537,45.358162811348,0 36.5137287917674,45.3584351128149,0 36.5124413314403,45.3589721479529,0 36.5114006343425,45.3595016141928,0 36.5100917163432,45.3603033678617,0 36.5092655959666,45.3606210406803,0 36.507173472935,45.3608252579727,0 36.5058323684276,45.3608252579727,0 36.505371028477,45.3609235845525,0 36.5049418750346,45.36084038515,0 36.5043410602153,45.3609840931316,0 36.5041586700023,45.3613395797178,0 36.5042445006908,45.3616950640557,0 36.5044590774119,45.3618917140001,0 36.504105025822,45.3623303921659,0 36.5037295165599,45.3625497299648,0 36.5031394305766,45.3630262194749,0 36.502484971577,45.3634270726005,0 36.5017339530528,45.3635859004066,0 36.5006503406108,45.363669095745,0 36.4998564067424,45.3637825437352,0 36.4990302863658,45.3637598541555,0 36.498708421284,45.363601026841,0 36.4986118617595,45.3630640359296,0 36.495650703007,45.363275807606,0 36.4955756011546,45.3637144749686,0 36.4937302413524,45.363601026841,0 36.4936229529918,45.3638657387824,0 36.4918312373698,45.3636085900566,0 36.4919814410747,45.3631169789235,0 36.4903399291575,45.3628447001379,0 36.4914128127635,45.3621186169272,0 36.4912626090587,45.3619673484109,0 36.4917024913371,45.3616043023109,0 36.4919063392222,45.3610370380848,0 36.4918956103862,45.3606210406803,0 36.4918205085338,45.3601294034145,0 36.4906510654033,45.3595621243026,0 36.4875611606181,45.3625799833872,0 36.4829584899486,45.3610899829881,0 36.4848574939311,45.3592217540874,0 36.4834842029155,45.358533443576,0 36.4816066566051,45.3603260588368,0 36.4802655520976,45.3595545605425,0 36.4820572677196,45.3577997406735,0 36.4818105044902,45.3576711525805,0 36.479975873524,45.3594864866551,0 36.4794608893931,45.3593730299931,0 36.4786669555247,45.3595016141928,0 36.477991038853,45.3598495464348,0 36.4778944793284,45.359751217976,0 36.4791497531474,45.3591007330697,0 36.4791497531474,45.3587906155226,0 36.4790961089671,45.3586242102798,0 36.4800617042125,45.3582535786502,0 36.4798471274913,45.3580796078589,0 36.4788493457377,45.3583972932456,0 36.4781197848857,45.3571643613502,0 36.4774867835582,45.3570433359029,0 36.4771756473125,45.3565214106767,0 36.4779481235087,45.3563171777474,0 36.4778408351482,45.3561053798518,0 36.4770576301158,45.3562793567531,0 36.4772507491649,45.3554245954968,0 36.4774760547221,45.35509932895,0 36.4773580375255,45.3547362384888,0 36.476918155247,45.3547438028974,0 36.4768966975749,45.3539949215156,0 36.4776799026073,45.3540932600438,0 36.478001767689,45.3535259200148,0 36.4782485309184,45.3529283156593,0 36.4782378020824,45.3516952638132,0 36.4823898616374,45.3517255230779,0 36.4822182002605,45.3512413728888,0 36.4786562266887,45.3512867621461,0 36.4779803100169,45.3512262431282,0 36.4764031711162,45.3506361792896,0 36.4761778655589,45.3504546199396,0 36.4759954753459,45.350500009832,0 36.4738282504619,45.3483061231149,0 36.4725691148212,45.3453152591958,0 36.4719683000019,45.3438399329108,0 36.471807367461,45.3438626305314,0 36.4711529084613,45.342198114058,0 36.4704126187732,45.3417365803124,0 36.4702946015766,45.3414944627346,0 36.4687174626758,45.3407378385862,0 36.4673334428241,45.340556247276,0 36.4652735063007,45.3405865125351,0 36.4611965485981,45.3407681037475,0 36.4604240724018,45.3357741317786,0 36.4615613290241,45.3354109165219,0 36.464071876662,45.335380648478,0 36.4643722840717,45.3366670259824,0 36.4652735063007,45.3365156889793,0 36.4652520486286,45.3354563185573,0 36.4670974084308,45.3355168545474,0 36.4675909348896,45.3391034956884,0 36.4692646333149,45.3396028832789,0 36.470723755019,45.3390883626619,0 36.4708525010517,45.3383014396736,0 36.4704018899372,45.3370605002852,0 36.4704662629535,45.3351082353499,0 36.4710456201007,45.3338066877529,0 36.4713031121662,45.3317180949603,0 36.4722043343952,45.3301440317658,0 36.472526199477,45.3290996770769,0 36.472890979903,45.3289483197167,0 36.4740067788532,45.3289634554711,0 36.4798218079975,45.3275104044883,0 36.4795214005878,45.3268595465681,0 36.4796930619648,45.3264811373399,0 36.4877182313373,45.3244830944264,0 36.4872890778949,45.3233629484273,0 36.4747792550495,45.3266325013365,0 36.474521762984,45.3260724525152,0 36.4737063714435,45.3262692270606,0 36.4761447866979,45.3239311655771,0 36.477947231156,45.3219935826677,0 36.479749675614,45.3210853177159,0 36.482281680924,45.3207522835611,0 36.4873027761999,45.3201164856118,0 36.4888048132482,45.3196623398223,0 36.4924526175085,45.3191779136079,0 36.4944267233435,45.3181787713735,0 36.4945125540319,45.3172098892393,0 36.4919376333776,45.3163923819669,0 36.4895343741003,45.315211517169,0 36.4885473211828,45.3139397889151,0 36.4856719931188,45.3130616740686,0 36.4819383581701,45.3121229844317,0 36.4806079824987,45.3108209051534,0 36.4806938131872,45.30927653953,0 36.4823675116125,45.307883545967,0 36.4842987021032,45.3083680693758,0 36.4843416174475,45.3077926973637,0 36.480479236466,45.3063088160948,0 36.479578014237,45.3052488769622,0 36.4770030935827,45.3050066023593,0 36.4763593634191,45.305127739791,0 36.4724969824377,45.3043403418268,0 36.4688491781774,45.30376492866,0 36.4665317495886,45.3028866551227,0 36.4614248236242,45.302008367889,0 36.4539146383825,45.3007060547108,0 36.449322696549,45.2992825616755,0 36.4459323843542,45.29891911088,0 36.4434003790441,45.2980407617753,0 36.4418125113073,45.297949897293,0 36.4397525747839,45.2973138418134,0 36.4376926382604,45.2973441303324,0 36.4340448340002,45.2962234442815,0 36.4308261831823,45.2948604176852,0 36.4282941778723,45.2932550329543,0 36.4261054953161,45.2914981444083,0 36.4234447439733,45.2901047110877,0 36.4179944952551,45.2845609285795,0 36.41743659578,45.284682109984,0 36.4161920507971,45.2826522870873,0 36.4175653418127,45.2779561479404,0 36.4169216116491,45.2780167457761,0 36.4167070349279,45.2772592681481,0 36.4183807333532,45.2755927815366,0 36.4153337439123,45.274714068759,0 36.4175653418127,45.2717142219482,0 36.4189815481726,45.2717142219482,0 36.4294099768225,45.2659867984196,0 36.4287662466589,45.2653806878169,0 36.4268779715124,45.2651382417517,0 36.4264059027258,45.2655019104586,0 36.4264059027258,45.2660474091216,0 36.4240884741369,45.2658958822445,0 36.4240884741369,45.2654109935017,0 36.4206123312536,45.2652291591483,0 36.4205694159094,45.26468365257,0 36.4225864370886,45.2635320102425,0 36.4226293524328,45.2618651178524,0 36.4244317968908,45.2616529643777,0 36.424818034989,45.2605618767588,0 36.4288091620031,45.2581371620358,0 36.4278650244299,45.2561973152085,0 36.4290237387243,45.2563488681441,0 36.4306116064611,45.2585614946368,0 36.4317703207556,45.2589858240455,0 36.4328432043615,45.2624712662401,0 36.4341735800329,45.2650473242085,0 36.4332294424597,45.2677444823274,0 36.4329719503942,45.269623325229,0 36.4299249609533,45.2716839196509,0 36.4276075323644,45.2742292558462,0 36.426620479447,45.2773804652526,0 36.4285945852819,45.2775319612668,0 36.4305686911169,45.2766835783432,0 36.4344310720983,45.2751685770782,0 36.4362335165563,45.2738959445502,0 36.4370059927526,45.272077848245,0 36.4368772467199,45.2687445194069,0 36.4352464636389,45.2621681928606,0 36.4344310720983,45.2600466336017,0 36.4324998816076,45.2568944553412,0 36.4296674688879,45.253742100924,0 36.4268779715124,45.2510442731309,0 36.423015590531,45.2469215005741,0 36.4212560614172,45.2438595407321,0 36.4200544317785,45.2414947451755,0 36.4198827704016,45.2392208098483,0 36.4212560614172,45.237431916342,0 36.4203977545324,45.2364919665253,0 36.4190244635168,45.2355216793295,0 36.4161920507971,45.2323378073244,0 36.4128017386022,45.2291234305914,0 36.4092397650305,45.2249080743406,0 36.4058065374914,45.2205407547045,0 36.4039182623449,45.2176290206529,0 36.4019421496151,45.213020245115,0 36.4018134035824,45.2122012260513,0 36.3965884604213,45.2136800018371,0 36.3976935305355,45.2163265346885,0 36.3957194247005,45.2164706117148,0 36.3964771497003,45.2210870311707,0 36.401951522874,45.2317920906839,0 36.4029178699615,45.23648794596,0 36.401201256192,45.2367305151704,0 36.4007506450775,45.2380191466222,0 36.3998279651763,45.2394138675123,0 36.3966093143585,45.2384436305414,0 36.3946352085235,45.2417484318756,0 36.397424705899,45.2428550422856,0 36.3935945722172,45.2488673348574,0 36.3885949346135,45.2505800818517,0 36.3876507970402,45.2496251939226,0 36.3817499372075,45.2524140276274,0 36.3835309239934,45.2542630696253,0 36.3777609974638,45.2561792671691,0 36.3720103413359,45.259316330922,0 36.3694568783537,45.2596648827916,0 36.3669816723728,45.2596418676958,0 36.3641707173252,45.2599146460288,0 36.3603727093601,45.2627332782216,0 36.3589350453281,45.2629302741297,0 36.3568751088047,45.2629454276326,0 36.3533131352329,45.2623544380028,0 36.3517252674961,45.2633848774452,0 36.3496867886448,45.2660972677324,0 36.3544503918552,45.2720367952497,0 36.3555125466251,45.272218607651,0 36.3587419262791,45.2721580035823,0 36.3601903191471,45.2723776930212,0 36.3639035292229,45.2714778290257,0 36.3652768202385,45.2714323753831,0 36.3673582144341,45.2718641835081,0 36.3685169287285,45.2725005262958,0 36.3683559961876,45.2732429171372,0 36.3711395010786,45.2733894837866,0 36.3734247431593,45.27496513398,0 36.3745834574537,45.275980192992,0 36.3746994149524,45.277274555281,0 36.3745813977558,45.2787819253249,0 36.3720323902591,45.283726048828,0 36.3801315531871,45.2866020652198,0 36.3835523162892,45.2950242844885,0 36.4119213617722,45.2975219762404,0 36.4182275233186,45.3100689263359,0 36.4104671946483,45.3124960753819,0 36.4119906893687,45.3147292078364,0 36.4110787383037,45.3152666603884,0 36.4130956814657,45.3182269638673,0 36.4148981259237,45.3201116930053,0 36.4105271279269,45.3227341559857,0 36.4099155842716,45.3232791007505,0 36.408917802518,45.3247701032067,0 36.4087461411411,45.3256934453274,0 36.4076303421909,45.3261551107066,0 36.407274448127,45.3278685502958,0 36.407446109504,45.3282620861372,0 36.4079825513069,45.3283453337509,0 36.4084975354378,45.3283150619056,0 36.4086262814705,45.3286026437784,0 36.4080791108315,45.329162667418,0 36.4073173634712,45.3288675205189,0 36.4071457020943,45.3290113102272,0 36.4066199891274,45.3290945567326,0 36.4063410393898,45.3296697110406,0 36.4068774811928,45.3296999821571,0 36.4068882100289,45.3301313437979,0 36.4072637192909,45.3305702697922,0 36.4076177708809,45.3307291904286,0 36.4068131081764,45.3316827048206,0 36.4068238370125,45.3325605291806,0 36.4066199891274,45.3336275213831,0 36.4053010205643,45.3346648958879,0 36.4032732705491,45.3350735183056,0 36.4007519940751,45.3359210220062,0 36.3996040086167,45.3365112402554,0 36.3975440720933,45.3362691001844,0 36.3961241710236,45.3402622886107,0 36.3960544335892,45.340841111893,0 36.3966446834746,45.341819781919,0 36.3968538957778,45.3425423442996,0 36.397063108081,45.3463441557299,0 36.3954098420238,45.3475240617334,0 36.3951776671054,45.348556229928,0 36.3950113701465,45.3503491633523,0 36.3911168026569,45.3507728017182,0 36.3883112120273,45.3508371036912,0 36.3861547159793,45.3511245704357,0 36.3859884190204,45.3512304788659,0 36.3868380224583,45.3532545585957,0 36.386961404073,45.3546161716192,0 36.3868433868763,45.3556373597451,0 36.3866770899174,45.3559399304422,0 36.3856859403934,45.3564811139853,0 36.3854230839099,45.3574909221777,0 36.3857645954288,45.3589683378122,0 36.3854749168552,45.3617975299784,0 36.3855875696338,45.3623194062156,0 36.3857967819369,45.3627883343533,0 36.3860757316745,45.3631854075398,0 36.3864619697726,45.3635635698711,0 36.3868676939684,45.3638237290722,0 36.3874470511157,45.3641300372773,0 36.3881587842054,45.3643767060604,0 </coordinates>
          </LinearRing>
        </outerBoundaryIs>
      </Polygon>
    </Placemark>
  </Document>
</kml>