<?xml version="1.0" encoding="UTF-8"?>
<kml xmlns="http://earth.google.com/kml/2.2">
  <Document>
    <Placemark>
      <name>Кировское</name>
      <description>14.08.2018 23:07:21</description>
      <Style>
        <LineStyle>
          <color>A6000000</color>
          <width>1</width>
        </LineStyle>
        <PolyStyle>
          <color>800000FF</color>
          <fill>1</fill>
        </PolyStyle>
      </Style>
      <Polygon>
        <extrude>1</extrude>
        <outerBoundaryIs>
          <LinearRing>
            <coordinates>34.8874936655031,45.1332799168826,0 34.8882234134049,45.1387392968679,0 34.9070203341813,45.1378280791916,0 34.9099385775895,45.1340008048718,0 34.9041020907731,45.1216667174566,0 34.9014413394303,45.1214844201706,0 34.9011838473649,45.1146782352378,0 34.9520814456315,45.1144959154739,0 34.9528391591298,45.1692746995271,0 34.978374212081,45.1691504941438,0 34.9787175348349,45.175585889686,0 35.016568868453,45.175282349743,0 35.0168294340394,45.1860458325316,0 35.0446385771058,45.1853781659979,0 35.0443810850404,45.1749979724422,0 35.0681561857484,45.1746337205296,0 35.0680703550599,45.1686232253503,0 35.0708169370912,45.1684410791647,0 35.106265011432,45.168744655815,0 35.1055783659242,45.1703839415814,0 35.1079816252015,45.1734195305483,0 35.1202554136537,45.1734802406663,0 35.120856228473,45.1828895212856,0 35.1205987364076,45.1958778267186,0 35.1151055723451,45.195938512731,0 35.114330929041,45.2152077382822,0 35.1149317438604,45.2155717288491,0 35.1141422867202,45.2408953967157,0 35.096632826271,45.2407134833291,0 35.0919544883621,45.263007825685,0 35.0564205833328,45.2624016830642,0 35.0563013898613,45.2665305853197,0 35.0437701093437,45.2665911954372,0 35.0441808797335,45.2846679257408,0 35.0567979909395,45.2847285163606,0 35.0561808953119,45.300888775849,0 35.0809859642817,45.3040990644708,0 35.105533541186,45.3040384946811,0 35.1058768639399,45.3130626750648,0 35.1313685784174,45.3130021149164,0 35.1305961022211,45.3311672377458,0 35.1323127159906,45.3352838505181,0 35.1413249382806,45.3333466585003,0 35.1488780388666,45.3329834275707,0 35.1555728325677,45.3349206320959,0 35.1600360283685,45.339279098384,0 35.1641559014154,45.3444846016519,0 35.1988314995599,45.3400054766003,0 35.2038096794916,45.3404897235332,0 35.2070712456537,45.3390369702274,0 35.2156543145013,45.3334677349557,0 35.2302455315424,45.3275346822104,0 35.2419185051752,45.3239018921606,0 35.2560000980424,45.3143419993726,0 35.2618365848588,45.3126463291266,0 35.2662997806596,45.3125252078691,0 35.2733378971147,45.305863137415,0 35.2980571353959,45.2979887651751,0 35.3085284793901,45.2962926024393,0 35.3208880985307,45.2905979682864,0 35.3535037601518,45.2827214619043,0 35.378222998433,45.262479851352,0 35.3847461307573,45.2593278090762,0 35.3917842472123,45.258479152212,0 35.3979640567826,45.2564180752391,0 35.4074054325151,45.2564180752391,0 35.4213100040483,45.2587216269047,0 35.4338412845658,45.2628435372022,0 35.4424243534135,45.2647831554609,0 35.4491483955216,45.2680564683202,0 35.4512083320451,45.2658139088591,0 35.4631685888484,45.2178923476835,0 35.4244589483455,45.2150411426052,0 35.4282648018008,45.1715990372956,0 35.4291191075951,45.1655493713321,0 35.4422632512169,45.143674029958,0 35.4072667960255,45.1392476472517,0 35.3765394095509,45.1379719498497,0 35.3756299264528,45.1252398609048,0 35.3397476988043,45.1273357627161,0 35.3351416627905,45.1199687330111,0 35.3345609062329,45.1169209664897,0 35.3351151227628,45.1140402138245,0 35.3442633626917,45.10214038953,0 35.3431419474258,45.0982753055594,0 35.3364028907339,45.0937033172737,0 35.3316175880692,45.0920882726431,0 35.3223368232145,45.0919155428969,0 35.3210171763792,45.0907299781795,0 35.3179380004301,45.0904639826926,0 35.3170367782011,45.0895671887187,0 35.3159638945952,45.088875583685,0 35.3142150943175,45.0889591847414,0 35.3073906457069,45.0929299461777,0 35.2934519409592,45.1080584871082,0 35.2630918384333,45.1138418472919,0 35.2604497508173,45.1111567332227,0 35.2590533460204,45.0761583972937,0 35.2498708950753,45.0567295826164,0 35.2371972940583,45.0593396506324,0 35.231351579113,45.0597697746828,0 35.2303480895237,45.0444474103285,0 35.2371498425829,45.0395681179329,0 35.2377542768765,45.028436586661,0 35.2335412416566,45.0287880517326,0 35.2358704982846,45.0190033253732,0 35.2287940861122,45.0164232830095,0 35.2027306442583,45.0149061062235,0 35.2000783467569,45.011269915647,0 35.1956021077602,45.0111952375644,0 35.1926271204754,44.9996022818968,0 35.1935504172884,44.9910181361162,0 35.187098677444,44.9875387769999,0 35.171706961798,44.9877733082579,0 35.1707824047288,44.9855807813702,0 35.1664191135147,44.986321388854,0 35.1644557365158,44.9844255144326,0 35.1661605559178,44.9797354831313,0 35.1580244852627,44.9795131751958,0 35.1556297062938,44.9764428897038,0 35.1413126792969,44.9830390839616,0 35.1315259870939,44.9816144024405,0 35.1329867961721,44.9782111280442,0 35.1231094272546,44.972569224715,0 35.101758340233,44.9765414132163,0 35.0947643728827,44.9729151068263,0 35.0943352194403,44.9713158043517,0 35.0903655500983,44.9686502004542,0 35.0822974653815,44.9658778401015,0 35.0785638304327,44.9665176275403,0 35.0763107748602,44.9684369467547,0 35.0688169821337,44.9683286961513,0 35.0671195514634,44.9654966068036,0 35.0079462226134,44.9661608689826,0 35.0047704871398,44.9670596114973,0 35.003547399829,44.968171595327,0 35.0033214990815,44.9711120720189,0 35.0052097742279,44.9795802791083,0 35.0088790361603,44.9811032043638,0 35.0114754144867,44.9806920185581,0 35.0201872293671,44.9802808297837,0 35.0233200494965,44.980707247715,0 35.0252539375822,44.9824045032074,0 35.0211879014919,44.993304219339,0 35.0125306358937,44.9997526184662,0 35.004076337286,45.0115862121959,0 35.0010722631893,45.012545120527,0 34.9994629377804,45.0140671640538,0 34.9986046308956,45.0156500461228,0 34.9952143187008,45.016928495639,0 34.9914163107357,45.018861334988,0 34.9913948530636,45.0209462927685,0 34.9919312948666,45.0221933956887,0 34.9949782843075,45.0230608183374,0 34.9887751907757,45.0279743602183,0 34.9882678838749,45.0307692205511,0 34.9994902463932,45.0410237193422,0 35.0003700109501,45.0416170239297,0 35.0012926908512,45.0431687143368,0 35.0004558416386,45.0447355744022,0 34.9992542119999,45.0459373115849,0 34.9988465162296,45.0468956407434,0 35.0001983495731,45.0477778977427,0 35.00107811413,45.0490556249722,0 35.0015501829166,45.050181218011,0 35.0036101194401,45.052143347151,0 35.0093393178959,45.0545616921558,0 35.0114850851078,45.0622875384926,0 35.0060777517338,45.0655113997959,0 35.0154332967777,45.0833913824119,0 35.0102834554691,45.0849723343215,0 35.0084810110111,45.0843642811071,0 34.9910573812504,45.0867964548722,0 34.964890986164,45.0896666834042,0 34.9560504252509,45.0821877948083,0 34.949956446369,45.0795729914626,0 34.9502632361458,45.0721866431353,0 34.9432251196907,45.071517633555,0 34.9457565405052,45.0608276438687,0 34.9362293340843,45.0595501813987,0 34.9220672704856,45.0552917656459,0 34.9187734883224,45.0611546471919,0 34.912765340129,45.0624320735733,0 34.9119928639327,45.0640440229999,0 34.9133661549483,45.0653822104052,0 34.9234941761886,45.0670244882117,0 34.9226358693038,45.0790664074694,0 34.9113920491134,45.0793704632735,0 34.9002340596114,45.0785799147947,0 34.888553868166,45.0785799850992,0 34.8886396988545,45.082654232467,0 34.879541645876,45.0830190761715,0 34.8688986405049,45.076512344714,0 34.8610015337349,45.0808045652285,0 34.8643280634087,45.1064611982653,0 34.8627744272218,45.1321255941057,0 34.8874936655031,45.1332799168826,0 </coordinates>
          </LinearRing>
        </outerBoundaryIs>
      </Polygon>
    </Placemark>
  </Document>
</kml>