<?xml version="1.0" encoding="UTF-8"?>
<kml xmlns="http://earth.google.com/kml/2.2">
  <Document>
    <Placemark>
      <name>Красноперекопск</name>
      <description>31.08.2018 2:47:30</description>
      <Style>
        <LineStyle>
          <color>A6000000</color>
          <width>1</width>
        </LineStyle>
        <PolyStyle>
          <color>80008000</color>
          <fill>1</fill>
        </PolyStyle>
      </Style>
      <Polygon>
        <extrude>1</extrude>
        <outerBoundaryIs>
          <LinearRing>
            <coordinates>33.8057066148839,45.938624427871,0 33.7951387113652,45.9392082904722,0 33.7919093317113,45.9383549507372,0 33.785901183518,45.9376662809622,0 33.7838412469945,45.9385121458921,0 33.7845561230288,45.9448990878885,0 33.7738677037717,45.9541340267837,0 33.7713122553048,45.9559721812589,0 33.7788274315447,45.9611039885119,0 33.7735901065056,45.9648226355245,0 33.7745878882591,45.9649965893588,0 33.7707031183886,45.9676900988267,0 33.7687576143238,45.969019090248,0 33.769022197308,45.9696007902058,0 33.7709009611474,45.9711714425502,0 33.7757401781019,45.9719256209377,0 33.7779126355619,45.9729446270779,0 33.7792993935985,45.9744401966749,0 33.7801683974012,45.9749361574413,0 33.7830410432562,45.9755271155281,0 33.7836838023974,45.9755149057577,0 33.7867361562563,45.9750062332416,0 33.7888217696739,45.9752128368621,0 33.7900596306028,45.9746959269671,0 33.7933063393642,45.9743238362422,0 33.794809209705,45.9744558418626,0 33.7987818475269,45.9751558788572,0 33.8006058857104,45.9757009823031,0 33.8021937534472,45.9763779559944,0 33.8049081911751,45.9779912878194,0 33.8066415464105,45.9792589122003,0 33.8077895318689,45.9808315459619,0 33.8090340768518,45.9801134880857,0 33.8079740150898,45.9790655081711,0 33.8109956183856,45.9794944684524,0 33.8123472592917,45.9802137233314,0 33.8142918608275,45.9810084468436,0 33.8173390612485,45.9812459064645,0 33.8204441995114,45.9814901031196,0 33.8204499505471,45.9788846808839,0 33.8233212234246,45.9788812035794,0 33.8227238681786,45.9640733791439,0 33.8274872446311,45.9614475716504,0 33.8287857401142,45.9610085093781,0 33.8297674286137,45.9608813081655,0 33.8307115661869,45.960933685171,0 33.8319010007168,45.9612601677375,0 33.8330405363277,45.9618427616886,0 33.8362123123726,45.9638283913667,0 33.8366201021702,45.9642068338495,0 33.8368722298176,45.9645921545161,0 33.8377529118652,45.9667766324282,0 33.8400581906604,45.9722020226426,0 33.840564742848,45.9746208904572,0 33.8404454540207,45.978605110796,0 33.8472244204476,45.9797838600403,0 33.8482110202793,45.9847861445116,0 33.8674880564693,45.9810931739358,0 33.8661496341709,45.9806855295845,0 33.863534712508,45.9770673653177,0 33.8620961927678,45.9745438571671,0 33.8604064010884,45.9727896342208,0 33.8584537529255,45.9716712411453,0 33.8567210459019,45.9698458551271,0 33.855830552509,45.9691837636773,0 33.8548059486653,45.9669767346476,0 33.854768354077,45.9665697705329,0 33.8557446781584,45.9664163962959,0 33.8564635101744,45.9665772521921,0 33.8584054295012,45.9660909422309,0 33.8588743332053,45.9624884664942,0 33.8568280074814,45.9575169097958,0 33.8552591530675,45.9558968051935,0 33.8534030644292,45.9548566430215,0 33.8499038452353,45.953910419308,0 33.8437615865912,45.9527317742833,0 33.8411652082648,45.9522416001943,0 33.8317198920477,45.9530069775593,0 33.8296975064504,45.9539536325722,0 33.8284648781306,45.9540590586722,0 33.8270164852626,45.9543658755847,0 33.8251603966243,45.9551516184185,0 33.824550841207,45.952447246567,0 33.8240787724204,45.9524771808758,0 33.8240304926581,45.9523125419759,0 33.8241324166007,45.9522938329789,0 33.8240734080024,45.9518972007458,0 33.8232526520438,45.9519720372349,0 33.8228288630195,45.9514893400928,0 33.8221851328559,45.951534242331,0 33.8220832089133,45.9511563140165,0 33.8217667082496,45.950774641205,0 33.8214609364219,45.9506661259031,0 33.8197655643825,45.9412783760559,0 33.8213212456111,45.9411137036754,0 33.8210441783422,45.937815418065,0 33.8219775870794,45.937807932497,0 33.8243164733404,45.9383468907978,0 33.8252391532415,45.9380848978379,0 33.82497093234,45.9375309657636,0 33.8257326797002,45.9372989114826,0 33.8255932048315,45.9370369135389,0 33.8267519191259,45.9366776000473,0 33.8272239879125,45.9375983361782,0 33.8286831096166,45.9377854757867,0 33.8307537749761,45.9372914258443,0 33.8306464866155,45.9370518848835,0 33.8362147525304,45.9357343909824,0 33.8327453990361,45.9288105693698,0 33.8183312077901,45.9324452865214,0 33.8173991401574,45.9327119852131,0 33.8158787777352,45.9333206238004,0 33.8146262906993,45.9338155528945,0 33.8139531200413,45.9342864526239,0 33.8140087758784,45.935222200557,0 33.8126275054136,45.9363053915554,0 33.8118335715452,45.9358506289855,0 33.8074343797609,45.9395488320391,0 33.8057066148839,45.938624427871,0 </coordinates>
          </LinearRing>
        </outerBoundaryIs>
      </Polygon>
    </Placemark>
  </Document>
</kml>