<?xml version="1.0" encoding="UTF-8"?>
<kml xmlns="http://earth.google.com/kml/2.2">
  <Document>
    <Placemark>
      <name>Красноперекопский</name>
      <description>15.08.2018 0:09:01</description>
      <Style>
        <LineStyle>
          <color>A6000000</color>
          <width>1</width>
        </LineStyle>
        <PolyStyle>
          <color>80008000</color>
          <fill>1</fill>
        </PolyStyle>
      </Style>
      <Polygon>
        <extrude>1</extrude>
        <outerBoundaryIs>
          <LinearRing>
            <coordinates>34.0792306109038,45.8026180511973,0 34.0136865140586,45.8047392732542,0 34.0133431913047,45.7845658429093,0 34.0222695829063,45.7842055362806,0 34.0296510221152,45.7803621197308,0 34.012141561666,45.7667879213989,0 33.9726594449668,45.7677490359755,0 33.9712861539512,45.786487438676,0 33.935237264791,45.7850462481014,0 33.9118913175254,45.7827642863268,0 33.8940385343223,45.782524074355,0 33.8796189786582,45.7857668480765,0 33.8789323331504,45.797655394062,0 33.8124993802695,45.8025781858702,0 33.8095811368613,45.808100797025,0 33.7671807767539,45.8058197853043,0 33.7673524381309,45.7762781974362,0 33.7372454740158,45.772860455234,0 33.7341233827224,45.7736337686813,0 33.7319883443466,45.7742494085636,0 33.7098458768516,45.7750769865237,0 33.7084725858359,45.8196244713287,0 33.7232354642539,45.8207046927445,0 33.7227204801231,45.836545516708,0 33.687901231257,45.8342605727891,0 33.6854699613242,45.8435044438553,0 33.6871865750938,45.855500536851,0 33.6810067655234,45.8698924110594,0 33.6811500108407,45.8795099120409,0 33.6775451219247,45.8954537469611,0 33.6772017991708,45.9025251011164,0 33.6813216722177,45.908037731447,0 33.6881881272958,45.9122317549906,0 33.6917930162118,45.9101946976799,0 33.6878448045419,45.9093558875031,0 33.6902480638193,45.908037731447,0 33.6957412278818,45.9070790527076,0 33.7002044236825,45.9086368971965,0 33.7183371300546,45.9223405390322,0 33.7301817650644,45.9279709792144,0 33.7375632042734,45.9280907695649,0 33.757132601246,45.9283303494848,0 33.7588492150156,45.9325228294876,0 33.7523260826913,45.9500080200172,0 33.7483778710214,45.9483315984958,0 33.7456312889902,45.9509659522597,0 33.7399664635507,45.9519238678386,0 33.7291517968027,45.9509659522597,0 33.7197104210702,45.9515646514492,0 33.7052908654062,45.9543185838824,0 33.6901846642343,45.9562342817316,0 33.6841765160409,45.9544383169508,0 33.6716452355234,45.9544383169508,0 33.6589422936288,45.9555159028492,0 33.647440981373,45.9519238678386,0 33.6392012352792,45.9500080200172,0 33.6369696373788,45.9460563733763,0 33.6390295739023,45.9433020277354,0 33.6313048119394,45.9422242028171,0 33.6215201134531,45.9436612980215,0 33.618086885914,45.9465353759495,0 33.6203184838144,45.9512054327166,0 33.6295881981699,45.9569526512407,0 33.6319914574472,45.9697620001166,0 33.6311331505624,45.9844830828385,0 33.6228855743618,46.0046356724098,0 33.6199673309536,46.0220979629877,0 33.6153324737759,46.0414674343272,0 33.6155041351528,46.0555717609375,0 33.6216839447231,46.0644149977736,0 33.6263583394353,46.0708337528159,0 33.6663554402653,46.0705947931263,0 33.667728731281,46.0624695441238,0 33.715278932697,46.0633060223933,0 33.7130473347966,46.0756127279427,0 33.7259219380681,46.0785993758914,0 33.7333033772771,46.0852888769083,0 33.7411998006169,46.0893499613941,0 33.7133906575505,46.1146652298994,0 33.7187121602361,46.1270797636487,0 33.7461779805486,46.1223052761506,0 33.7497828694646,46.1287507358832,0 33.7492678853337,46.1369854965613,0 33.7557910176579,46.1418780282808,0 33.7605975362126,46.1392528217575,0 33.7621424886052,46.1403267851073,0 33.7611125203435,46.1433099060139,0 33.7674639912907,46.1447417462664,0 33.7782786580388,46.1412814014966,0 33.7808535786931,46.1374628359901,0 33.7786219807927,46.1344793962352,0 33.7803385945622,46.1291087947247,0 33.7836001607243,46.1260055402722,0 33.7933848592107,46.1211115892031,0 33.8012812825505,46.1202759928525,0 33.8117526265446,46.1281539659417,0 33.8150141927068,46.1338826887628,0 33.814155885822,46.1443837897171,0 33.8117526265446,46.1585809363925,0 33.8086627217595,46.1688387648726,0 33.8088343831364,46.1750402389407,0 33.8026545735661,46.1786176923131,0 33.8150141927068,46.1815987245245,0 33.8244555684392,46.1842218983144,0 33.8350985738103,46.1811217703018,0 33.8419650288884,46.1743247201575,0 33.8474581929509,46.1695543554898,0 33.8568995686833,46.1608473664877,0 33.8615344258611,46.1563144123381,0 33.8639376851384,46.1446224276769,0 33.8651393147771,46.1394914821017,0 33.8568796763538,46.1387113838225,0 33.8493265757678,46.1251058885595,0 33.8391985545276,46.1209280841162,0 33.8467516551135,46.1099449060849,0 33.8366236338733,46.1083927576237,0 33.830272162926,46.1175856109834,0 33.8235773692249,46.1141235486766,0 33.8213457713245,46.1100643002983,0 33.8218607554553,46.1067211639305,0 33.8455500254749,46.1029001867652,0 33.8582529673694,46.0997954465512,0 33.867179358971,46.0923911251635,0 33.8761057505725,46.0891663498663,0 33.9083780894397,46.1002731103452,0 33.9234842906116,46.1015866643035,0 33.9303507456897,46.0959739862651,0 33.9445986399768,46.0938242977171,0 33.9552416453479,46.0937048681027,0 33.9688028941272,46.0972876433036,0 33.9919771800159,46.0999148628902,0 34.0077700266956,46.0990789430513,0 34.0211596140979,46.1014672516088,0 34.0256228098987,46.0983624301804,0 34.0331759104846,46.0941825849987,0 34.0362658152698,46.0940631561651,0 34.0379824290393,46.0898829829984,0 34.0455355296253,46.0915550905302,0 34.0512003550647,46.0895246676037,0 34.0551485667346,46.0894052286182,0 34.057551826012,46.0873747260376,0 34.0589251170276,46.0839107538917,0 34.0639032969592,46.081999503134,0 34.0634003947081,46.0808578129907,0 34.0431344669784,46.0574291847359,0 34.0788499186339,46.0519414166685,0 34.0699235270323,46.030662600863,0 34.067520267755,45.998848547688,0 34.0537873575987,45.9876015824929,0 34.0585938761534,45.9722828669433,0 34.0706101725401,45.9526495285629,0 34.0764466593566,45.934686075196,0 34.0788499186339,45.9136014868919,0 34.0864030192198,45.9130622865569,0 34.0882054636778,45.9140208612849,0 34.0967885325255,45.9142605023631,0 34.0963593790831,45.9086885778946,0 34.1081181834044,45.9079096618808,0 34.1315499613585,45.9125829929437,0 34.1320650498656,45.8793574483806,0 34.1533510606077,45.879057707303,0 34.1534800170762,45.853934126954,0 34.123181784044,45.8587919414461,0 34.1149420379502,45.8541740290534,0 34.1089338897569,45.8560332350059,0 34.104642355333,45.8565729927576,0 34.1000933288438,45.8565729927576,0 34.0991491912705,45.8535142957736,0 34.1017241119248,45.8521348280063,0 34.1025795596796,45.8202477672627,0 34.0789731188384,45.8202644495576,0 34.0792306109038,45.8026180511973,0 </coordinates>
          </LinearRing>
        </outerBoundaryIs>
      </Polygon>
    </Placemark>
  </Document>
</kml>