<?xml version="1.0" encoding="UTF-8"?>
<kml xmlns="http://earth.google.com/kml/2.2">
  <Document>
    <Placemark>
      <name>Красногвардейский</name>
      <description>14.08.2018 23:14:15</description>
      <Style>
        <LineStyle>
          <color>A6000000</color>
          <width>1</width>
        </LineStyle>
        <PolyStyle>
          <color>80008000</color>
          <fill>1</fill>
        </PolyStyle>
      </Style>
      <Polygon>
        <extrude>1</extrude>
        <outerBoundaryIs>
          <LinearRing>
            <coordinates>33.9333409612375,45.2443423322169,0 33.9201765837683,45.2761075358472,0 33.9127542976778,45.2895129353563,0 33.8835718635957,45.2893917643402,0 33.8895747144286,45.3330750565763,0 33.8902613599365,45.3343463524994,0 33.9146372754638,45.334891184815,0 33.9161822278564,45.3441525268717,0 33.9618441541259,45.3428814525627,0 33.9631886161986,45.3478847264047,0 33.9779514946165,45.3477031581701,0 33.9795822776976,45.3803759955773,0 33.9787270616715,45.4019097946157,0 33.9919449876969,45.4020911877396,0 34.0118577074234,45.4019097946157,0 34.0158059190934,45.4040864734098,0 34.0200974535172,45.4031795341715,0 34.0440442156021,45.4014260767526,0 34.0449883531754,45.4025748998704,0 34.0441300462906,45.405356163721,0 34.0440863244404,45.4428227348237,0 34.0518110864033,45.4427623144096,0 34.0502952858088,45.4586296943951,0 34.0416263862726,45.4605021665958,0 34.042055539715,45.4743323608966,0 34.025490216839,45.4745135198147,0 34.0251468940851,45.4671459176729,0 34.0105556770441,45.4640657310774,0 34.0121864601252,45.4606833702611,0 34.0127872749445,45.4551261911967,0 33.998110227215,45.4534347664025,0 33.983690671551,45.4508371217539,0 33.9727901741144,45.4511391796451,0 33.9729618354914,45.4704674976643,0 33.9855789466974,45.4698635886847,0 33.9850672192173,45.5081189912656,0 33.9776857800083,45.5087224875145,0 33.9765821195552,45.5379497893441,0 34.0246590963725,45.540066285574,0 34.0625104299906,45.5399456545181,0 34.0624065328342,45.5961785386578,0 34.050315819585,45.5962690181747,0 34.0494575127002,45.59940217692,0 34.0020789726612,45.5989201639596,0 34.0025116696131,45.622305552079,0 33.9960743679774,45.622305552079,0 33.9965893521082,45.6416951408648,0 34.0114665846875,45.6441945472561,0 34.0204788069776,45.6536456040712,0 34.0273452620557,45.6536456040712,0 34.0350700240186,45.6565949682994,0 34.0334392409375,45.6503349069587,0 34.0521503310254,45.6500339247258,0 34.062879167085,45.6497931377674,0 34.0634799819043,45.6324537385468,0 34.1023612837842,45.6303461517915,0 34.1024471144727,45.6138440015008,0 34.1402126174024,45.6137235298751,0 34.14184839324,45.5812314810593,0 34.1597870071316,45.5807493109996,0 34.1603878219509,45.5988880876829,0 34.1814163406277,45.598647079501,0 34.1816738326931,45.6004546154664,0 34.190342725725,45.6274715596134,0 34.2549732341478,45.6267489027721,0 34.2555546455601,45.5703868937144,0 34.2518639259556,45.5679152476991,0 34.2555546455601,45.564840608404,0 34.2556530637649,45.5522278036335,0 34.3297249479202,45.5500568775728,0 34.4025877520974,45.5498802137018,0 34.4031885669168,45.5608546204417,0 34.4171789691384,45.5609149134207,0 34.4180372760232,45.5676673149345,0 34.4617180520872,45.5664013018798,0 34.4616322213988,45.5472870443043,0 34.5057151591139,45.5471962478209,0 34.5060584818678,45.5451457462218,0 34.5158431803541,45.5427332950087,0 34.5204233703681,45.522158249628,0 34.5619654235907,45.5223995882957,0 34.5621180968695,45.5043581927438,0 34.5498443084173,45.4965116211861,0 34.5714303344834,45.4515368894975,0 34.5688554138291,45.4512952450301,0 34.5650788635362,45.4521409961066,0 34.5622464508164,45.449724530589,0 34.5585557312119,45.4485766729597,0 34.5558091491807,45.4485162587489,0 34.5536633819688,45.4476100377708,0 34.5523759216416,45.4489995706115,0 34.5486852020371,45.4485162587489,0 34.5467969268907,45.4470058823101,0 34.5475694030869,45.4466433859072,0 34.5491143554795,45.4473079608547,0 34.5504876464951,45.4451933768467,0 34.5392438263047,45.4463413037802,0 34.538213858043,45.4427766117053,0 34.5305749267686,45.4387887213767,0 34.5334931701768,45.4372176563747,0 34.5298024505723,45.436009114872,0 34.5305749267686,45.4340753942743,0 34.5296307891953,45.4332293705389,0 34.5302745193589,45.4324135498459,0 34.5359903017415,45.4049026595577,0 34.5799356142415,45.4059909514698,0 34.5800881135214,45.3871696449892,0 34.6011166321981,45.3872906055589,0 34.6008045865383,45.3514939579069,0 34.6084435178127,45.3517360324351,0 34.6076710416165,45.3297029822682,0 34.5421609636462,45.3298928619039,0 34.5420421975607,45.3040862091698,0 34.5579208749288,45.3038439295649,0 34.5564894949124,45.2881728620152,0 34.55843561336,45.2542918414163,0 34.5321788271141,45.2543471001931,0 34.533761992168,45.2393706215388,0 34.5529119145462,45.237217884061,0 34.5592705097647,45.2266702517755,0 34.5479389183713,45.2175822466499,0 34.5438482416586,45.2095167098588,0 34.5209743631796,45.2097897305049,0 34.5188172120713,45.2247086017382,0 34.489184223173,45.2255910304202,0 34.4475330051453,45.2260799376385,0 34.4320617205471,45.2172563104201,0 34.3810553246014,45.2165684368046,0 34.3808510634355,45.2084607109361,0 34.3465790114551,45.208442258143,0 34.3455061278491,45.2068950868092,0 34.3361505828052,45.2085029306654,0 34.3313011489063,45.2085939393269,0 34.3238826369141,45.2347076719932,0 34.3213530249054,45.2360576273267,0 34.3180485433991,45.2411210819597,0 34.3157100091361,45.2803297405866,0 34.2921483634239,45.2806615286121,0 34.292706262899,45.2856300962919,0 34.2915046332603,45.2862359892128,0 34.2166189013384,45.2847573520539,0 34.2184545624016,45.2840731118831,0 34.2184545624016,45.282558309229,0 34.217081271386,45.2819220799728,0 34.21600838778,45.2821341571896,0 34.2157332035715,45.2661718316518,0 34.2079226109201,45.2682325522099,0 34.2062041457717,45.2555666025315,0 34.1871391217568,45.2528599284823,0 34.1859071279453,45.2253084297177,0 34.0845716453616,45.2274229993276,0 34.0968177529646,45.2477993275781,0 34.0679405644815,45.2477970533123,0 34.0669402205751,45.2320822025407,0 34.0197584182061,45.2329717093548,0 34.0169960623551,45.2172828034519,0 34.0004307394792,45.2174041294445,0 33.9986832925621,45.1904047168862,0 33.9732472983222,45.1906469472161,0 33.9730805700021,45.235580039878,0 33.9792603795724,45.2444939169994,0 33.9333409612375,45.2443423322169,0 </coordinates>
          </LinearRing>
        </outerBoundaryIs>
      </Polygon>
    </Placemark>
  </Document>
</kml>