<?xml version="1.0" encoding="UTF-8"?>
<kml xmlns="http://earth.google.com/kml/2.2">
  <Document>
    <Placemark>
      <name>Ленинский</name>
      <description>15.08.2018 11:38:34</description>
      <Style>
        <LineStyle>
          <color>A6000000</color>
          <width>1</width>
        </LineStyle>
        <PolyStyle>
          <color>3300FFFF</color>
          <fill>1</fill>
        </PolyStyle>
      </Style>
      <Polygon>
        <extrude>1</extrude>
        <outerBoundaryIs>
          <LinearRing>
            <coordinates>35.610018491865,45.3149531578216,0 35.6247180023867,45.3185209070362,0 35.6401675263125,45.3216696396596,0 35.6559603729922,45.3236072337214,0 35.6746714630801,45.3273611323891,0 35.6877177277285,45.3306304530075,0 35.7076304474551,45.3332942034339,0 35.7165568390566,45.3329309721657,0 35.7237882730804,45.3367082863736,0 35.7280798075042,45.3410666141559,0 35.7301397440277,45.3450614512989,0 35.7260198709808,45.3488139186168,0 35.7315130350433,45.3531713083553,0 35.7447309610687,45.3583755257498,0 35.7576936472816,45.3673410896843,0 35.7621568430824,45.3741168717938,0 35.7637017954749,45.3824644796535,0 35.7578653086585,45.383674174973,0 35.7484239329261,45.388512695693,0 35.7501405466956,45.3932298520064,0 35.7616418589515,45.4003653095721,0 35.7727998484534,45.4037513110611,0 35.7767480601234,45.4074998601478,0 35.7863610972327,45.4125781401285,0 35.7971757639808,45.4199529187218,0 35.8035272349281,45.4238212673349,0 35.8100382222361,45.426042718192,0 35.8208528889842,45.4328114181355,0 35.8263460530467,45.4388542097803,0 35.828749312324,45.4450171862253,0 35.8277193440623,45.4482796641089,0 35.8244577779002,45.4494879410506,0 35.8232561482615,45.4485213215815,0 35.8205095662303,45.4492462877466,0 35.8189646138377,45.4557705611548,0 35.8229128255076,45.4627772678405,0 35.8320108784861,45.4697830980754,0 35.8464304341502,45.4731649093301,0 35.8603350056834,45.4724402526852,0 35.8678881062693,45.4697830980754,0 35.8721796406932,45.4654347548955,0 35.8699480427928,45.4604820639043,0 35.8637682332225,45.4561329985124,0 35.8548418416209,45.4532334339957,0 35.8455721272654,45.4505753680218,0 35.8459154500193,45.4464671998446,0 35.8495203389353,45.4397001486318,0 35.8557001485057,45.4313610512177,0 35.8623949422068,45.4250756943571,0 35.87629951374,45.4131073944015,0 35.8884874715037,45.4051271090647,0 35.905653609199,45.3946059079164,0 35.9262529744334,45.3849294996812,0 35.9446207417674,45.3780340414649,0 35.9659067525096,45.3723476759521,0 35.9869197963226,45.3697041867248,0 36.000309383725,45.3701881779049,0 36.0131839869964,45.3718821142047,0 36.0298351405609,45.376600667464,0 36.0427097438324,45.3821656311439,0 36.0567859767425,45.3909958548125,0 36.0676006434906,45.4001874891132,0 36.0733049452607,45.4087695842016,0 36.0733049452607,45.4133641343025,0 36.072274976999,45.4161448634289,0 36.076051527292,45.420255254012,0 36.0746782362763,45.4270246525061,0 36.0703867018525,45.4327054813007,0 36.0733049452607,45.4418902845385,0 36.079484754831,45.4458779541976,0 36.1080222012138,45.4553684591139,0 36.1241583706474,45.4617712198416,0 36.1421828152275,45.4662406378733,0 36.1646704556083,45.4692603130053,0 36.1907629849052,45.4716759358693,0 36.2070708157158,45.4711928196337,0 36.2216620327568,45.4721590479364,0 36.2376265408134,45.4749368614259,0 36.2517027737236,45.4752991747636,0 36.2638907314872,45.4772314729637,0 36.2767653347587,45.4791637044669,0 36.2843184353447,45.4812166273594,0 36.2937598110771,45.4807335934527,0 36.3009695889091,45.477593771451,0 36.3112692715263,45.472642155835,0 36.3224272610283,45.4702265746566,0 36.3332419277763,45.4716759358693,0 36.3409666897392,45.4754199453552,0 36.3430266262626,45.479042941952,0 36.3401083828544,45.4816996570976,0 36.3443999172783,45.483631734365,0 36.3443999172783,45.4804920749361,0 36.3504080654716,45.4754199453552,0 36.3591627956962,45.4702265746566,0 36.3691191555595,45.4682940346796,0 36.3759856106376,45.4622544173648,0 36.3869719387626,45.4565765831917,0 36.4022498013115,45.4489649665285,0 36.4158110500908,45.4454608589147,0 36.4271407009697,45.4446150070072,0 36.4348654629326,45.4477566783098,0 36.4355521084404,45.4504148779995,0 36.4419035793876,45.4522272145785,0 36.4439635159111,45.4536770416341,0 36.4425902248954,45.4554892726941,0 36.4473967434501,45.4591135589495,0 36.4544348599052,45.4565765831917,0 36.4607863308525,45.4552476452731,0 36.4678244473076,45.4573014451325,0 36.4752028179281,45.4565914538567,0 36.4844725322835,45.4532086416806,0 36.4942572307699,45.4493423205028,0 36.4990637493246,45.4443882065928,0 36.5069601726644,45.4407629677169,0 36.5165732097738,45.4330283410637,0 36.5301344585531,45.4260179138473,0 36.5404341411703,45.4255344038004,0 36.5531370830648,45.4237212039963,0 36.5624067974203,45.4251717685294,0 36.5675566387289,45.429281497625,0 36.566869993221,45.4339952277576,0 36.5699598980062,45.4381043101767,0 36.5751097393148,45.4402795848164,0 36.5845511150472,45.44015873844,0 36.5936491680257,45.4383460115276,0 36.5981123638265,45.4365332259926,0 36.6027472210043,45.4302484489343,0 36.6092703533285,45.4245673712002,0 36.6135618877523,45.4214244000872,0 36.6118452739828,45.4179185706731,0 36.6087553691976,45.4146543256222,0 36.6061804485433,45.4133243935537,0 36.6085837078207,45.408367096278,0 36.6169563750137,45.4013454782592,0 36.6277206159013,45.3942549968552,0 36.6268837666886,45.3938241270837,0 36.6264170594585,45.3898179279514,0 36.6272324509991,45.3883891288923,0 36.6285520978344,45.3883437695966,0 36.6278654523266,45.3880338134286,0 36.6242766566647,45.385807370672,0 36.6236834547321,45.3842529286587,0 36.6212909242908,45.3837993006421,0 36.6210602543155,45.3827786242078,0 36.6211246273319,45.3818675603151,0 36.6209972529099,45.3805549726558,0 36.6231001047775,45.3772431858357,0 36.6246128706619,45.3757460126397,0 36.6252136854813,45.3753906171826,0 36.6251493124649,45.3749066708173,0 36.6229820875809,45.3732884448822,0 36.6206432013199,45.3699611049272,0 36.6178751616165,45.3693258630811,0 36.6052151350662,45.3650151036994,0 36.6035843519852,45.3678738547504,0 36.6016317038223,45.3682973610561,0 36.6007090239212,45.3667848238792,0 36.5901840357468,45.3694922366397,0 36.5658617643997,45.3668907028068,0 36.562492909877,45.3668075122377,0 36.5617671540994,45.3690932885755,0 36.5565100244302,45.3696755962856,0 36.5555229715127,45.3699629666979,0 36.5540531209726,45.3749690259457,0 36.5514889291543,45.3737137720237,0 36.5479484132547,45.372738284248,0 36.545491509797,45.3716417855214,0 36.5392795137185,45.3695319105284,0 36.5370371869821,45.3692067256157,0 36.5348109534997,45.3706227787277,0 36.530363850953,45.3721862565294,0 36.5259701580405,45.3735427073427,0 36.5249593835992,45.3766392096075,0 36.5243715223021,45.3789095894046,0 36.5217398974179,45.3818522138269,0 36.5215532145135,45.3829049832689,0 36.5225449711852,45.3841399087013,0 36.525947533648,45.3863798949784,0 36.5254446163103,45.3876021821896,0 36.5265496864245,45.3881408285738,0 36.527182687752,45.3878176413633,0 36.529525198075,45.3887079901388,0 36.5312954560248,45.3885870326224,0 36.5321515446311,45.385722134293,0 36.5315641408569,45.3855180074793,0 36.5321770973295,45.3844447932713,0 36.5329200692266,45.3843578484823,0 36.5356752620947,45.3905420769694,0 36.5359051713333,45.3917924075839,0 36.5356148133631,45.3933128583318,0 36.5341771493311,45.3933657728234,0 36.5327663073893,45.3932731724304,0 36.5324739466066,45.393426246467,0 36.5318543563242,45.393454593465,0 36.5311371771536,45.3933298030574,0 36.5309681979857,45.3940422544905,0 36.526716461498,45.3931684712295,0 36.5266791114233,45.3926256027771,0 36.5243001031382,45.3912005796474,0 36.5240050601465,45.3914103554094,0 36.5226693200571,45.3905372295123,0 36.5214407213052,45.3895290047885,0 36.5212096421479,45.3891802103978,0 36.5213920323609,45.38904224437,0 36.5193708168649,45.3876073291583,0 36.5169065197809,45.3861812144865,0 36.5165980657442,45.3858504557768,0 36.5166378285878,45.385482654197,0 36.5142371387687,45.3841395701921,0 36.5127549812038,45.3824475593341,0 36.5139727040965,45.3817708744469,0 36.5142570182521,45.3818105684782,0 36.5175144402603,45.3789105443607,0 36.5193896549512,45.3775266204443,0 36.5169143862072,45.3754017009236,0 36.5164852327648,45.3749215355001,0 36.509281364832,45.3759669448255,0 36.5003496088124,45.3770936047475,0 36.4985632576085,45.377641803584,0 36.4969271101094,45.3786739151511,0 36.4959239639378,45.379445150975,0 36.4945292152501,45.3816000184707,0 36.4939659513569,45.382201098341,0 36.4933007635212,45.3828210733546,0 36.4926248468495,45.3832331261327,0 36.4916699804402,45.3837396822859,0 36.4903610624409,45.3842046514496,0 36.4890789665318,45.384499507949,0 36.4878827013112,45.3846280346566,0 36.4865576900578,45.3845902327143,0 36.4840042270756,45.3842084316709,0 36.4824646391011,45.3837585835465,0 36.4818477310276,45.384722539401,0 36.4808767713643,45.3846242544635,0 36.4788919366932,45.3830894750487,0 36.4780765451527,45.3822615840094,0 36.4722640372738,45.3787873841066,0 36.4714164592251,45.3786134768776,0 36.4703918553814,45.3785454260763,0 36.4670659162029,45.3794036162575,0 36.4645643853101,45.3761904700969,0 36.4670159243497,45.3751280662485,0 36.4665706776533,45.3738955013765,0 36.4668778731265,45.3711339297536,0 36.4653758360781,45.3707633806175,0 36.4640454604068,45.3705554182971,0 36.4629403902926,45.3704192970888,0 36.4570127083697,45.3710961187292,0 36.4550064160266,45.3708390030887,0 36.4533756329455,45.3703550175147,0 36.4522544695773,45.3698483406501,0 36.4512084080615,45.3691072229774,0 36.4501301600375,45.3680598104134,0 36.4488909794726,45.3686648164422,0 36.4485691143908,45.3686080974037,0 36.4473138405719,45.369118566689,0 36.4376257016101,45.3694853454604,0 36.4354799343981,45.3694740018229,0 36.4261994912066,45.3699579949858,0 36.4234690024295,45.3696403749429,0 36.4229164673724,45.3702037711678,0 36.4214499655212,45.3731715667513,0 36.4213158550705,45.3731640048228,0 36.4211334648575,45.373731146642,0 36.4208867016281,45.3737160229344,0 36.4204333510035,45.374889598754,0 36.4204548086756,45.3750294899711,0 36.4191512550944,45.3774378327885,0 36.4182178463572,45.3785795856123,0 36.4170054878825,45.3818156860462,0 36.4060310967086,45.3806595785054,0 36.3893665320991,45.374048109882,0 36.3881587842054,45.3643767060604,0 36.3874470511157,45.3641300372773,0 36.3868676939684,45.3638237290722,0 36.3864619697726,45.3635635698711,0 36.3860757316745,45.3631854075398,0 36.3857967819369,45.3627883343533,0 36.3855875696338,45.3623194062156,0 36.3854749168552,45.3617975299784,0 36.3857645954288,45.3589683378122,0 36.3854230839099,45.3574909221777,0 36.3856859403934,45.3564811139853,0 36.3866770899174,45.3559399304422,0 36.3868433868763,45.3556373597451,0 36.386961404073,45.3546161716192,0 36.3868380224583,45.3532545585957,0 36.3859884190204,45.3512304788659,0 36.3861547159793,45.3511245704357,0 36.3883112120273,45.3508371036912,0 36.3911168026569,45.3507728017182,0 36.3950113701465,45.3503491633523,0 36.3951776671054,45.348556229928,0 36.3954098420238,45.3475240617334,0 36.397063108081,45.3463441557299,0 36.3968538957778,45.3425423442996,0 36.3966446834746,45.341819781919,0 36.3960544335892,45.340841111893,0 36.3961241710236,45.3402622886107,0 36.3975440720933,45.3362691001844,0 36.3996040086167,45.3365112402554,0 36.4007519940751,45.3359210220062,0 36.4032732705491,45.3350735183056,0 36.4053010205643,45.3346648958879,0 36.4066199891274,45.3336275213831,0 36.4068238370125,45.3325605291806,0 36.4068131081764,45.3316827048206,0 36.4076177708809,45.3307291904286,0 36.4072637192909,45.3305702697922,0 36.4068882100289,45.3301313437979,0 36.4068774811928,45.3296999821571,0 36.4063410393898,45.3296697110406,0 36.4066199891274,45.3290945567326,0 36.4071457020943,45.3290113102272,0 36.4073173634712,45.3288675205189,0 36.4080791108315,45.329162667418,0 36.4086262814705,45.3286026437784,0 36.4084975354378,45.3283150619056,0 36.4079825513069,45.3283453337509,0 36.407446109504,45.3282620861372,0 36.407274448127,45.3278685502958,0 36.4076303421909,45.3261551107066,0 36.4087461411411,45.3256934453274,0 36.408917802518,45.3247701032067,0 36.4099155842716,45.3232791007505,0 36.4105271279269,45.3227341559857,0 36.4148981259237,45.3201116930053,0 36.4130956814657,45.3182269638673,0 36.4110787383037,45.3152666603884,0 36.4119906893687,45.3147292078364,0 36.4104671946483,45.3124960753819,0 36.4182275233186,45.3100689263359,0 36.4119213617722,45.2975219762404,0 36.3835523162892,45.2950242844885,0 36.3801315531871,45.2866020652198,0 36.3720323902591,45.283726048828,0 36.3745813977558,45.2787819253249,0 36.3746994149524,45.277274555281,0 36.3745834574537,45.275980192992,0 36.3734247431593,45.27496513398,0 36.3711395010786,45.2733894837866,0 36.3683324403943,45.273243436398,0 36.3685169287285,45.2725005262958,0 36.3673582144341,45.2718641835081,0 36.3652768202385,45.2714323753831,0 36.3639035292229,45.2714778290257,0 36.3601903191471,45.2723776930212,0 36.3587419262791,45.2721580035823,0 36.3555125466251,45.272218607651,0 36.3544503918552,45.2720367952497,0 36.3496867886448,45.2660972677324,0 36.3517252674961,45.2633848774452,0 36.3533131352329,45.2623544380028,0 36.3568751088047,45.2629454276326,0 36.3589350453281,45.2629302741297,0 36.3603727093601,45.2627332782216,0 36.3641707173252,45.2599146460288,0 36.3669816723728,45.2596418676958,0 36.3694568783537,45.2596648827916,0 36.3720103413359,45.259316330922,0 36.3777609974638,45.2561792671691,0 36.3835309239934,45.2542630696253,0 36.3817499372075,45.2524140276274,0 36.3876507970402,45.2496251939226,0 36.3885949346135,45.2505800818517,0 36.3935945722172,45.2488673348574,0 36.397424705899,45.2428550422856,0 36.3946352085235,45.2417484318756,0 36.3966093143585,45.2384436305414,0 36.3998279651763,45.2394138675123,0 36.4007506450775,45.2380191466222,0 36.401201256192,45.2367305151704,0 36.4029178699615,45.23648794596,0 36.401951522874,45.2317920906839,0 36.3964771497003,45.2210870311707,0 36.3957142344566,45.2164690249445,0 36.3976935305355,45.2163265346885,0 36.3965884604213,45.2136800018371,0 36.4018134035824,45.2122012260513,0 36.4017665772112,45.2111633793906,0 36.4020455269488,45.2103291657778,0 36.4023459343585,45.2097831283798,0 36.4026034264239,45.2086151973419,0 36.402989664522,45.2070225252021,0 36.4035046486529,45.2053691323483,0 36.4032471565875,45.2043376334032,0 36.4032686142596,45.2027145013523,0 36.4032256989153,45.201379554075,0 36.403526106325,45.2001052568045,0 36.4047706513079,45.198982637786,0 36.4047277359637,45.1979813641738,0 36.4050925163897,45.1973896941567,0 36.4049208550128,45.1964187350669,0 36.4053714661273,45.1954022444004,0 36.4061868576678,45.1940367804091,0 36.4063156037005,45.1930809359909,0 36.4062083153399,45.1916395527374,0 36.4065730957659,45.1906988406911,0 36.4060795693072,45.1898794980912,0 36.4058220772418,45.1888173696416,0 36.4051783470782,45.1868144445647,0 36.405328550783,45.1847962740563,0 36.4059937386187,45.1840678940793,0 36.4054572968157,45.1827628564916,0 36.4052427200945,45.181078402992,0 36.40620831534,45.1752203633049,0 36.4068949608478,45.1717598890423,0 36.4091265587482,45.1676920433956,0 36.4111864952716,45.1661133976608,0 36.4167654900226,45.1636239052863,0 36.4162505058917,45.1608914095397,0 36.4171088127765,45.1573693315262,0 36.4193404106769,45.1533004513444,0 36.4181387810382,45.1488061243822,0 36.4182246117267,45.1455262552184,0 36.4201128868732,45.1429143716768,0 36.4200270561847,45.1399378924162,0 36.4203703789386,45.1367790086422,0 36.4221728233966,45.1345919859051,0 36.4245760826739,45.1341667216786,0 36.4243185906085,45.1314328039942,0 36.4244902519855,45.1285164797105,0 36.4264643578204,45.1236556056564,0 36.4293826012286,45.1192804624917,0 36.4331591515216,45.1164242840591,0 36.4377081780109,45.1157557959825,0 36.4395106224689,45.1142972491784,0 36.440798082796,45.1123524617291,0 36.4442313103351,45.1096174915005,0 36.4487803368243,45.1079156656604,0 36.4525568871173,45.1053628311248,0 36.4532435326251,45.1023843789069,0 36.4538443474444,45.0989802419633,0 36.4531577019366,45.0960014545298,0 36.4496386437091,45.0940560395215,0 36.4470637230548,45.0905298047672,0 36.44620541617,45.0890706090332,0 36.4392531304034,45.0856048687565,0 36.4333308128985,45.0826861864401,0 36.4238894371661,45.0780038200021,0 36.4151347069415,45.0762402312012,0 36.4074099449786,45.0728345253452,0 36.4033759026202,45.0705842147346,0 36.3943636803302,45.0679080535783,0 36.3898146538409,45.0674214652703,0 36.3807166008624,45.0637110923039,0 36.3799441246661,45.0618862297773,0 36.3767683891925,45.0610954378049,0 36.3743651299151,45.0595746530631,0 36.3671553520831,45.0588446619226,0 36.3562548546466,45.0587229958204,0 36.3405478386554,45.0598788132692,0 36.3258707909259,45.0597571493822,0 36.3093054680499,45.0590271605873,0 36.2877619652423,45.0568371379085,0 36.2717116264972,45.0542211668203,0 36.2563479332599,45.0511791884873,0 36.2469923882159,45.047650289554,0 36.2463057427081,45.0450947431549,0 36.2469065575275,45.0417480204961,0 36.2445891289386,45.0400441587042,0 36.2389243034991,45.0373057023773,0 36.235834398714,45.0347496907656,0 36.2331736473712,45.0325587321909,0 36.2287104515704,45.0303676891737,0 36.2262213616046,45.0284200244908,0 36.2224448113116,45.0290286768714,0 36.2186682610187,45.0286026208892,0 36.2148917107257,45.0292112713151,0 36.2101710228595,45.0309154578445,0 36.2038195519122,45.033349921417,0 36.1976397423419,45.0343236776561,0 36.1780531850713,45.0355788082943,0 36.1547930684942,45.0378305059926,0 36.1285288778204,45.0413600147718,0 36.1082728353399,45.0444025188332,0 36.0833819356817,45.0479316194767,0 36.0617526021856,45.0495135589601,0 36.0388358083624,45.0503653542845,0 36.0226996389288,45.048540062952,0 36.0078509298223,45.044219973183,0 35.9987528768438,45.0402038205189,0 35.9905131307501,45.0349093674531,0 35.9894831624883,45.0315620449888,0 35.9867365804571,45.0297970137838,0 35.9846766439337,45.0257189735265,0 35.9790976491827,45.0227363409998,0 35.968712135877,45.019266551223,0 35.9648497548956,45.0183534134657,0 35.9628756490606,45.0166488504277,0 35.9574683156866,45.0154921535595,0 35.954120918836,45.0125089846642,0 35.9514601674932,45.0140310291578,0 35.9463961568731,45.0143963137767,0 35.9448512044805,45.0153095150617,0 35.9426196065801,45.0148833562864,0 35.9373839345831,45.0179881542579,0 35.930345818128,45.0201187999031,0 35.9207327810186,45.0204840454281,0 35.9099181142706,45.0196926771594,0 35.902794167127,45.0180490309554,0 35.9003909078497,45.0151268759775,0 35.8960993734258,45.0148224762008,0 35.8933527913946,45.0134222162471,0 35.8871729818243,45.0129960433328,0 35.8798773733038,45.0112913197487,0 35.8738692251104,45.0083079305584,0 35.8679469076055,45.0049590420572,0 35.8638270345587,45.0036803235433,0 35.857218071546,45.0022188957712,0 35.8456309286016,45.0002702670276,0 35.8394511190313,44.9991132371425,0 35.8356745687383,45.0001484755158,0 35.8336146322149,45.0022797893443,0 35.8300097432989,45.0044110233554,0 35.833442970838,45.0066030664962,0 35.8361895528692,45.008186156248,0 35.8342154470342,45.0124481020374,0 35.8282072988409,45.0171358736511,0 35.8218558278936,45.0205449194542,0 35.8172209707159,45.0220058765338,0 35.8129294362921,45.0216406407823,0 35.8125861135381,45.0226145975737,0 35.8151610341924,45.0288840451073,0 35.8169634786505,45.0340573404347,0 35.8144743886846,45.0383782027563,0 35.8094103780645,45.0443416703483,0 35.7996256795782,45.0506695638055,0 35.7961924520391,45.0519472260062,0 35.7943900075811,45.0544416265377,0 35.7888110128301,45.0574834301771,0 35.7852675972098,45.0599419679039,0 35.7803752479666,45.0664505986674,0 35.7709338722342,45.0719853892517,0 35.7574584541434,45.0792223782152,0 35.7364299354666,45.0894985332454,0 35.7166442814566,45.098068759138,0 35.6935558262564,45.106639636967,0 35.6676141592765,45.1146906858955,0 35.6470147940421,45.1195523288898,0 35.6213850811508,45.1256549496715,0 35.6035322979476,45.1288752117277,0 35.5849928692367,45.130637164443,0 35.5710882977035,45.1307586764036,0 35.5556387737777,45.1295435450698,0 35.5459399059799,45.1284499045872,0 35.5386046307852,45.1270230264003,0 35.5374030011466,45.1289369315885,0 35.5305794614127,45.1306988823844,0 35.5304078000357,45.1354680260156,0 35.5292888491262,45.1353717062238,0 35.5307908861746,45.1421450341751,0 35.5257697908987,45.1517720928235,0 35.5240102617849,45.1515291587939,0 35.5146250025299,45.1696707062949,0 35.515125458539,45.1771235690205,0 35.5086023262148,45.1756058942739,0 35.5080015113955,45.1727525555155,0 35.5104047706728,45.1655882197091,0 35.5053407600527,45.1630379829725,0 35.489547913373,45.1672883136855,0 35.4827672889834,45.1677740454398,0 35.4702360084658,45.1715990372956,0 35.4282648018008,45.1715990372956,0 35.4244589483455,45.2150411426052,0 35.4631685888484,45.2178923476835,0 35.4512083320451,45.2658139088591,0 35.4491483955216,45.2680564683202,0 35.4552934482195,45.2720437047697,0 35.4614732577899,45.2774978210947,0 35.4650781467059,45.2822242950753,0 35.4669664218524,45.2869503727113,0 35.4671364941052,45.2914295471229,0 35.4641998774625,45.2964116814489,0 35.4698569775828,45.3011442218609,0 35.4859931470164,45.2947231247658,0 35.5033309460886,45.2886648150062,0 35.5186088086375,45.2840600638988,0 35.5295951367625,45.2833329635379,0 35.5400664807566,45.2891495037603,0 35.5491645337351,45.2925422082992,0 35.5654723645457,45.297994341164,0 35.5793769360789,45.3034459463579,0 35.5958564282664,45.3103505554396,0 35.610018491865,45.3149531578216,0 </coordinates>
          </LinearRing>
        </outerBoundaryIs>
      </Polygon>
    </Placemark>
  </Document>
</kml>