<?xml version="1.0" encoding="UTF-8"?>
<kml xmlns="http://earth.google.com/kml/2.2">
  <Document>
    <Placemark>
      <name>Нижнегорский р-н</name>
      <description>14.08.2018 23:44:24</description>
      <Style>
        <LineStyle>
          <color>A6000000</color>
          <width>1</width>
        </LineStyle>
        <PolyStyle>
          <color>80008000</color>
          <fill>1</fill>
        </PolyStyle>
      </Style>
      <Polygon>
        <extrude>1</extrude>
        <outerBoundaryIs>
          <LinearRing>
            <coordinates>34.5619654235907,45.5223995882957,0 34.5741119586592,45.5222511516252,0 34.572975167969,45.5478678106081,0 34.5924608241331,45.557955632083,0 34.5855085383665,45.5625982420123,0 34.5945636760008,45.5694107236747,0 34.6120302211058,45.5567798449147,0 34.6124593745482,45.5656127170047,0 34.6959229040988,45.5663570903969,0 34.6962879737593,45.5851664077118,0 34.7005795081831,45.584081595753,0 34.7024248679854,45.5838103894663,0 34.7970064044575,45.5837112173533,0 34.7975283202666,45.6021120525678,0 34.7584324416655,45.6023530457685,0 34.7586399478168,45.6104205147582,0 34.7163480247558,45.6110919692523,0 34.7174824737746,45.6246182120655,0 34.7289671601362,45.6433411953101,0 34.7427859009809,45.6431906854837,0 34.8068760169859,45.6348742958097,0 34.8075355536888,45.6546356292037,0 34.8104108817527,45.6597516825977,0 34.8104685973574,45.6640243822874,0 34.8111552428652,45.6664616785275,0 34.8144168090273,45.6699218539135,0 34.8294399226604,45.6776940188067,0 34.8556968368173,45.717633980689,0 34.8618687219232,45.7148703475635,0 34.8649586267084,45.7143893340284,0 34.8696793145746,45.7147500945705,0 34.8722542352289,45.7145697145925,0 34.8743141717523,45.7138481888201,0 34.8784340447992,45.7105410757219,0 34.8891628808587,45.7004381286927,0 34.8948277062982,45.6941228535204,0 34.9012650079339,45.686904517102,0 34.9036682672113,45.6848591513061,0 34.9075306481927,45.6830543542673,0 34.9122513360589,45.681038928313,0 34.9143971032709,45.6802568030368,0 34.9161566323846,45.680617785301,0 34.9175728387445,45.6797754897047,0 34.9213493890375,45.6789933466513,0 34.9249971932977,45.6780006107739,0 34.9292458123773,45.6777900281571,0 34.9335802621454,45.6780006107739,0 34.9373568124383,45.6785421052684,0 34.9393738336175,45.6795047491239,0 34.9411762780755,45.6794145019706,0 34.9441565631361,45.6803975927505,0 34.9475039599867,45.6823227995273,0 34.9489630816908,45.6828943324528,0 34.9534262774916,45.683706500711,0 34.9573744891615,45.6848495322286,0 34.9603785632582,45.6858421457909,0 34.9674166797132,45.6867144279226,0 34.9727427196009,45.6858640591595,0 34.9774204921229,45.6841796142037,0 34.980510396908,45.6827658442113,0 34.9832140635951,45.6808707344089,0 34.9841582011683,45.6795170449908,0 34.9845444392664,45.6779828237981,0 34.9839865397913,45.675606201492,0 34.983557386349,45.6728082754083,0 34.9836861323817,45.6703110826849,0 34.9845444392664,45.6668208423033,0 34.9855314921839,45.6633002917405,0 34.9871804737542,45.6599779797017,0 34.9891545795891,45.656607469937,0 34.991472008178,45.6538386841444,0 34.9944644789987,45.6511114384377,0 34.9975972991281,45.649215249653,0 34.9999147277169,45.6485831723656,0 35.0027471404366,45.6484326767152,0 35.0045925002389,45.6487637666089,0 35.0059657912545,45.6478607895316,0 35.0075536589913,45.6474393952146,0 35.0099998336129,45.6469878977625,0 35.0129609923654,45.6460848918693,0 35.0151067595773,45.6450915684634,0 35.0173778479531,45.6431755094688,0 35.0188798850015,45.6422122366794,0 35.0220127051308,45.6405565726218,0 35.0244588797524,45.6393825264482,0 35.0275278224293,45.6370789543238,0 35.0301027430836,45.6341285556414,0 35.0324201716725,45.6297929922736,0 35.0356817378346,45.6245537361194,0 35.0380849971119,45.619193527254,0 35.0402307643238,45.6159410142552,0 35.043320669109,45.6135316229353,0 35.0468397273365,45.6130497321676,0 35.0446081294361,45.6099775805451,0 35.0425481929127,45.6070859889896,0 35.0427198542897,45.6049171968555,0 35.0452947749439,45.6025073288287,0 35.0470113887135,45.5997358517817,0 35.0466680659596,45.5964822028901,0 35.0501012934986,45.5917821525613,0 35.0552511348072,45.5857558673965,0 35.0581693782154,45.5846710669034,0 35.0602293147389,45.5798494760852,0 35.0611734523121,45.576835770164,0 35.0632845930725,45.5729547105904,0 35.0418269209534,45.5671072500374,0 35.0242316298157,45.5593297809739,0 35.0117003492981,45.5601136060322,0 35.0018915592008,45.4991029014952,0 34.9554159983788,45.4955822000662,0 34.9205365730323,45.4925920129324,0 34.9193349433936,45.4652392123719,0 34.927869366055,45.4390343737299,0 34.8768120837761,45.4444169618074,0 34.8421364856316,45.4482836228322,0 34.8403340411735,45.4458065738246,0 34.8548100674008,45.4289013238707,0 34.7915528499936,45.4294452397218,0 34.7914670193051,45.4272695446611,0 34.7828839504574,45.4274508558071,0 34.7774766170834,45.4291430649004,0 34.7755883419369,45.4218903806587,0 34.7585937240977,45.4220340547538,0 34.771811791644,45.4050242642137,0 34.7771332943295,45.4002476327051,0 34.7821973049496,45.3972242381341,0 34.7942136013363,45.3923259933349,0 34.8163009794139,45.3838478630256,0 34.8163009794139,45.3719917620243,0 34.8064304502391,45.3719917620243,0 34.8063446195506,45.3586809127303,0 34.7583802866144,45.3589061365499,0 34.7579770312122,45.3379265044145,0 34.7678815307154,45.3377579536035,0 34.7659542047192,45.2867537022884,0 34.7254421197582,45.2872384074815,0 34.7253249196855,45.2691997160404,0 34.7137377767412,45.269260323289,0 34.7125361471025,45.2655631619109,0 34.7107337026445,45.2662904914989,0 34.7085021047441,45.2631992759619,0 34.7040389089434,45.2629568205184,0 34.6997152371611,45.2598054262322,0 34.694651226541,45.2504695774919,0 34.6941362424101,45.244224608614,0 34.6965395016875,45.2381002301197,0 34.694822887918,45.2370086869517,0 34.6835362711049,45.2366476007741,0 34.6768400697319,45.2370246359443,0 34.6598026780693,45.2400263280176,0 34.6564123658744,45.2427550004733,0 34.6546957521049,45.2425124571527,0 34.6529791383354,45.2434219892304,0 34.6529362229911,45.2440283358055,0 34.6487716352916,45.2450375753453,0 34.6473983442759,45.2441280693052,0 34.6438792860484,45.2436429934235,0 34.6415618574595,45.2444918734802,0 34.639673582313,45.2458864344245,0 34.6404031431651,45.2492817430528,0 34.6439530324055,45.2607319542614,0 34.6102464905356,45.2606357763128,0 34.6083749953568,45.2491485257468,0 34.5589505974908,45.2498661666848,0 34.55843561336,45.2542918414163,0 34.5564894949124,45.2881728620152,0 34.5579208749288,45.3038439295649,0 34.5420421975607,45.3040862091698,0 34.5421609636462,45.3298928619039,0 34.6076710416165,45.3297029822682,0 34.6084435178127,45.3517360324351,0 34.6008045865383,45.3514939579069,0 34.6011166321981,45.3872906055589,0 34.5800881135214,45.3871696449892,0 34.5799356142415,45.4059909514698,0 34.5359903017415,45.4049026595577,0 34.5302745193589,45.4324135498459,0 34.5296307891953,45.4332293705389,0 34.5305749267686,45.4340753942743,0 34.5298024505723,45.436009114872,0 34.5334931701768,45.4372176563747,0 34.5305749267686,45.4387887213767,0 34.538213858043,45.4427766117053,0 34.5392438263047,45.4463413037802,0 34.5504876464951,45.4451933768467,0 34.5491143554795,45.4473079608547,0 34.5475694030869,45.4466433859072,0 34.5467969268907,45.4470058823101,0 34.5486852020371,45.4485162587489,0 34.5523759216416,45.4489995706115,0 34.5536633819688,45.4476100377708,0 34.5558091491807,45.4485162587489,0 34.5585557312119,45.4485766729597,0 34.5622464508164,45.449724530589,0 34.5650788635362,45.4521409961066,0 34.5688554138291,45.4512952450301,0 34.5714303344834,45.4515368894975,0 34.5498443084173,45.4965116211861,0 34.5621180968695,45.5043581927438,0 34.5619654235907,45.5223995882957,0 </coordinates>
          </LinearRing>
        </outerBoundaryIs>
      </Polygon>
    </Placemark>
  </Document>
</kml>