<?xml version="1.0" encoding="UTF-8"?>
<kml xmlns="http://earth.google.com/kml/2.2">
  <Document>
    <Placemark>
      <name>Первомайский</name>
      <description>15.08.2018 0:13:14</description>
      <Style>
        <LineStyle>
          <color>A6000000</color>
          <width>1</width>
        </LineStyle>
        <PolyStyle>
          <color>3300FFFF</color>
          <fill>1</fill>
        </PolyStyle>
      </Style>
      <Polygon>
        <extrude>1</extrude>
        <outerBoundaryIs>
          <LinearRing>
            <coordinates>33.9161822278564,45.3441525268717,0 33.917726226448,45.3553974094469,0 33.914586242212,45.3707314401056,0 33.9066860217015,45.3896776163862,0 33.9032908171695,45.3980867434763,0 33.8014097899478,45.3979960405169,0 33.80072314444,45.4236289092901,0 33.8163443297427,45.423870673049,0 33.8166876524966,45.4401873173637,0 33.7377234190982,45.4388579907044,0 33.7317152709048,45.4172217899296,0 33.7063093871158,45.4158919187262,0 33.7035628050845,45.4307605020657,0 33.6846800536197,45.4332986467363,0 33.6815901488345,45.4329360616753,0 33.6778135985415,45.4455043087429,0 33.650347778229,45.4433292368731,0 33.6472578734439,45.4724440313432,0 33.5255499571841,45.4778787271939,0 33.5386809926227,45.5188945281375,0 33.5354194264605,45.5252900241766,0 33.537479362984,45.5582212694602,0 33.5280379872516,45.5585830434236,0 33.5330161671832,45.5724492777924,0 33.5400542836383,45.572690399215,0 33.573871574898,45.5872763067309,0 33.5754982372745,45.6041587935817,0 33.5777298351749,45.6281316304213,0 33.5988441845402,45.6283725110959,0 33.6030766942203,45.6669300373238,0 33.6005336146455,45.6993431681738,0 33.6043526929589,45.7479911260154,0 33.6575677198144,45.7479911260154,0 33.6563660901757,45.7210640241803,0 33.6960198682519,45.7208235447653,0 33.6949898999901,45.704829325387,0 33.7133576673241,45.7037468433545,0 33.7150742810936,45.7045887756475,0 33.7037446302147,45.7202223416699,0 33.7032296460839,45.7340483654755,0 33.7208315550517,45.7426218648359,0 33.7434908568095,45.7489917142975,0 33.7341891743675,45.7695403126307,0 33.7341233827224,45.7736337686813,0 33.7372454740158,45.772860455234,0 33.7673524381309,45.7762781974362,0 33.7671807767539,45.8058197853043,0 33.8095811368613,45.808100797025,0 33.8124993802695,45.8025781858702,0 33.8789323331504,45.797655394062,0 33.8796189786582,45.7857668480765,0 33.8940385343223,45.782524074355,0 33.9118913175254,45.7827642863268,0 33.935237264791,45.7850462481014,0 33.9712861539512,45.786487438676,0 33.9726594449668,45.7677490359755,0 34.012141561666,45.7667879213989,0 34.0296510221152,45.7803621197308,0 34.0222695829063,45.7842055362806,0 34.0133431913047,45.7845658429093,0 34.0136865140586,45.8047392732542,0 34.0792306109038,45.8026180511973,0 34.0791447802153,45.798595805699,0 34.0994866533843,45.7967947055206,0 34.1005756227673,45.7851608405584,0 34.1213466493786,45.7840198737839,0 34.1181983876996,45.7625227963637,0 34.1001739431196,45.762642945843,0 34.0999390306188,45.7185900051038,0 34.1111158510994,45.6942244273787,0 34.1098693908369,45.6838240706803,0 34.1068653167402,45.6799135301991,0 34.1025737823164,45.680033858624,0 34.100808238658,45.6667261570276,0 34.077204799327,45.6656429325924,0 34.0707674976912,45.6495124286852,0 34.062879167085,45.6497931377674,0 34.0334392409375,45.6503349069587,0 34.0350700240186,45.6565949682994,0 34.0273452620557,45.6536456040712,0 34.0204788069776,45.6536456040712,0 34.0114665846875,45.6441945472561,0 33.9965893521082,45.6416951408648,0 33.9960743679774,45.622305552079,0 34.0025116696131,45.622305552079,0 34.0020789726612,45.5989201639596,0 34.0494575127002,45.59940217692,0 34.050315819585,45.5962690181747,0 34.0624065328342,45.5961785386578,0 34.0625104299906,45.5399456545181,0 34.0246590963725,45.540066285574,0 33.9765821195552,45.5379497893441,0 33.9776857800083,45.5087224875145,0 33.9850672192173,45.5081189912656,0 33.9855789466974,45.4698635886847,0 33.9729618354914,45.4704674976643,0 33.9727901741144,45.4511391796451,0 33.983690671551,45.4508371217539,0 33.998110227215,45.4534347664025,0 34.0127872749445,45.4551261911967,0 34.0121864601252,45.4606833702611,0 34.0105556770441,45.4640657310774,0 34.0251468940851,45.4671459176729,0 34.025490216839,45.4745135198147,0 34.042055539715,45.4743323608966,0 34.0416263862726,45.4605021665958,0 34.0502952858088,45.4586296943951,0 34.0518110864033,45.4427623144096,0 34.0440863244404,45.4428227348237,0 34.0441300462906,45.405356163721,0 34.0449883531754,45.4025748998704,0 34.0440442156021,45.4014260767526,0 34.0200974535172,45.4031795341715,0 34.0158059190934,45.4040864734098,0 34.0118577074234,45.4019097946157,0 33.9787270616715,45.4019097946157,0 33.9795822776976,45.3803759955773,0 33.9779514946165,45.3477031581701,0 33.9631886161986,45.3478847264047,0 33.9618441541259,45.3428814525627,0 33.9161822278564,45.3441525268717,0 </coordinates>
          </LinearRing>
        </outerBoundaryIs>
      </Polygon>
    </Placemark>
  </Document>
</kml>