<?xml version="1.0" encoding="UTF-8"?>
<kml xmlns="http://earth.google.com/kml/2.2">
  <Document>
    <Placemark>
      <name>Раздольненский</name>
      <description>07.10.2018 2:10:53</description>
      <Style>
        <LineStyle>
          <color>A6000000</color>
          <width>1</width>
        </LineStyle>
        <PolyStyle>
          <color>3300FFFF</color>
          <fill>1</fill>
        </PolyStyle>
      </Style>
      <Polygon>
        <extrude>1</extrude>
        <outerBoundaryIs>
          <LinearRing>
            <coordinates>33.5743423329894,45.4025292582394,0 33.5746862336964,45.4187995346999,0 33.5771753236622,45.4194039941869,0 33.5773545270007,45.4335396718644,0 33.5513414260268,45.4338059679265,0 33.5514272567153,45.4444406569199,0 33.5065378066421,45.4475219227137,0 33.5025037642837,45.4325369214372,0 33.4303005499097,45.4319225143474,0 33.4294226514122,45.4557657413372,0 33.4411814557335,45.4560073665236,0 33.442898069503,45.4651883513671,0 33.4580901013634,45.4637388222281,0 33.4636689791058,45.5087155417407,0 33.4477044710492,45.5097414705435,0 33.4476186403607,45.5030424191576,0 33.3913898296423,45.5068273867486,0 33.3928489513464,45.5252918488465,0 33.3601474590368,45.5262571431405,0 33.3606624431677,45.5155173050697,0 33.3660053271496,45.5022300260562,0 33.3739017504894,45.4914855718059,0 33.3740255715072,45.4783313128336,0 33.3342001320541,45.4790558932269,0 33.318490840455,45.5118618582717,0 33.3207145052516,45.5414753665739,0 33.3199293212714,45.5532805174577,0 33.2914424699545,45.5552248580094,0 33.2398406025496,45.5569727477881,0 33.2316008564559,45.55745512334,0 33.227480983409,45.6075994228947,0 33.2041350361434,45.6083223281899,0 33.204096809512,45.6339452790799,0 33.2037436884003,45.6592992188837,0 33.1544047434239,45.6589307130722,0 33.1537180979161,45.6633843715994,0 33.1140532354875,45.6616804607105,0 33.112359385718,45.6792025257147,0 33.1261354361172,45.6796852842575,0 33.124711294943,45.6969505631088,0 33.1001637180387,45.6961987350826,0 33.0996311017058,45.7134114976036,0 33.1046521969817,45.7137422006809,0 33.1062829800627,45.7129905999291,0 33.1116473980925,45.711938341784,0 33.115509779074,45.7120285361207,0 33.1198871441863,45.7133814335898,0 33.1229341336272,45.7149146775376,0 33.1265819378874,45.7176503605811,0 33.1270110913298,45.7184920820894,0 33.1324184247038,45.7191233648453,0 33.1333625622771,45.7186423881587,0 33.137482435324,45.7189129380577,0 33.1424680157076,45.7213921036844,0 33.1473603649507,45.7257806440639,0 33.1511798305879,45.7296278460594,0 33.1551709576021,45.7338654707947,0 33.1593843632518,45.7427392198775,0 33.1610151463329,45.7480875276496,0 33.1621309452831,45.7536756577602,0 33.1635146985009,45.7639445415317,0 33.1645446667627,45.7724742885478,0 33.1660105367361,45.7806347309894,0 33.1692721028982,45.7897623649236,0 33.1709887166677,45.784478128624,0 33.1778551717458,45.7761904700267,0 33.1848932882009,45.7695834772529,0 33.1943346639333,45.7638167306586,0 33.2140757222829,45.755405816244,0 33.2214571614919,45.753182718513,0 33.2285811086355,45.7516805749899,0 33.2363917012868,45.7508994442753,0 33.2405115743337,45.7511397933595,0 33.2522274633108,45.752942378284,0 33.2560040136037,45.7537685434566,0 33.2643534049163,45.7555492035165,0 33.2701040610442,45.7577121263745,0 33.2736231192717,45.7581927644389,0 33.2803179129729,45.760956352441,0 33.2889009818206,45.7619776435748,0 33.2980848654876,45.7661827617455,0 33.3067770543875,45.767751486046,0 33.3146734777274,45.7700340662611,0 33.3204241338553,45.7713555170971,0 33.3250721070115,45.7734094727713,0 33.3298786255661,45.7759921217654,0 33.3381194811641,45.7784715431437,0 33.355028126794,45.7852576268437,0 33.3637828570186,45.7903616551872,0 33.3731384020626,45.7959455237674,0 33.3745975237667,45.7960055623049,0 33.3790607195675,45.7981669062954,0 33.3855838518917,45.8046504319911,0 33.389789555627,45.8069915185294,0 33.4028304141263,45.8162637880747,0 33.4051826514692,45.8182084172789,0 33.409474185893,45.8211490458481,0 33.4109333075971,45.8212690681836,0 33.4108903922529,45.8220792121366,0 33.4134246172267,45.8254855893256,0 33.4162570299464,45.8284258310405,0 33.4189177812892,45.8301959011795,0 33.4266854585963,45.8346358278039,0 33.4327794374781,45.8368556574247,0 33.4355260195094,45.837575583026,0 33.443132106604,45.8409081388755,0 33.4469515722412,45.8423178810332,0 33.451243106665,45.8433076785108,0 33.4586674612182,45.84522723522,0 33.4666235536824,45.847024261748,0 33.4699280351888,45.8481939208954,0 33.4828884691487,45.8533821104449,0 33.4837896913777,45.8529022983276,0 33.4853346437703,45.8529622750701,0 33.4878666490804,45.8538019426297,0 33.4886820406209,45.8537719547223,0 33.4915144533406,45.85500144558,0 33.4933168977986,45.8561109626246,0 33.4941322893392,45.8558410821509,0 33.49464727347,45.8544616724749,0 33.4937031358968,45.8537419667986,0 33.4936173052083,45.8520326282452,0 33.4943039507161,45.849753427917,0 33.4953768343221,45.8487037645714,0 33.4964926332723,45.8485838017767,0 33.4974796861897,45.8486437832066,0 33.5013849825154,45.8411455999199,0 33.502929934908,45.8402457495671,0 33.5051615328084,45.8400957730841,0 33.508508929659,45.8402157543031,0 33.5112984270345,45.8409956258784,0 33.5170919985066,45.843935042924,0 33.5206110567342,45.8458845700494,0 33.5237867922078,45.8467843286067,0 33.5256321520101,45.8479539928321,0 33.5273916811238,45.8478940106535,0 33.5305674165975,45.8466043780671,0 33.5340435594808,45.8457646011351,0 33.5361034960042,45.8447448548487,0 33.535888919283,45.8443549468846,0 33.5343439668904,45.8437250897474,0 33.5346443743001,45.8419254583769,0 33.5347302049886,45.8390459263104,0 33.5366184801351,45.838386012419,0 33.5389359087239,45.837756087265,0 33.5401804537068,45.8371561518738,0 33.5398371309529,45.8361062492735,0 33.5379917711507,45.8352663128378,0 33.5379059404622,45.8349063361735,0 33.5398800462972,45.8349063361735,0 33.5429699510823,45.8355062959787,0 33.5455877870809,45.8369761699869,0 33.5469610780965,45.8373961268115,0 33.5481197923909,45.8395858499985,0 33.5491926759969,45.8412055894226,0 33.5496764394661,45.8435895634618,0 33.5504274579903,45.8458540219027,0 33.5515861722847,45.8481633740252,0 33.5529380056282,45.8502027216343,0 33.555225936743,45.8524715265578,0 33.5572644155943,45.8541958453786,0 33.5575862806761,45.8562349703623,0 33.5584819239881,45.8570194750221,0 33.5587394160535,45.8580689804065,0 33.5593402308728,45.8592983756425,0 33.5603701991345,45.8607976010988,0 33.5625159663465,45.8637059824486,0 33.5652309479473,45.8670284948987,0 33.5676342072246,45.8691271054196,0 33.5690074982402,45.8699065690159,0 33.5710674347637,45.8701763807744,0 33.5757022919414,45.8702962966883,0 33.5784059586284,45.8699965064152,0 33.58085213325,45.8684975306369,0 33.5831695618389,45.8700564646,0 33.5846715988872,45.8715553980629,0 33.5857873978374,45.8733840417882,0 33.5879706522621,45.8764294382821,0 33.5899018427528,45.8787674868346,0 33.5916613718666,45.8804460247318,0 33.5949957983612,45.8830378150604,0 33.5973561422943,45.8845663673234,0 33.599458994162,45.8854954666411,0 33.6027634756684,45.8866643113097,0 33.6054671423554,45.8872337394885,0 33.6067116873383,45.8876533143871,0 33.6078704016327,45.8877731923437,0 33.6106005820307,45.889069037291,0 33.6136046561274,45.8900879654824,0 33.6162654074702,45.8901179336738,0 33.6189261588129,45.8893986925882,0 33.6210290106806,45.8882299058306,0 33.6221018942866,45.8867314250583,0 33.6223164710078,45.8857124348929,0 33.6239472540888,45.884333771194,0 33.6273804816279,45.8828651567656,0 33.6321870001826,45.8814264761724,0 33.6348048361811,45.8800477054176,0 33.6373793952891,45.8775998512345,0 33.6404693000742,45.8741226439756,0 33.6425721519419,45.8736729891157,0 33.6457908027598,45.8737629203806,0 33.6493098609873,45.8740626902059,0 33.6523997657725,45.8739727594292,0 33.6545884483286,45.8734931261464,0 33.6566913001963,45.8725338470816,0 33.6596095436045,45.8708250899656,0 33.6578500144907,45.8704353660252,0 33.6563908927866,45.8704053871466,0 33.6564338081309,45.8691762391121,0 33.6576354377696,45.8669876883054,0 33.659695374293,45.8639895327206,0 33.6614549034068,45.8626103264992,0 33.6641585700938,45.8611711180727,0 33.6680209510752,45.8596119332946,0 33.671582924647,45.8579027763437,0 33.675187813563,45.8551740126651,0 33.676260697169,45.8540045012586,0 33.6752736442515,45.8540344890398,0 33.6742007606455,45.8539745134612,0 33.6728596561381,45.852122735435,0 33.6723768585154,45.8488463607447,0 33.671947705073,45.8478641602351,0 33.687901231257,45.8342605727891,0 33.7227204801231,45.836545516708,0 33.7232354642539,45.8207046927445,0 33.7084725858359,45.8196244713287,0 33.7098458768516,45.7750769865237,0 33.7319883443466,45.7742419008014,0 33.7341448403945,45.7736262608357,0 33.7341891743675,45.7695403126307,0 33.7434908568095,45.7489917142975,0 33.7208315550517,45.7426218648359,0 33.7032296460839,45.7340483654755,0 33.7037446302147,45.7202223416699,0 33.7150742810936,45.7045887756475,0 33.7133576673241,45.7037468433545,0 33.6949898999901,45.704829325387,0 33.6960198682519,45.7208235447653,0 33.6563660901757,45.7210640241803,0 33.6575677198144,45.7479911260154,0 33.6043526929589,45.7479911260154,0 33.6005336146455,45.6993431681738,0 33.6030766942203,45.6669300373238,0 33.5988441845402,45.6283725110959,0 33.5777298351749,45.6281316304213,0 33.5754982372745,45.6041587935817,0 33.573871574898,45.5872763067309,0 33.5400542836383,45.572690399215,0 33.5330161671832,45.5724492777924,0 33.5280379872516,45.5585830434236,0 33.537479362984,45.5582212694602,0 33.5354194264605,45.5252900241766,0 33.5386809926227,45.5188945281375,0 33.5255499571841,45.4778787271939,0 33.6472578734439,45.4724440313432,0 33.6507762698571,45.4406028740195,0 33.6405195025841,45.4394397235401,0 33.6416750949578,45.433273480947,0 33.6107424676975,45.4345441370677,0 33.6075669293445,45.4352316972035,0 33.6088649213871,45.4272014956551,0 33.5971919477543,45.4265971202011,0 33.5987182485168,45.4110540072336,0 33.5976882802551,45.4027106493612,0 33.5743423329894,45.4025292582394,0 </coordinates>
          </LinearRing>
        </outerBoundaryIs>
      </Polygon>
    </Placemark>
  </Document>
</kml>