<?xml version="1.0" encoding="UTF-8"?>
<kml xmlns="http://earth.google.com/kml/2.2">
  <Document>
    <Placemark>
      <name>Саки</name>
      <description>15.08.2018 11:04:31</description>
      <Style>
        <LineStyle>
          <color>A6000000</color>
          <width>1</width>
        </LineStyle>
        <PolyStyle>
          <color>80008000</color>
          <fill>1</fill>
        </PolyStyle>
      </Style>
      <Polygon>
        <extrude>1</extrude>
        <outerBoundaryIs>
          <LinearRing>
            <coordinates>33.547648241174,45.1004231317706,0 33.5380884506122,45.1100683693945,0 33.529591212453,45.1186982025506,0 33.5195490219012,45.1277520375334,0 33.5016802273362,45.1420318806946,0 33.5019591770738,45.1424722717138,0 33.5048452339738,45.1448639907196,0 33.5056284390061,45.1454258402149,0 33.5094264469712,45.1427380232582,0 33.5104993305772,45.1447045459284,0 33.509029480037,45.1459193520647,0 33.5103598557084,45.1471493167263,0 33.5114434681504,45.1464432291683,0 33.5150376282304,45.1450006573261,0 33.5167005978196,45.1439984278854,0 33.5177842102616,45.143444157017,0 33.5189643822282,45.1429354378839,0 33.5204556904405,45.1425406079443,0 33.5215714893907,45.1423204131285,0 33.5232988319963,45.142062252599,0 33.5294464550584,45.1420546596244,0 33.530272575435,45.1422292977819,0 33.5530339232875,45.1425141888814,0 33.5844803353666,45.1460265053854,0 33.5881174107908,45.1461555767616,0 33.5936105748533,45.1457379918337,0 33.5939968129514,45.1482738237823,0 33.596078207147,45.1478182934768,0 33.6066353818296,45.147172952604,0 33.6078262826322,45.1469148141955,0 33.6132979890226,45.1469299988403,0 33.6135340234159,45.1464364957986,0 33.6127400895475,45.1458442864711,0 33.6123109361051,45.1431716750282,0 33.6171174546598,45.1428072182405,0 33.6250138779996,45.1440220650783,0 33.6301637193082,45.1446294787245,0 33.6294770738004,45.1358820936334,0 33.6224389573454,45.1340595516922,0 33.6220956345914,45.1287130903936,0 33.6118066808103,45.1323736481913,0 33.6107767125486,45.1279991781183,0 33.6131799718259,45.1277561420999,0 33.6131799718259,45.1265409463715,0 33.6169350644467,45.1258573873217,0 33.6170208951352,45.1254928191235,0 33.6162269612668,45.1219077735771,0 33.6170423528073,45.1214216482455,0 33.6195743581174,45.1210874346612,0 33.6221492787717,45.120601302293,0 33.6244237920163,45.1208747522632,0 33.6269128819822,45.1218470081387,0 33.6282861729978,45.1219381562719,0 33.6301315328,45.1223635122885,0 33.6281145116208,45.12148241414,0 33.6268260015424,45.1202670724736,0 33.6299598714231,45.1203886180708,0 33.6306465169309,45.1187478843866,0 33.6294878026364,45.1182921166007,0 33.625625421655,45.1181098084601,0 33.623822977197,45.1178363451499,0 33.6199176808713,45.1182617319513,0 33.6157548924802,45.1177755753463,0 33.613566209924,45.1182009626037,0 33.6122787495969,45.1179578845618,0 33.6105621358274,45.1161955375822,0 33.6067426701902,45.1152535710373,0 33.6061418553708,45.1141596547608,0 33.6032236119626,45.1148281616604,0 33.5991037389157,45.1149193210813,0 33.598245432031,45.1153447297741,0 33.5938680669187,45.1156789772217,0 33.5885036488889,45.1160132226984,0 33.5849416753171,45.1158309072281,0 33.5772169133542,45.1163474662042,0 33.5635269185422,45.1157397492731,0 33.5627544423459,45.1138861723933,0 33.5629690190671,45.1129745549729,0 33.5603511830686,45.1130961048093,0 33.559707452905,45.1127922297297,0 33.5600936910031,45.1105435035168,0 33.5600078603147,45.1067447769225,0 33.5532701512693,45.1023987215809,0 33.547648241174,45.1004231317706,0 </coordinates>
          </LinearRing>
        </outerBoundaryIs>
      </Polygon>
    </Placemark>
  </Document>
</kml>