<?xml version="1.0" encoding="UTF-8"?>
<kml xmlns="http://earth.google.com/kml/2.2">
  <Document>
    <Placemark>
      <name>Сакский</name>
      <description>15.08.2018 1:27:08</description>
      <Style>
        <LineStyle>
          <color>A6000000</color>
          <width>1</width>
        </LineStyle>
        <PolyStyle>
          <color>3300FFFF</color>
          <fill>1</fill>
        </PolyStyle>
      </Style>
      <Polygon>
        <extrude>1</extrude>
        <outerBoundaryIs>
          <LinearRing>
            <coordinates>33.604679785414,44.9897041701089,0 33.604679785414,44.9897041701089,0 33.603122255812,45.0004875102856,0 33.6006331658461,45.0090122359091,0 33.5970522960247,45.0175689828124,0 33.5920741160931,45.028464953968,0 33.5887037639158,45.0349485139028,0 33.5875021342772,45.0410340455969,0 33.5831907723661,45.0493827985287,0 33.5808733437773,45.0540066874256,0 33.5699607269551,45.0720215625358,0 33.5697890655782,45.0734811966814,0 33.56421356405,45.0815147768241,0 33.5583770772336,45.0883249426247,0 33.547648241174,45.1004231317706,0 33.5532701512693,45.1023987215809,0 33.5600078603147,45.1067447769225,0 33.5600936910031,45.1105435035168,0 33.559707452905,45.1127922297297,0 33.5603511830686,45.1130961048093,0 33.5629690190671,45.1129745549729,0 33.5627544423459,45.1138861723933,0 33.5635269185422,45.1157397492731,0 33.5772169133542,45.1163474662042,0 33.5849416753171,45.1158309072281,0 33.5885036488889,45.1160132226984,0 33.5938680669187,45.1156789772217,0 33.598245432031,45.1153447297741,0 33.5991037389157,45.1149193210813,0 33.6032236119626,45.1148281616604,0 33.6061418553708,45.1141596547608,0 33.6067426701902,45.1152535710373,0 33.6105621358274,45.1161955375822,0 33.6122787495969,45.1179578845618,0 33.613566209924,45.1182009626037,0 33.6157548924802,45.1177755753463,0 33.6199176808713,45.1182617319513,0 33.623822977197,45.1178363451499,0 33.625625421655,45.1181098084601,0 33.6294878026364,45.1182921166007,0 33.6306465169309,45.1187478843866,0 33.6299598714231,45.1203886180708,0 33.6268270512937,45.1202670838711,0 33.6281145116208,45.12148241414,0 33.6301315328,45.1223635122885,0 33.6282861729978,45.1219381562719,0 33.6269128819822,45.1218470081387,0 33.6244237920163,45.1208747522632,0 33.6221492787717,45.120601302293,0 33.6195743581174,45.1210874346612,0 33.6170423528073,45.1214216482455,0 33.6162269612668,45.1219077735771,0 33.6170208951352,45.1254928191235,0 33.6169350644467,45.1258573873217,0 33.6131799718259,45.1265409463715,0 33.6131799718259,45.1277561420999,0 33.6107767125486,45.1279991781183,0 33.6118066808103,45.1323736481913,0 33.6220956345914,45.1287130903936,0 33.6224389573454,45.1340595516922,0 33.6294770738004,45.1358820936334,0 33.6301637193082,45.1446294787245,0 33.6250138779996,45.1440220650783,0 33.6171174546598,45.1428072182405,0 33.6123109361051,45.1431716750282,0 33.6127400895475,45.1458442864711,0 33.6135340234159,45.1464364957986,0 33.6132979890226,45.1469299988403,0 33.6078262826322,45.1469148141955,0 33.6066353818296,45.147172952604,0 33.596078207147,45.1478182934768,0 33.5939968129514,45.1482738237823,0 33.5936105748533,45.1457379918337,0 33.5881174107908,45.1461555767616,0 33.5844803353666,45.1460265053854,0 33.5530339232875,45.1425141888814,0 33.530272575435,45.1422292977819,0 33.5294464550584,45.1420546596244,0 33.5232988319963,45.142062252599,0 33.5215714893907,45.1423204131285,0 33.5204556904405,45.1425406079443,0 33.5189643822282,45.1429354378839,0 33.5177842102616,45.143444157017,0 33.5167005978196,45.1439984278854,0 33.5150376282304,45.1450006573261,0 33.5137501679032,45.1455321354383,0 33.5114434681504,45.1464432291683,0 33.5103598557084,45.1471493167263,0 33.509029480037,45.1459193520647,0 33.5104993305772,45.1447045459284,0 33.5094264469712,45.1427380232582,0 33.5056284390061,45.1454258402149,0 33.5048452339738,45.1448639907196,0 33.5019591770738,45.1424722717138,0 33.5016802273362,45.1420318806946,0 33.4887304642146,45.1514713437592,0 33.4922227003519,45.1547280947304,0 33.4923407175486,45.1547850292699,0 33.4925123789256,45.154804007437,0 33.4926250317042,45.1547774380013,0 33.4927859642451,45.1547015252591,0 33.4929629900401,45.1548951025505,0 33.4927162268107,45.1552139342933,0 33.4762857344238,45.1629203455156,0 33.4675760418319,45.1676186802997,0 33.4569336712764,45.173730836907,0 33.4553102697107,45.174799320738,0 33.4493664945337,45.178115434627,0 33.4482024158212,45.1791094720847,0 33.4484438146325,45.1793181418516,0 33.448352619526,45.1793712576693,0 33.4481326783868,45.1791701760963,0 33.447800084469,45.1794319614,0 33.4480629409524,45.1797089213442,0 33.4484062637063,45.1795799264704,0 33.4484760011407,45.1796482179108,0 33.4481058562967,45.1797620367949,0 33.4496503648007,45.1817308216655,0 33.4523984648934,45.1827143567375,0 33.4530153729668,45.1829040444666,0 33.4532728650323,45.1828585194696,0 33.4532996871224,45.1829306006979,0 33.4519371249428,45.183184781138,0 33.447450305762,45.1847061836375,0 33.4463827865741,45.1851727978735,0 33.4460501926562,45.1854421425497,0 33.4415708470208,45.1871121561561,0 33.432093787418,45.1930128491538,0 33.4314983370167,45.1925880237132,0 33.4317182781559,45.1921252637971,0 33.4317056656635,45.1918043814853,0 33.4323777499559,45.1890591502684,0 33.4308864417436,45.1890705302731,0 33.4304358306291,45.1893929627893,0 33.4243325276278,45.1925819559013,0 33.4244398159884,45.1926502316412,0 33.4243325276278,45.1927260934777,0 33.4242091460131,45.1926691971099,0 33.4229753298662,45.1936667717928,0 33.4231630844973,45.1937957345353,0 33.4230772538088,45.193875387847,0 33.4228787703417,45.1937502183069,0 33.421757928181,45.1946804505259,0 33.421940318394,45.1948359615962,0 33.4218759453776,45.1948890628393,0 33.4216720974925,45.1947487237314,0 33.4202337589563,45.195842744912,0 33.4201050129236,45.195990667045,0 33.4198636141122,45.1964268454399,0 33.4186553526805,45.1974401489123,0 33.4186178017543,45.1976146162003,0 33.4184890557216,45.1977321916776,0 33.4183281231807,45.1976980568868,0 33.4178618352812,45.1981429631829,0 33.4165475528639,45.1995955585088,0 33.4161107865972,45.2004167230817,0 33.416073235671,45.2006746174746,0 33.4157996503515,45.2013307258456,0 33.4156449542406,45.2013561208519,0 33.4155752168062,45.2014395560152,0 33.4152211652162,45.201583671007,0 33.4148563847902,45.2016557283651,0 33.4145720706346,45.2018832773138,0 33.4145613417986,45.2020691082757,0 33.4144111380937,45.2020994479665,0 33.4141751037004,45.2022890706654,0 33.4140463576677,45.2022814857696,0 33.4139390693071,45.2023383724628,0 33.4139497981432,45.2024331834909,0 33.4136382753792,45.2026654554765,0 33.4135256226006,45.2026464933615,0 33.4132949526253,45.2028285294026,0 33.413246672863,45.2029612636462,0 33.4130803759041,45.2030484888365,0 33.4129194433632,45.2030636584211,0 33.4107453744547,45.2046989421921,0 33.4098717581274,45.2054667924261,0 33.4097215544225,45.2056677804902,0 33.4095767151357,45.2057208715576,0 33.4095069777013,45.2058611834242,0 33.4095713507177,45.2059635729448,0 33.4095659862997,45.2060356247185,0 33.4094747911932,45.2060925076328,0 33.4097054611684,45.2064375960855,0 33.4106932831281,45.2073563108387,0 33.4107040119642,45.2075004107425,0 33.4112204176424,45.2080102137792,0 33.4115637403963,45.2087307012852,0 33.4114306365647,45.209078372464,0 33.4113984500565,45.2098329738322,0 33.4111892377533,45.2099277722865,0 33.411124864737,45.2100263625103,0 33.4112375175156,45.2102993806936,0 33.4111730698114,45.2104385463544,0 33.4109853151804,45.2104650896532,0 33.4108672979837,45.2104157949456,0 33.4106795433527,45.2105674708315,0 33.4104059580332,45.2106243491838,0 33.4102611187464,45.2105636789393,0 33.4101270082956,45.2106698518243,0 33.410025084353,45.2108746132534,0 33.4098158720499,45.2110793739404,0 33.409654939509,45.211371346229,0 33.4096817615991,45.21157989694,0 33.4098909739023,45.2116746924632,0 33.4097836855417,45.2118832420544,0 33.409837329722,45.2120121632349,0 33.4097562563606,45.2123354137356,0 33.4095738661476,45.2125970454947,0 33.4098420870491,45.2132113066019,0 33.4101693165489,45.2135260180385,0 33.4103399880637,45.2142284958617,0 33.4102541573752,45.2144294527605,0 33.4099591143836,45.2145811178713,0 33.4096426137198,45.21464557542,0 33.4090053100008,45.2144747498823,0 33.4086137074846,45.2144747498823,0 33.4081738252062,45.2145998735277,0 33.4070419330019,45.2152937359862,0 33.4067576188463,45.2153581927218,0 33.4054272431749,45.2157638893109,0 33.4051590222734,45.2159420915645,0 33.4042727754451,45.2171602965274,0 33.404063563142,45.2178010478696,0 33.4037953422405,45.218161230344,0 33.4034466550685,45.2182939285714,0 33.4028421956864,45.218289221766,0 33.4026651698914,45.2183612578221,0 33.4025525171128,45.218687314611,0 33.4023433048096,45.2191498570593,0 33.4023164827195,45.2196692649658,0 33.4021938200339,45.2198211615328,0 33.4019685144766,45.2199159432273,0 33.4018665905341,45.2200220985363,0 33.4014113139238,45.221903440775,0 33.4008802365389,45.2224834808677,0 33.4003330658998,45.2230066491749,0 33.4004934757767,45.2234937651187,0 33.4002306192932,45.2239676411844,0 33.400187703949,45.2243543211078,0 33.4004022806702,45.2247409983836,0 33.4004099926913,45.2252156720925,0 33.4001632294619,45.2257501877092,0 33.3997501692736,45.2259056132866,0 33.3988918623888,45.2259018224239,0 33.3981904199036,45.2259799771555,0 33.3977988173874,45.2261960556214,0 33.3974876811417,45.2262642907547,0 33.3970907142075,45.2266357917002,0 33.3971443583878,45.2269504283446,0 33.3969834258469,45.2277010002481,0 33.3969809779451,45.2280153195235,0 33.3971901902483,45.2285270645252,0 33.3973501364787,45.2294013307712,0 33.3973286788065,45.2296363492085,0 33.397061505812,45.2301844886611,0 33.3969971327957,45.2306696802106,0 33.397056141394,45.2310259900994,0 33.3969220309433,45.2317082793556,0 33.396347054858,45.2322224100038,0 33.3961968511531,45.2325825005078,0 33.3962236732433,45.2328895232289,0 33.3964543432186,45.2330676714497,0 33.3966742843578,45.2331548501614,0 33.394862657183,45.2357038753494,0 33.3936094129435,45.2355866357891,0 33.3927511060587,45.2352568863323,0 33.3923058593623,45.235200032783,0 33.3916031206004,45.235245515627,0 33.3912919843546,45.2353364812051,0 33.3908735597483,45.2353289007459,0 33.3905999744288,45.2353819639392,0 33.3902924638847,45.2355599923011,0 33.38981503068,45.2357532929025,0 33.3890157323936,45.2358707890231,0 33.3885114770988,45.2362346464257,0 33.3884739261726,45.2368410702182,0 33.3883344513038,45.2371708104211,0 33.3882808071235,45.2375081288654,0 33.3881466966728,45.2376597320041,0 33.3881306034187,45.2380576883058,0 33.3883880954841,45.2381789696684,0 33.3884685617545,45.2382888806783,0 33.3883231939334,45.2386383555503,0 33.388076430704,45.2388430155933,0 33.3878350318927,45.2392561234193,0 33.3879047693271,45.2392788632118,0 33.38770628586,45.2395365802203,0 33.3870357336063,45.2391575842124,0 33.3865314783115,45.238683835624,0 33.3848953308124,45.2389984051303,0 33.3844500841159,45.2398814643758,0 33.3849704326648,45.2399269434478,0 33.3853298486728,45.2400444308809,0 33.3857053579349,45.2400595905319,0 33.3863973678607,45.2401657079748,0 33.3866870464343,45.2403021443938,0 33.3869552673358,45.2404878489898,0 33.3870303691882,45.240590175751,0 33.3869606317538,45.2406849225866,0 33.3843195240517,45.2402093385911,0 33.3817195953387,45.239654068466,0 33.381767875101,45.2395858495144,0 33.3809578479785,45.2393205528077,0 33.3798455994148,45.2409673139375,0 33.3875763432613,45.2432298804289,0 33.3835954346596,45.2457360680502,0 33.3832066061793,45.2471552748497,0 33.3827184441386,45.246980960536,0 33.3807926180659,45.2464314879796,0 33.3800469639597,45.2464921196967,0 33.378839969903,45.2461283284167,0 33.3739719893674,45.2461219628584,0 33.373537471507,45.2451101559146,0 33.3721802737455,45.2453830045173,0 33.3726201560239,45.2464061750283,0 33.3690879511871,45.2474296546764,0 33.3688391000981,45.2485277614208,0 33.3667523414845,45.2485770228659,0 33.3604866367421,45.2505361775108,0 33.3604490858159,45.249293303369,0 33.3609669036792,45.2459566471796,0 33.3574478454516,45.2459111729664,0 33.3572493619845,45.2458846463251,0 33.3569543189929,45.2458012767998,0 33.3572225398944,45.2431333869562,0 33.3429295285398,45.2430703979808,0 33.3430270656568,45.2358654315854,0 33.3356134399396,45.2358426904177,0 33.3456985458356,45.2270639154121,0 33.3442179664594,45.2225451191781,0 33.3414284690839,45.2225906122171,0 33.3373729690534,45.2246074334549,0 33.3365146621686,45.224789398746,0 33.3352486595136,45.2243496482889,0 33.3328454002362,45.2215897568936,0 33.322889040373,45.221362287301,0 33.3209039948628,45.2095827778191,0 33.3213025025956,45.2056819501417,0 33.3208089761368,45.2021171509736,0 33.3189421586625,45.200615317196,0 33.3199077539078,45.1991134435102,0 33.3212381295792,45.1989920782373,0 33.3211093835465,45.1949110192328,0 33.3114963464371,45.1840925116974,0 33.3094793252579,45.1855947844665,0 33.3072477273575,45.1847601934106,0 33.3068185739151,45.1865052333886,0 33.3056598596207,45.1865507554499,0 33.3060460977188,45.1849574614991,0 33.3046084336869,45.1846843208857,0 33.2960302380046,45.1810965363197,0 33.2944638279399,45.180049418653,0 33.2914382961711,45.1765133563141,0 33.2606272438006,45.1746678973897,0 33.2606165149646,45.1737117255376,0 33.2610349395709,45.1706609739734,0 33.2613031604724,45.1681792711425,0 33.2613568046527,45.1653479854853,0 33.2612066009479,45.1625624414338,0 33.2602839210467,45.1627370163415,0 33.2585887649493,45.1626611142739,0 33.2586585023837,45.1621639532137,0 33.2582400777774,45.1608546150212,0 33.2583688238101,45.1608356388826,0 33.2580415943103,45.1599266743962,0 33.2579638102489,45.1599304696853,0 33.2575912081656,45.1590392324619,0 33.2575482928213,45.1588352320963,0 33.2553769354753,45.1591127675984,0 33.2542888534069,45.1592817242512,0 33.253678658077,45.159321758398,0 33.2535445476263,45.1592724190884,0 33.2533822739809,45.1592430052487,0 33.2521732551532,45.1595293041829,0 33.2512818146482,45.159643403094,0 33.2504530120626,45.1597743410785,0 33.2497046757474,45.159916664631,0 33.249193872201,45.1599918801641,0 33.2425728436935,45.1613671952878,0 33.2416181722194,45.1624993404333,0 33.2402019658596,45.1642222972214,0 33.2377841212546,45.166855528047,0 33.2366254069602,45.1680470904389,0 33.2341183772168,45.1701275478456,0 33.2317473044476,45.1718426833999,0 33.2294877873716,45.1734130605085,0 33.2264407979306,45.175082565205,0 33.2226360255399,45.1768000289647,0 33.2208228522458,45.1773312085444,0 33.2170641950903,45.1786570844531,0 33.2127082876501,45.1803795492551,0 33.2089961103735,45.1818819206563,0 33.2076768082178,45.1824508278034,0 33.2053915661371,45.1830881790205,0 33.2031599682367,45.1835813625328,0 33.2005225718551,45.1840399900432,0 33.197979837709,45.1843434829901,0 33.1954263747268,45.1843510702929,0 33.1914623490683,45.1843032808119,0 33.1885977498404,45.1841135977761,0 33.1874175778738,45.1840756610926,0 33.1864412537924,45.1841591217627,0 33.1856365910879,45.1843791538481,0 33.1846920495043,45.1848287502549,0 33.1834904198656,45.1857695599664,0 33.1815977126267,45.1872642850187,0 33.1801600485947,45.188053318302,0 33.1771149128755,45.1895488006742,0 33.1763424366792,45.1902315909923,0 33.1754412144502,45.1908005766253,0 33.1728770226319,45.1920068072301,0 33.1708086313027,45.1931141749967,0 33.1698001207131,45.1934252053269,0 33.1671500982064,45.1938500244765,0 33.1663239778298,45.1940700188529,0 33.1658733667153,45.1942975983414,0 33.1648541272896,45.1950258465479,0 33.1630624116677,45.1963912866489,0 33.1600837442095,45.1983934381558,0 33.1585173341448,45.1992202426748,0 33.1554758192469,45.2006095500708,0 33.1532764078546,45.2014590771968,0 33.1513487779445,45.2020663171476,0 33.1493210279293,45.2030068400369,0 33.1478498162477,45.2043414978004,0 33.1461010159699,45.206063180261,0 33.1447491826264,45.2075345325116,0 33.144137638971,45.2084522121961,0 33.1435852065211,45.2095318677868,0 33.1433491721277,45.2109727948059,0 33.1424603140056,45.2128191956368,0 33.1410655653179,45.2152155250826,0 33.1402144101806,45.2162429349629,0 33.1384119657226,45.2181386587211,0 33.1369957593627,45.2192078188605,0 33.13440894367,45.2211081295333,0 33.130869935015,45.2230878893592,0 33.1263960103782,45.2254458742738,0 33.1230526039494,45.2275161264091,0 33.1218080589665,45.2279634336574,0 33.1183748314274,45.2289414320769,0 33.1158857414616,45.229396309291,0 33.1126191317442,45.23124122142,0 33.1084992586973,45.2338793507896,0 33.106825560272,45.2367902470293,0 33.1046612801956,45.2392681414202,0 33.1024296822952,45.241329844931,0 33.1007988992141,45.2444828928659,0 33.0989106240676,45.2470294568279,0 33.0946190896438,45.2492121344715,0 33.0931599679397,45.2516372328296,0 33.0907567086624,45.2544259670808,0 33.0874951425003,45.2572751836112,0 33.0813333061417,45.2608304555431,0 33.0779735519622,45.2639136974962,0 33.0726668142174,45.2695482692783,0 33.0690833829735,45.2729724555116,0 33.0662080549095,45.2751086787438,0 33.0620881818627,45.2779417009991,0 33.0579897664879,45.2800019913925,0 33.0543419622277,45.2821682449222,0 33.0532261632775,45.2825318037887,0 33.0494925283287,45.2843798584318,0 33.0446645521019,45.2875002065865,0 33.042883565316,45.2884998932353,0 33.0379697584007,45.2914685551053,0 33.0351158880089,45.2930436999281,0 33.0317470334862,45.2948914098399,0 33.0273482107018,45.2979505995714,0 33.023249795327,45.3009339067674,0 33.0184861921166,45.3048104556698,0 33.0137655042504,45.3087321613403,0 33.0068990491722,45.313440875612,0 33.0010411046837,45.3173468413337,0 32.9984965655219,45.3191353598473,0 33.0005109044921,45.3207996126299,0 32.9992970873246,45.3215611648657,0 32.9997859199176,45.3219476490488,0 32.9965566015093,45.3237664362695,0 32.9968140935747,45.3239934930647,0 32.9934666967241,45.3260823725981,0 32.9931233739702,45.3258704608171,0 32.9914925908892,45.3267332395072,0 32.9906128263323,45.3268089212174,0 32.9883383130877,45.3259158705516,0 32.984969458565,45.3265818757815,0 32.9960605674703,45.3331820467679,0 33.0180734568556,45.3485188905638,0 33.0238267951925,45.3525207630546,0 33.0300743335646,45.3562299126993,0 33.0431849712294,45.3616758786745,0 33.0586344951552,45.374048362024,0 33.0680275911254,45.3795644316358,0 33.0687571519774,45.3800029718425,0 33.0751086229247,45.3827551115195,0 33.0773616784972,45.3835262913056,0 33.079679107086,45.3834053226277,0 33.0877257341307,45.3777951139604,0 33.0922103876036,45.3773111883092,0 33.0955363267821,45.378281197822,0 33.1033254617613,45.3864618640393,0 33.113346194641,45.3939912576768,0 33.119483088867,45.3976346378431,0 33.130469416992,45.4030312436036,0 33.1403184884947,45.4097422646427,0 33.1473656316716,45.4127676939541,0 33.1502682457471,45.4140672706036,0 33.1594092140698,45.4221671698755,0 33.1652457008862,45.4352816902855,0 33.1682497749829,45.4360672554193,0 33.1792361031079,45.4337709571655,0 33.1850296745801,45.4365506746455,0 33.1888491402173,45.4442848153202,0 33.1918961296582,45.4448285819301,0 33.1989771614575,45.4437410434344,0 33.2055861244702,45.4465202665316,0 33.2103068123364,45.4513835753058,0 33.2132250557446,45.45201788881,0 33.219233203938,45.451021107222,0 33.2222372780347,45.4512325472225,0 33.2252842674756,45.4530448573535,0 33.2270437965894,45.4592666759934,0 33.2287604103589,45.4618035299186,0 33.231292415669,45.4629511165678,0 33.2336098442578,45.4619847293738,0 33.2388884315991,45.4632531091464,0 33.2518488655591,45.468718893348,0 33.2546812782788,45.4705910282557,0 33.2551104317212,45.4721007688778,0 33.2542950401807,45.4740935641658,0 33.2508618126416,45.4763882102682,0 33.2536083946729,45.4784412349521,0 33.2816717507065,45.4677030561599,0 33.3335134865463,45.4683069884412,0 33.3342001320541,45.4790558932269,0 33.3740255715072,45.4783313128336,0 33.3739017504894,45.4914855718059,0 33.3660053271496,45.5022300260562,0 33.3606624431677,45.5155173050697,0 33.3601474590368,45.5262571431405,0 33.3928489513464,45.5252918488465,0 33.3913898296423,45.5068273867486,0 33.4476186403607,45.5030424191576,0 33.4477044710492,45.5097414705435,0 33.4636689791058,45.5087155417407,0 33.4580901013634,45.4637388222281,0 33.442898069503,45.4651883513671,0 33.4411814557335,45.4560073665236,0 33.4294226514122,45.4557657413372,0 33.430486210568,45.4320250414189,0 33.5025037642837,45.4325369214372,0 33.5065378066421,45.4475219227137,0 33.5514272567153,45.4444406569199,0 33.5513414260268,45.4338059679265,0 33.5772611543507,45.4334256257549,0 33.5771753236622,45.4194039941869,0 33.5746862336964,45.4187995346999,0 33.5743423329894,45.4025292582394,0 33.5976882802551,45.4027106493612,0 33.5987182485168,45.4110540072336,0 33.5971919477543,45.4265971202011,0 33.6088649213871,45.4272014956551,0 33.6076525629124,45.435178641186,0 33.6107424676975,45.4345441370677,0 33.6416750949578,45.433273480947,0 33.6405195025841,45.4394397235401,0 33.6507762698571,45.4406028740195,0 33.650347778229,45.4433292368731,0 33.6778135985415,45.4455043087429,0 33.6815901488345,45.4329360616753,0 33.6846800536197,45.4332986467363,0 33.7035628050845,45.4307605020657,0 33.7063093871158,45.4158919187262,0 33.7317152709048,45.4172217899296,0 33.7377234190982,45.4388579907044,0 33.8166876524966,45.4401873173637,0 33.8163443297427,45.423870673049,0 33.80072314444,45.4236289092901,0 33.8014097899478,45.3979960405169,0 33.9032908171695,45.3980867434763,0 33.914586242212,45.3707314401056,0 33.917726226448,45.3553974094469,0 33.9161822278564,45.3441525268717,0 33.9146372754638,45.334891184815,0 33.8902613599365,45.3343463524994,0 33.8895747144286,45.3330750565763,0 33.8835718635957,45.2893917643402,0 33.9127542976778,45.2895129353563,0 33.9201765837683,45.2761075358472,0 33.9333409612375,45.2443423322169,0 33.9465325474982,45.2092917046392,0 33.9550790458636,45.1909180467412,0 33.8950176309025,45.190340225457,0 33.8960756519723,45.1627958808761,0 33.9137567737985,45.1603366046594,0 33.913357591905,45.1319048821299,0 33.8978222372907,45.1317833726276,0 33.8969933046233,45.105536198516,0 33.8781196742221,45.104833568367,0 33.8733989863559,45.1054414022113,0 33.863142219083,45.104833568367,0 33.8594085841342,45.1026453125806,0 33.8464462886306,45.1024099776505,0 33.8454610972568,45.0940130357883,0 33.7728415884095,45.0944965522129,0 33.7708142867698,45.076627669615,0 33.7965442815136,45.0758978976849,0 33.7996971351943,45.0596492199696,0 33.7968863288983,45.0435082427437,0 33.7855995933637,45.0458508967365,0 33.7853850166425,45.0408916578813,0 33.7060424932152,45.0409150749635,0 33.7058708318382,45.0389373444908,0 33.672183720227,45.0370253695051,0 33.67272016203,45.0244723612325,0 33.6757456937988,45.0195264757564,0 33.6810242811401,45.0194960382065,0 33.6813512362683,44.9875647717068,0 33.6598077334606,44.9876713628538,0 33.6588421382153,44.9917521309888,0 33.604679785414,44.9897041701089,0 </coordinates>
          </LinearRing>
        </outerBoundaryIs>
      </Polygon>
    </Placemark>
  </Document>
</kml>