<?xml version="1.0" encoding="UTF-8"?>
<kml xmlns="http://earth.google.com/kml/2.2">
  <Document>
    <Placemark>
      <name>Симферопольский р-н</name>
      <description>14.08.2018 13:01:51</description>
      <Style>
        <LineStyle>
          <color>A6000000</color>
          <width>1</width>
        </LineStyle>
        <PolyStyle>
          <color>800000FF</color>
          <fill>1</fill>
        </PolyStyle>
      </Style>
      <Polygon>
        <extrude>1</extrude>
        <outerBoundaryIs>
          <LinearRing>
            <coordinates>33.604679785414,44.9897041701089,0 33.6588421382153,44.9917521309888,0 33.6598077334606,44.9876713628538,0 33.6813512362683,44.9875647717068,0 33.6810242811401,45.0194960382065,0 33.6757456937988,45.0195264757564,0 33.67272016203,45.0244723612325,0 33.672183720227,45.0370253695051,0 33.7058708318382,45.0389373444908,0 33.7060424932152,45.0409150749635,0 33.7853850166425,45.0408916578813,0 33.7855995933637,45.0458508967365,0 33.7968863288983,45.0435082427437,0 33.7996971351943,45.0596492199696,0 33.7965442815136,45.0758978976849,0 33.7708142867698,45.076627669615,0 33.7728415884095,45.0944965522129,0 33.8454610972568,45.0940130357883,0 33.846576896207,45.1022805950735,0 33.8594085841342,45.1026453125806,0 33.863142219083,45.104833568367,0 33.8733989863559,45.1054414022113,0 33.8781196742221,45.104833568367,0 33.8969933046233,45.105536198516,0 33.8978222372907,45.1317833726276,0 33.913357591905,45.1319048821299,0 33.9137567737985,45.1603366046594,0 33.8960756519723,45.1627958808761,0 33.8950176309025,45.190340225457,0 33.9550790458636,45.1909180467412,0 33.9495366215949,45.2037703153888,0 33.9465325474982,45.2092917046392,0 33.939008892877,45.2295239630251,0 33.9333409612375,45.2443423322169,0 33.9792603795724,45.2444939169994,0 33.9730805700021,45.235580039878,0 33.9732472983222,45.1906469472161,0 33.9986832925621,45.1904047168862,0 34.0004307394792,45.2174041294445,0 34.0169960623551,45.2172828034519,0 34.0198164291749,45.2329312564768,0 34.0669402205751,45.2320822025407,0 34.0679405644815,45.2477970533123,0 34.0968177529646,45.2477993275781,0 34.0845716453616,45.2274229993276,0 34.189637087215,45.225165132962,0 34.1895832562849,45.1867007999006,0 34.1907848859236,45.1845460545307,0 34.1946687245771,45.1826340286217,0 34.1954626584455,45.1811316771997,0 34.1933383489058,45.179659637604,0 34.1919650578901,45.1784303793089,0 34.1919221425459,45.1768975630223,0 34.1927589917585,45.176244965264,0 34.1949476743147,45.176244965264,0 34.1962351346418,45.1756075369293,0 34.1970719838545,45.1743630132887,0 34.1970505261824,45.1725417098288,0 34.1956772351667,45.1716006800674,0 34.1956772351667,45.1700676787122,0 34.2034826432052,45.1508941503324,0 34.2117551182807,45.1550237012761,0 34.226066246181,45.1413929540267,0 34.2516234741799,45.1465005908201,0 34.2787074599749,45.1129551324322,0 34.2789864097124,45.106541322544,0 34.270274594832,45.1066780816083,0 34.2660284015673,45.107649781001,0 34.2640972110766,45.1072395098495,0 34.266326148818,45.0932535476509,0 34.263987262557,45.095305379644,0 34.2613050535421,45.0961564881745,0 34.2604252889853,45.0955789516358,0 34.2611548498373,45.0936031242724,0 34.2632791593771,45.091612028622,0 34.2616386709348,45.0894343404557,0 34.2618747053281,45.0873366942867,0 34.2630977926389,45.0858774164309,0 34.2663379011289,45.0851325622257,0 34.2700715360776,45.0850413549165,0 34.2749853429929,45.0861662348186,0 34.274934736092,45.0652775162215,0 34.2707075746845,45.0626011049415,0 34.271858624788,45.0545299625642,0 34.2753991406877,45.0545299625642,0 34.275677717117,45.0492999686231,0 34.2790845010092,45.0474871412795,0 34.2817988965323,45.045395550778,0 34.2839050979975,45.0282510139568,0 34.2761844553876,45.0229431880717,0 34.2769306872293,44.9997640753285,0 34.2792766219187,44.9896471727627,0 34.2881815558481,44.989555812105,0 34.2889421105785,44.9869184122007,0 34.2914526582165,44.98416216911,0 34.2926412621735,44.9785943784049,0 34.2955272937871,44.9727620059499,0 34.2984856014697,44.9702822195949,0 34.2992890851525,44.9684347001505,0 34.3001581208733,44.9678177831438,0 34.3001366632012,44.9665839290912,0 34.3009735124138,44.9659517589473,0 34.3009561392575,44.9650539938854,0 34.3016035460104,44.9633248779456,0 34.3056603469744,44.9511101685074,0 34.3014762111165,44.9464797076554,0 34.2908091737262,44.9402729979623,0 34.2912961469116,44.9379336103952,0 34.2917038426819,44.9366991093648,0 34.2942251191559,44.934816824886,0 34.2976476178589,44.9332469368856,0 34.2997364409154,44.9298548044808,0 34.301839292783,44.927370182601,0 34.3030596726532,44.9240093458507,0 34.3037836648465,44.9184656277919,0 34.3036748552288,44.9135778137324,0 34.3040825509991,44.9126477333441,0 34.3083605126673,44.9101384078262,0 34.3134567097956,44.9076605517979,0 34.3185050448581,44.9027048366785,0 34.3197031017158,44.9007028971023,0 34.3218571391338,44.8971058827677,0 34.3243247714275,44.8934301543824,0 34.3272767451782,44.8900340618648,0 34.3302091466856,44.8878722012808,0 34.3336368564891,44.8866042342103,0 34.3370808128642,44.8862610114702,0 34.3371773723887,44.8891058843462,0 34.3440009121226,44.8883203169852,0 34.3449128631877,44.8892431668539,0 34.3449236378718,44.890156458593,0 34.3428744301844,44.8910335194745,0 34.3393124566126,44.8934205821997,0 34.3401171193171,44.8945568805308,0 34.3424989209223,44.893550228118,0 34.3444944844294,44.8944119846855,0 34.3437330995688,44.8971829039769,0 34.3450098310599,44.8973659213681,0 34.3475740228781,44.8946816075233,0 34.3495052133689,44.8953374458466,0 34.3466895407291,44.900163934976,0 34.3485456293675,44.9009798404034,0 34.3513351267429,44.8992488869849,0 34.3534165209385,44.8985244635944,0 34.3561201876255,44.9000953068852,0 34.3574183767887,44.9003088162301,0 34.3571171434205,44.8965756652419,0 34.3577072294038,44.8930981864169,0 34.3616425865064,44.8905080171301,0 34.3636917941938,44.8894326524654,0 34.3656551711927,44.8889445370025,0 34.3681657188307,44.8891733416449,0 34.3666958682905,44.8913316870134,0 34.372371422566,44.8931620220149,0 34.3747317664991,44.8896080679412,0 34.3779075019728,44.8874801655923,0 34.3794095390211,44.887525927767,0 34.3819844596754,44.8892572364509,0 34.3837547176252,44.8918045291735,0 34.3854391448866,44.8917206381081,0 34.3864905708204,44.8906147898219,0 34.3875828518147,44.8803945581313,0 34.3949428333516,44.8797614324535,0 34.3980112804646,44.8785485576517,0 34.3999746574635,44.8763973579024,0 34.4035145700182,44.8681760369307,0 34.4062289655413,44.8667950610908,0 34.4073876798357,44.8678937407144,0 34.4075056970324,44.8698392674197,0 34.4042870462145,44.8736614623701,0 34.4044050634111,44.8750422723564,0 34.4053088636575,44.8762578673723,0 34.4053410501657,44.8775013042498,0 34.4061027975259,44.8789125341898,0 34.4080876321969,44.8787218294774,0 34.4096754999337,44.8776233579454,0 34.4111453504739,44.871444062203,0 34.413140913981,44.8695672549568,0 34.4207476587472,44.8655845574494,0 34.4550116177981,44.8703131700081,0 34.456126129982,44.8633375141908,0 34.4736701246578,44.8563677508109,0 34.4783042999322,44.853649035672,0 34.4764838544263,44.8490462569607,0 34.4755407603254,44.8450237928397,0 34.475491782124,44.8435160766581,0 34.4745047292065,44.8392338602836,0 34.4744832715344,44.8383560045176,0 34.4757600030255,44.8370964488126,0 34.4443845249727,44.8183797844866,0 34.4245040154909,44.8124354637843,0 34.4192092055051,44.8026097614235,0 34.4135551089017,44.8005626462062,0 34.4030532965081,44.793662349771,0 34.3958864340203,44.7919739853002,0 34.3890336246869,44.791682179541,0 34.3834009857556,44.7922169637208,0 34.3784098042566,44.7878072062994,0 34.3819998688072,44.7796562681364,0 34.3813313594716,44.7780505331617,0 34.37959328803,44.7768431435292,0 34.374969347316,44.7764971193799,0 34.3731454451859,44.7759316209449,0 34.3701657317662,44.7743549506428,0 34.3685384996177,44.7718544140429,0 34.3680414478635,44.76818848128,0 34.3662926475858,44.7665299393304,0 34.3601101004775,44.76327710534,0 34.3515641746617,44.7610795207101,0 34.3444416052007,44.757868300694,0 34.3413802153148,44.7551695030723,0 34.3364127642192,44.7528225401365,0 34.3312721915381,44.7483960946532,0 34.328182286753,44.746996937162,0 34.3230021554401,44.7468084529484,0 34.3184209424427,44.7508070606214,0 34.3170706012588,44.7529439909126,0 34.3169954994064,44.7556655358999,0 34.3180254676681,44.7575155012361,0 34.3173602798324,44.7586086345437,0 34.315311072145,44.7590214207269,0 34.3137124755722,44.7595947299447,0 34.3132284890708,44.7617005085503,0 34.3141424666162,44.7687518379912,0 34.3087136755701,44.7714726333916,0 34.306900502276,44.7701810359332,0 34.3034565459009,44.7704638141945,0 34.301503897738,44.7693632639284,0 34.3008172522302,44.7687824094429,0 34.3023300181146,44.7673455336068,0 34.3044543276544,44.7663366418354,0 34.3044221411462,44.7653124456795,0 34.3011820326562,44.7647544803794,0 34.2994654188867,44.7608485713578,0 34.2931139479394,44.7600153782784,0 34.2914831648583,44.7623085410699,0 34.2915924595122,44.7665837335687,0 34.2900582359557,44.7666678081985,0 34.2870434330229,44.7654983954693,0 34.282193999124,44.7649557187208,0 34.2792864845519,44.7628843278926,0 34.2765184448485,44.7707338159607,0 34.273940907483,44.7741573427618,0 34.2703487743222,44.7767009818197,0 34.2693402637326,44.7798493194416,0 34.2646410335385,44.7863899732064,0 34.2648206216009,44.7945090790661,0 34.2481050950201,44.7969842018801,0 34.2283795530251,44.7982067299192,0 34.2249999227804,44.7948753009194,0 34.2254934492392,44.7915138733687,0 34.2272100630087,44.7873270925203,0 34.2271027746481,44.7842250102617,0 34.228347319631,44.7813825609557,0 34.2257509413046,44.7790595945399,0 34.2156229200644,44.7759570650141,0 34.2078767004294,44.7749483246807,0 34.2031130972189,44.7754221291679,0 34.2000231924338,44.7789984625741,0 34.1954741659445,44.7773478748659,0 34.1830501737875,44.7765836978031,0 34.1777501287741,44.7773173079789,0 34.172514456777,44.7774395754293,0 34.1696177841011,44.7757123423799,0 34.1638242126289,44.7710200007548,0 34.1543184638801,44.7666941471362,0 34.1523872733894,44.7652113589999,0 34.1515289665046,44.7631170465581,0 34.1517864585701,44.7607321889499,0 34.1449414611641,44.7612978372203,0 34.1368733764473,44.7578732867185,0 34.1251651884634,44.7495216041126,0 34.1251222731192,44.747350261982,0 34.1242210508902,44.7451941297378,0 34.1242210508902,44.7431602570303,0 34.1132093497257,44.7295362907898,0 34.0900387187934,44.7456585357101,0 34.0729769942712,44.7556733487578,0 34.0693314257405,44.7608111536402,0 34.0680632048309,44.7659007038823,0 34.0669259482085,44.7676433372213,0 34.0638569773024,44.7691747310405,0 34.0599516809767,44.7718496516899,0 34.0561107576674,44.7765877763949,0 34.0544799745863,44.7828995732035,0 34.05298931202,44.7840646132663,0 34.0284738190551,44.8003203991492,0 34.0159913303603,44.8086102490605,0 34.0107860884195,44.8119496666491,0 34.0081253370767,44.8118274727887,0 34.0054216703897,44.8123620690035,0 34.0038123449808,44.8141032906573,0 34.0050568899637,44.8150655220225,0 34.0010894037432,44.8212811350059,0 33.9963749725661,44.8279702203103,0 34.0016392500052,44.8292331799172,0 34.0050442602298,44.8318143145644,0 34.0088191283915,44.8336957095848,0 34.0169462217067,44.8323139011702,0 34.0195694221232,44.8315504568019,0 34.0212431205485,44.8304281750967,0 34.0221926225398,44.8290653748767,0 34.0228309882853,44.8273436957284,0 34.0232491166,44.8262556613021,0 34.0261499108611,44.8239371816498,0 34.0293497588706,44.8279166183646,0 34.0330411370316,44.8266392855042,0 34.0347148354569,44.8267309072251,0 34.0357646386958,44.8277938077256,0 34.0306910740166,44.830369244318,0 34.0310457841729,44.8314821347797,0 34.0313676492547,44.8315584797658,0 34.0325907365655,44.8316119211955,0 34.0339318410729,44.8309820726032,0 34.0346345798348,44.830997341742,0 34.0385756512546,44.8289211725233,0 34.0417351367818,44.8264771065484,0 34.0435191706524,44.8270616631541,0 34.0444418505536,44.8264890283008,0 34.0538160667438,44.8324322620985,0 34.0485634142804,44.8381748298767,0 34.0468317525921,44.8386994243464,0 34.0433920705888,44.8431634103066,0 34.0425653467588,44.8440729958394,0 34.0397744660927,44.8443934715469,0 34.0368059763935,44.8467422431762,0 34.0401106211888,44.8501534700715,0 34.0358822017143,44.8517145672022,0 34.0277146336645,44.8549634469442,0 34.0252158147879,44.8529954476917,0 34.0175542372632,44.8549107385878,0 34.016438438313,44.8553724351308,0 34.0140459078717,44.8562042426376,0 34.0125331419873,44.8566277730049,0 34.0107467907834,44.8570513002361,0 34.0081182259488,44.8575778432315,0 34.005983187573,44.8575549501585,0 34.0046581763196,44.8581043813795,0 34.0047626360701,44.8590047957911,0 34.0071293383458,44.8640019468438,0 34.0066733628133,44.8642613718865,0 34.0085589484067,44.8681530972383,0 34.0114549567872,44.8694518715684,0 34.0113483533001,44.8729776608443,0 33.9967004090971,44.8732357555505,0 33.9673026577771,44.8732821323595,0 33.9568392118005,44.8846838641174,0 33.9401883271634,44.8795386227171,0 33.9193161236135,44.9022114211363,0 33.8974626133034,44.9019445777006,0 33.8972862009892,44.9113697669103,0 33.8736722389996,44.92057233983,0 33.8333704029729,44.9209748220504,0 33.8333122234283,44.9173322463291,0 33.832711408609,44.9144201683899,0 33.8334526231661,44.9108240572122,0 33.8336098968277,44.9002055131236,0 33.8323653518448,44.8989854467657,0 33.8139861705806,44.9010511101838,0 33.7965829868586,44.8983887055493,0 33.745920868821,44.898471030658,0 33.7457989183553,44.9067757572062,0 33.7398069005544,44.9109510520774,0 33.7184502952853,44.8990612577328,0 33.6977403147074,44.9137733685779,0 33.694242714152,44.9115777521572,0 33.6902301294657,44.9147491709919,0 33.6838572008463,44.9122181490031,0 33.6811964495036,44.9115167616067,0 33.678213833079,44.912004684186,0 33.6766474230143,44.9130720002895,0 33.6733643991801,44.9122029015426,0 33.6722915155741,44.9123706233838,0 33.6720125658366,44.9118522088279,0 33.6705963594767,44.911974189147,0 33.6701672060343,44.9142307780364,0 33.6472987639633,44.9087653006978,0 33.6472314163257,44.9316050761487,0 33.6126428764176,44.9260162823308,0 33.6122095985737,44.9302897253909,0 33.6112440033284,44.9355634319189,0 33.6106583643797,44.9386383008385,0 33.6085769701842,44.9467151409872,0 33.6063396267881,44.9538708766425,0 33.6042213119748,44.9594951490111,0 33.6019895994979,44.9670794574229,0 33.6008999822948,44.9690196714405,0 33.5998270986889,44.9724163685841,0 33.599312114558,44.973817637545,0 33.5984967230175,44.9749751815582,0 33.598410892329,44.9753559474738,0 33.599483775935,44.9773815793564,0 33.6005995748852,44.9775643395923,0 33.6033246992443,44.9782649150642,0 33.6038718698833,44.978691348089,0 33.6043868540141,44.9793919096985,0 33.6049864190495,44.9794937867255,0 33.605437030164,44.9805522257017,0 33.6056075169002,44.9821952915918,0 33.605450060952,44.9849660302275,0 33.604679785414,44.9897041701089,0 </coordinates>
          </LinearRing>
        </outerBoundaryIs>
      </Polygon>
    </Placemark>
  </Document>
</kml>