<?xml version="1.0" encoding="UTF-8"?>
<kml xmlns="http://earth.google.com/kml/2.2">
  <Document>
    <Placemark>
      <name>Симферополь OK</name>
      <description>01.09.2018 12:33:03</description>
      <Style>
        <LineStyle>
          <color>A6000000</color>
          <width>1</width>
        </LineStyle>
        <PolyStyle>
          <color>80008000</color>
          <fill>1</fill>
        </PolyStyle>
      </Style>
      <Polygon>
        <extrude>1</extrude>
        <outerBoundaryIs>
          <LinearRing>
            <coordinates>34.0965797929032,44.8930799674922,0 34.0938941438363,44.8923980307108,0 34.0927275361281,44.8920771556675,0 34.090542883679,44.8915188957839,0 34.088579120317,44.8909988853439,0 34.0879838419402,44.8909101368403,0 34.0872650099243,44.8909277732906,0 34.0862135839904,44.8909835425707,0 34.0858221823371,44.8910341637837,0 34.0846915202367,44.8913516270008,0 34.083493409458,44.891739433318,0 34.0830379965243,44.8922389148537,0 34.0826548248618,44.892315358821,0 34.0822896602091,44.8921683706388,0 34.0802850783378,44.8936689628399,0 34.0795072992577,44.8955094731986,0 34.0801885803475,44.8961938990322,0 34.0802609999909,44.896453177986,0 34.0806257804169,44.8968897553298,0 34.0806056864667,44.8970138841527,0 34.080186591308,44.8971954722601,0 34.0789855604243,44.8978147638203,0 34.0783531934762,44.8981145289821,0 34.0769913872018,44.8984034518054,0 34.0756180961861,44.8986379377212,0 34.0754759391083,44.8984968650092,0 34.0754062016739,44.8984644563639,0 34.0749287684693,44.8978525014344,0 34.0746467023914,44.8975440621052,0 34.0743378078286,44.897136420227,0 34.074144706125,44.8966891106921,0 34.0732112800423,44.897100197936,0 34.0707405492308,44.8984742076497,0 34.0703462645056,44.8987296634872,0 34.0699948951247,44.8988859866452,0 34.069694487715,44.8990632794651,0 34.0695255085471,44.8991757552698,0 34.0659626066698,44.9011396956702,0 34.0654607457017,44.9007114027617,0 34.0631489102162,44.902038442506,0 34.0610758197976,44.9032435965091,0 34.058977735997,44.9044870768629,0 34.0587752292164,44.9046481497245,0 34.0582625557548,44.9049428931732,0 34.0586782981521,44.9053098307171,0 34.0603044904598,44.9063177918112,0 34.0614564295716,44.907683376852,0 34.0606866355843,44.9078739849036,0 34.0624492300566,44.9110826851207,0 34.0634107564673,44.9120236616658,0 34.0663792572099,44.9164959107418,0 34.0679723535615,44.9183745926151,0 34.0689376688131,44.9201013404421,0 34.068110931869,44.9204304945149,0 34.0702971346282,44.9243641387234,0 34.0688746074306,44.9247678346642,0 34.0693057634234,44.9255879498119,0 34.0628645512191,44.9275421083829,0 34.0622147860852,44.9277426535511,0 34.062206445983,44.9279250408341,0 34.0633170822988,44.9294026756109,0 34.0636047490194,44.9296083941183,0 34.0638924159362,44.9298951488162,0 34.0641181104255,44.9301931652321,0 34.0644636052211,44.9307145649103,0 34.0647115998408,44.9312330882774,0 34.0647364214026,44.9315194059179,0 34.064600689313,44.9316226748923,0 34.0645482783203,44.9318617489932,0 34.0639005248433,44.9319079519263,0 34.0634599720125,44.9318931860445,0 34.0618252401038,44.9317992022839,0 34.060303585927,44.9317853531226,0 34.0603029153747,44.9318196481328,0 34.0585914497388,44.9317686808205,0 34.057910168649,44.9316924695907,0 34.0569311623585,44.9316429322368,0 34.0568980653095,44.9316301063752,0 34.0553450662898,44.9315267446192,0 34.0554765901947,44.9295802027328,0 34.0550886757159,44.9295573384974,0 34.0548512366216,44.929345512012,0 34.0547994619938,44.9291541576458,0 34.0547860509488,44.9290055388428,0 34.0466104327096,44.9289078290084,0 34.0461625038041,44.9291136091389,0 34.0446307342968,44.9292520351802,0 34.0441241771579,44.9294433437597,0 34.0437205047012,44.929824175745,0 34.0415124518995,44.9297585561297,0 34.0408211477635,44.929177114311,0 34.0346003992681,44.9292155297635,0 34.0331319862558,44.92893211004,0 34.0331241282828,44.9294331487899,0 34.0332876666507,44.9303911569929,0 34.0328751299651,44.9310773263853,0 34.0315492952056,44.9328381927453,0 34.0309342149348,44.9335293221194,0 34.0301290663083,44.9343677792554,0 34.0292523528295,44.9353114220065,0 34.0290539387372,44.9353833056666,0 34.0286328319219,44.935398070645,0 34.0285268846658,44.9354252191436,0 34.0284336779025,44.9355133326029,0 34.0283720984807,44.9355512495339,0 34.0290349929766,44.9358272959936,0 34.0298930219678,44.9361152919676,0 34.0309698179116,44.9363828428167,0 34.0318944754344,44.9365967643358,0 34.0337080160836,44.9366615854714,0 34.0338558330131,44.9387185323645,0 34.0338938866172,44.9402583271554,0 34.0339750346784,44.9407205573535,0 34.0341091451292,44.9410272583855,0 34.0345195231084,44.9418368649873,0 34.0350966105143,44.9427163664921,0 34.035868598587,44.9434650484044,0 34.0372363175285,44.9442839159723,0 34.0398654861344,44.9453197830558,0 34.0412873380702,44.9457882112669,0 34.0422891431372,44.9460872658404,0 34.0449082168183,44.94654797246,0 34.0478972268114,44.9467851178008,0 34.0508369278918,44.9470546432356,0 34.0519393157969,44.9472117864524,0 34.0530604791651,44.9474889288884,0 34.0538959872732,44.9477660699773,0 34.0554583740244,44.9485489148483,0 34.056377030612,44.9493155590795,0 34.0572142563953,44.950357539597,0 34.0578308500395,44.9515695444395,0 34.058853965379,44.9538828173656,0 34.0596795082912,44.9557535992266,0 34.0605611836947,44.9576617624505,0 34.06154428828,44.9596665868157,0 34.0622372163673,44.9610450687806,0 34.061382932796,44.9612859624065,0 34.0609765781303,44.9611755132815,0 34.0593915552746,44.9615447118076,0 34.0597832416041,44.9626100229138,0 34.0586929052476,44.9629249006216,0 34.0588645666245,44.9632733752288,0 34.0604523768775,44.9629017638087,0 34.0608610923149,44.9636248085427,0 34.0631865675308,44.9630325945194,0 34.0634002701204,44.9635364337735,0 34.0635263339441,44.9640924627792,0 34.0636030641204,44.9652038237742,0 34.0636888948088,44.9659826209129,0 34.0638283696776,44.9666262154053,0 34.064077815116,44.9672469535021,0 34.0659435316032,44.9706080152207,0 34.0667681659533,44.9718289181069,0 34.0670186926207,44.9724557455128,0 34.0675182992739,44.973251026606,0 34.0682381381327,44.973173220753,0 34.0727104237943,44.9708679872232,0 34.0781634268667,44.9722389028533,0 34.0744161294459,44.9801935511543,0 34.0741095588403,44.9809437651144,0 34.0738404216426,44.9819148421946,0 34.0729997224718,44.9837892065575,0 34.0727683819443,44.9843067828023,0 34.0726659209387,44.9845741397149,0 34.0725497174717,44.9849326826644,0 34.0722706692489,44.9853540098148,0 34.0714928286346,44.9859393296817,0 34.0705160147783,44.9867296817966,0 34.0681128631597,44.988459789152,0 34.0655632598856,44.9903024182673,0 34.0629135227594,44.9922072863788,0 34.0587736121267,44.9951274783181,0 34.0561225338591,44.9970503624346,0 34.0480181640075,45.0029007061964,0 34.0467763012336,45.0036199987504,0 34.04588719725,45.0040538842823,0 34.0447635878944,45.0044559445519,0 34.0411184385562,45.0058469300841,0 34.0381400870246,45.0069966146406,0 34.0354940083349,45.0080646542969,0 34.0337068517826,45.0087828617873,0 34.0314372051185,45.0097264819619,0 34.0336243899493,45.0076395553201,0 34.0340284922246,45.0068109664675,0 34.0338340320711,45.0066501820382,0 34.0338648774747,45.0063885495992,0 34.0337093093519,45.0061135963941,0 34.0328321783776,45.0052011075844,0 34.0342913000817,45.0035684599211,0 34.0343771307702,45.0027387981707,0 34.0279907911057,45.0010566028186,0 34.0266170478341,45.0008880088493,0 34.0266203543871,45.0020617438959,0 34.0269366573212,45.0026661360015,0 34.0280488136878,45.0031762345916,0 34.0283825657099,45.0031349865403,0 34.0285296736959,45.0033694946686,0 34.029039963961,45.0036287623915,0 34.0282905028755,45.0044009722157,0 34.0276575015479,45.0049375740098,0 34.0267106817657,45.0056568408179,0 34.0264818729112,45.0057195041129,0 34.0263477624605,45.0058127416345,0 34.0262726606081,45.0059307154225,0 34.0253955782602,45.006606205789,0 34.0241537154863,45.0057975191924,0 34.0241510332773,45.005160075775,0 34.0243629277895,45.0035749989502,0 34.0196771086404,45.0033276240343,0 34.0194839895914,45.0035597759095,0 34.0194065106888,45.0039590802579,0 34.0195473784381,45.0053328549201,0 34.0195971083664,45.0058694748206,0 34.0193986248993,45.0063394652471,0 34.0192806077026,45.0064897852524,0 34.0184920382522,45.0068341878179,0 34.0161397409462,45.0069331318159,0 34.0161397409462,45.0068170628777,0 34.0154879641555,45.0068056462481,0 34.0150027896277,45.0069115910227,0 34.0147452975623,45.0072940461573,0 34.0157041872852,45.0079257574661,0 34.0168012107723,45.0082387564047,0 34.0173716618393,45.0082414246824,0 34.0176640226219,45.0081833915773,0 34.0183216707733,45.0084883003329,0 34.0187159554984,45.008764193416,0 34.0195018427398,45.0091047768253,0 34.0188554303672,45.0096812904638,0 34.0191638844039,45.0098449203331,0 34.0229560210083,45.0104837404793,0 34.0249167157982,45.011362757434,0 34.0252305342529,45.0116062921963,0 34.0243695451591,45.0123292798804,0 34.0211320029869,45.0153301274756,0 34.0179486928574,45.0181186284199,0 34.0132850013911,45.0222637134686,0 34.0084576877396,45.0209377307347,0 34.006529287919,45.0203784943423,0 34.0059915050115,45.0201644831799,0 34.0058950621046,45.0198689490735,0 34.0061521409007,45.0191755832798,0 34.0056358604185,45.0187341375018,0 34.0049914597026,45.0185957397075,0 34.0048053494947,45.0185365334321,0 34.0045067476645,45.0182686765849,0 34.00441018814,45.0179985367859,0 34.0048743994538,45.0170468300079,0 34.0043988050603,45.0166411824605,0 34.0043544535662,45.016271819754,0 34.0044563775088,45.0161843067465,0 34.0053710107828,45.016551479984,0 34.0054300193812,45.0162813320293,0 34.0056070451762,45.0162927467575,0 34.0057384734179,45.0157277149584,0 34.0053334598566,45.0155755168812,0 34.0027799968745,45.0153319991108,0 34.0000656013514,45.0151988248891,0 33.999282396319,45.0151322376613,0 33.9983392024026,45.0138624853216,0 33.9978456759439,45.0136417907405,0 33.9957240486131,45.0138092142942,0 33.9924276137338,45.0141155220205,0 33.991102350739,45.0135073838453,0 33.9893413671459,45.0089572765374,0 33.988448674748,45.0072454936823,0 33.9875858300794,45.007389030709,0 33.9874731773007,45.0071340613305,0 33.9861374372113,45.0073471701431,0 33.985115304808,45.0034963619696,0 33.98510667004,45.0014871170303,0 33.9845594994009,45.0013539103991,0 33.9845112196387,45.0007754094119,0 33.984033786434,45.0003719776116,0 33.9831701151312,44.9999571249477,0 33.9827302328528,44.9999685429514,0 33.9832023016394,45.0002654102434,0 33.9832814300776,45.002394439321,0 33.9835509888113,45.0037135245668,0 33.9833793274344,45.0037173303171,0 33.9841204160321,45.0066431469216,0 33.9843126510201,45.0067085047303,0 33.9848555140298,45.0089022998278,0 33.9848233275216,45.008967894368,0 33.984179597358,45.0092456878158,0 33.9840669445794,45.0093332114978,0 33.9839837960999,45.009504453095,0 33.9834719256085,45.0117863424232,0 33.9835861688021,45.0145834076748,0 33.983714326085,45.0152603321574,0 33.9842757560358,45.0172361511843,0 33.9841094590769,45.0176058795218,0 33.983403382164,45.0177587490124,0 33.9827066637621,45.0178208515136,0 33.9825805999384,45.0178893379952,0 33.98152608803,45.0175251781982,0 33.9812564652936,45.0180142777033,0 33.98257342992,45.0183452938079,0 33.9852750063784,45.0186126385875,0 33.9853020636783,45.0195022198349,0 33.9861351878792,45.0230542536208,0 33.9833148909918,45.0234926907575,0 33.98561957123,45.0260140788601,0 33.9865709887641,45.0297470124598,0 33.9833469735282,45.0301464319971,0 33.9800263987677,45.0306827909617,0 33.9798279153006,45.0300627443264,0 33.9774353848593,45.0304393378744,0 33.9775963174002,45.031127850942,0 33.9754630908975,45.0314750319417,0 33.9749711525786,45.031172495464,0 33.9716448859855,45.0318722843707,0 33.971508763878,45.0317072914107,0 33.9708549754307,45.0318456572972,0 33.9706222776479,45.031220988792,0 33.9699992887193,45.0313756803804,0 33.9699811838085,45.0314070625466,0 33.9700366738456,45.0317132018329,0 33.9691220405716,45.0318877044408,0 33.9689291366911,45.0312801760351,0 33.9677382358885,45.0314656161684,0 33.9674780616141,45.0306325572863,0 33.9682183513022,45.0304803990945,0 33.9668343314505,45.0297196020269,0 33.9660135754919,45.0273886466348,0 33.9647227148233,45.0275944333737,0 33.9648823538399,45.0280049183077,0 33.9649265627084,45.0280281051592,0 33.9651116827106,45.0279977855719,0 33.9663454967825,45.031574560873,0 33.9659406779046,45.0320744097373,0 33.96584411838,45.0321390752055,0 33.9648221967454,45.0323939325109,0 33.9648114679093,45.0324662052701,0 33.965260658376,45.0338982618467,0 33.9652472473309,45.0339705326935,0 33.9646571613477,45.0340884480884,0 33.9670221565711,45.0409505734792,0 33.9678813796018,45.0430755735229,0 33.9697307373172,45.0476577947562,0 33.9711092719964,45.0510562336463,0 33.9711092719964,45.0511627058691,0 33.9709590682916,45.0515923953124,0 33.971028805726,45.0520486991277,0 33.9708769854081,45.0522065670436,0 33.97068118415,45.052290222113,0 33.9696190293801,45.0525221741613,0 33.9695278342736,45.0525697052018,0 33.9694929655564,45.0526267423979,0 33.9694876011383,45.0527256067356,0 33.9695251520645,45.0528130635062,0 33.9696190293801,45.0529119275196,0 33.9701822932732,45.0532598514293,0 33.9702868994248,45.0532940733381,0 33.9704102810395,45.0533073818526,0 33.9712390836251,45.0532579502115,0 33.9713946517479,45.0533130855007,0 33.9720437463295,45.0537598694912,0 33.973885777346,45.0591463513267,0 33.9736846116699,45.0594143946149,0 33.9737919000305,45.0599466754086,0 33.9740279344238,45.0606690485067,0 33.9741781381286,45.0609903114854,0 33.9746078248197,45.0612193563528,0 33.9755245486008,45.0639267746271,0 33.9749907319573,45.0640148838847,0 33.9749451344041,45.0640452976006,0 33.9769130830254,45.0700131396979,0 33.9789506991083,45.0724053963988,0 33.9791169960672,45.0727208912837,0 33.9801261437012,45.0757759932429,0 33.980450690992,45.076425948221,0 33.9807108652664,45.0765342733271,0 33.9815707803829,45.0767344973312,0 33.9832722003009,45.0764556961069,0 33.9832268015412,45.075243801276,0 33.9831516996888,45.0748884100575,0 33.9820868627099,45.0737252959678,0 33.9824870806904,45.0682729451258,0 33.9828857216049,45.0674089516686,0 33.9825164712631,45.0650373376323,0 33.9819263852798,45.0651190729852,0 33.9818781055175,45.0650943623095,0 33.9798395979754,45.0573541346945,0 33.9799710262171,45.0573294206401,0 33.9798569820105,45.0569797697279,0 33.9797470114409,45.0569854730073,0 33.9785119741685,45.0526436094828,0 33.9792356194889,45.0525109697054,0 33.9787413494145,45.0509647401253,0 33.9779873585991,45.0510591140894,0 33.9761002516259,45.0455437150214,0 33.9762477731217,45.0455113899211,0 33.976298735093,45.0450892604525,0 33.9761326131764,45.0445589523564,0 33.9757892904225,45.0446007855369,0 33.9753060017605,45.0431935434514,0 33.9747453656209,45.0425806108413,0 33.9718270314618,45.0339299120758,0 33.9872428883751,45.0312102674443,0 33.9873320718248,45.0312682770582,0 33.9877175966008,45.032922902672,0 33.987709664486,45.0330086619377,0 33.9876318804245,45.0330785565492,0 33.9875108457427,45.0331120774038,0 33.9858874238523,45.0333183510958,0 33.9868940395954,45.0375387547818,0 33.9882215427074,45.037577617367,0 33.9887605397148,45.0375813083844,0 33.989149460022,45.037660706073,0 33.9897730736179,45.0375984240632,0 33.9899172423525,45.0376003258049,0 33.9904516724987,45.0376925602044,0 33.9905871240539,45.0377548421111,0 33.991248972305,45.04063972324,0 33.9913723539196,45.040885034276,0 33.9915654729687,45.0410637873873,0 33.9926970388821,45.0417515863997,0 33.9929372274253,45.0419612210677,0 33.9931546556531,45.0428684542981,0 33.9932154907368,45.0429905173555,0 33.9933361901425,45.04303995793,0 33.9934971226834,45.0430466133887,0 33.9940523399495,45.0429211103227,0 33.9942280246399,45.0428222289239,0 33.995149688593,45.0421587304157,0 33.9948021766376,45.0401866725833,0 33.9942066655486,45.0374907584742,0 33.994088648352,45.0366810790484,0 33.9942147121757,45.0363710892867,0 33.9949575900058,45.0356785065579,0 33.9950344570885,45.0342120089654,0 33.9952623559032,45.0334497941879,0 33.995498415135,45.025850262366,0 33.9985199235902,45.0245672579463,0 33.9988498352991,45.024782203626,0 34.0007131546829,45.0240690698347,0 34.0063605457638,45.0241736904314,0 34.0065313941836,45.0211829823129,0 34.0102122385446,45.0219342059374,0 34.0116579492037,45.0229481045854,0 34.0122797434163,45.0235485425247,0 34.0128872637581,45.0236778927819,0 34.0149237141677,45.0242920587607,0 34.0170469492639,45.0247871659402,0 34.0214243143762,45.0260825292256,0 34.0220697209203,45.0253787378563,0 34.0235245042836,45.0255790276257,0 34.0256595348446,45.0259779433445,0 34.0258177851765,45.0260133705152,0 34.0259498839704,45.0260756652182,0 34.0260457729427,45.0261255960377,0 34.026062536749,45.0261422396345,0 34.0260658895103,45.0261664917239,0 34.0259801902708,45.0265666792669,0 34.0258751885661,45.0271075945076,0 34.0258772002229,45.0271289930472,0 34.0259432041852,45.0272835304179,0 34.026008918306,45.0273443971658,0 34.0260444575755,45.0273605648847,0 34.0297759529214,45.0280116926769,0 34.0303896128533,45.0280653483194,0 34.0316845639577,45.0281146247162,0 34.0332655319728,45.0282294755356,0 34.0336334416172,45.0282438989129,0 34.0320190015197,45.0320559917017,0 34.0287223507764,45.0394856869405,0 34.0258003184974,45.0458442727791,0 34.0283311305697,45.0463596288443,0 34.0306802306409,45.0411088882396,0 34.0306582989643,45.0403178287488,0 34.0317208536717,45.0380602247161,0 34.0317135725204,45.0376289075901,0 34.0363325566719,45.0375777199843,0 34.0362500787449,45.0349323346178,0 34.0364257634354,45.0348343902368,0 34.0364217401219,45.0344331017876,0 34.036271536417,45.0344235925483,0 34.0362956762982,45.0341630387721,0 34.0364606321526,45.0341107376877,0 34.0367945671749,45.0341402164866,0 34.0371472776604,45.0341288053404,0 34.0375697255802,45.0338967782049,0 34.0376488507462,45.0338796614115,0 34.0376877427769,45.0337322665883,0 34.0369474530888,45.033737021266,0 34.0366845966053,45.0336514370069,0 34.0366966665459,45.0336038901406,0 34.0370012640765,45.0329907444979,0 34.0379341872183,45.0308527210212,0 34.0383531246391,45.0299501840733,0 34.0384612412897,45.029935965301,0 34.0385752351729,45.0297295981265,0 34.0401799059003,45.0294638198586,0 34.047578943767,45.0294368063537,0 34.0474835075074,45.0226834891994,0 34.0475893538173,45.0214053168405,0 34.0477403535322,45.0205029490614,0 34.0479575121175,45.0195381470166,0 34.0481650350068,45.0188097743071,0 34.0481985626195,45.0187156068976,0 34.0498594365445,45.0187461446035,0 34.0544555840357,45.0187383082094,0 34.0545923766955,45.018810598327,0 34.0545906200631,45.0190694771908,0 34.0593863591529,45.0190356072541,0 34.0593850180484,45.0191663945449,0 34.0613469054968,45.0191776530153,0 34.0613667274474,45.0155905597589,0 34.0614285935037,45.014613784069,0 34.0615600217454,45.0145605137452,0 34.0616538990609,45.0143797747747,0 34.0616056192987,45.0141286417781,0 34.0618550647371,45.0139288761028,0 34.0615278352372,45.0130042372676,0 34.0613239873521,45.013042288545,0 34.0610758830182,45.0122536706188,0 34.0604442227952,45.0120558009555,0 34.0592425931565,45.0119749405584,0 34.059243934261,45.0117751673201,0 34.0589757133595,45.0119616223644,0 34.0586103498843,45.0119173869117,0 34.0574574264289,45.0113578228263,0 34.0560496570588,45.0084343105378,0 34.0524833389076,45.0114096098586,0 34.0443678276018,45.0105541725173,0 34.0434867219404,45.0102021818363,0 34.0431031660513,45.0105028010401,0 34.0427839831785,45.0103914960137,0 34.0429180936292,45.0102792394418,0 34.0428331731675,45.0099359932914,0 34.0426042751747,45.0095961819672,0 34.0425166725037,45.0094907674438,0 34.042387926471,45.0094070493738,0 34.0409824489472,45.0094279789029,0 34.040748482905,45.0094439467224,0 34.0403092144845,45.0090931055146,0 34.0389124656766,45.0073353926017,0 34.0450919037414,45.0049089107236,0 34.0458747742136,45.0045666570966,0 34.0466499326189,45.0041423207064,0 34.0487018225153,45.0026809047989,0 34.0503074624722,45.0015348313992,0 34.0522725511784,45.0001358643025,0 34.054352196801,44.9986510620383,0 34.0562183177441,44.9973037151512,0 34.0582798331273,44.995813697395,0 34.0607225342292,44.9940655940178,0 34.063755899289,44.9919011776043,0 34.0663869899184,44.9900086484981,0 34.0686160573187,44.9883963244234,0 34.0709441577727,44.9867565984008,0 34.0717965822798,44.986134943688,0 34.0721529530401,44.9858420698697,0 34.0726990763781,44.985271262537,0 34.0730206476563,44.9844967746403,0 34.074979550804,44.9848436027747,0 34.0764373314036,44.9852842627288,0 34.0764051448954,44.9853661127983,0 34.0782306717048,44.9859718211342,0 34.079447673055,44.9863813998672,0 34.079804406854,44.9866402691154,0 34.0800458056653,44.9869448196652,0 34.080171869489,44.987298857632,0 34.0801991295469,44.987503690396,0 34.0800583135737,44.9878072846242,0 34.0798580510343,44.9878546547305,0 34.078732937262,44.988846647563,0 34.0783004990048,44.9892275609122,0 34.0790471207748,44.9896497528026,0 34.0796023380409,44.9891777211816,0 34.0801924240242,44.98891124999,0 34.0804338228355,44.9888255982706,0 34.080620236362,44.9887723038025,0 34.0822862616009,44.9884928593916,0 34.0837629781043,44.9882391662983,0 34.084388603357,44.9881934848581,0 34.0849631061978,44.9882359019588,0 34.0856083379066,44.9883852514911,0 34.0870690842947,44.9888221438879,0 34.0875415400538,44.9889653059359,0 34.087544230713,44.9898661386825,0 34.0876133912757,44.9908495768471,0 34.0876887307402,44.9926813897239,0 34.087595523977,44.9927256401313,0 34.0875499264237,44.9928945526604,0 34.0876163110968,44.9938109538714,0 34.0884878726723,44.9937919399071,0 34.089330086303,44.9937748110421,0 34.0901696177246,44.9938033591476,0 34.0901669355156,44.9944694775452,0 34.0920446381803,44.9944399600794,0 34.0920500025983,44.9945541510813,0 34.0920956001516,44.9945541510813,0 34.0921411977048,44.9945903115175,0 34.0921438799138,44.9946283751097,0 34.0923074946637,44.9946288509043,0 34.1008412779205,44.9952273975398,0 34.0993736931155,44.9994214003861,0 34.0991373008007,45.0003617404714,0 34.1037917466022,45.0008129280251,0 34.1026787081523,45.0035653921992,0 34.1079698287943,45.0043358995045,0 34.1093233267413,45.0013019635187,0 34.1136477630579,45.0018047573048,0 34.1139059256756,44.9970890790371,0 34.1160074364388,44.9972679698459,0 34.1178127811058,44.9977387121275,0 34.1272474279741,44.9987836320907,0 34.1284130021315,44.987194921082,0 34.1294858857375,44.9868484962258,0 34.131045893154,44.9870836625177,0 34.1317673653643,44.9871460684715,0 34.1324470444899,44.9872558307289,0 34.1345028615591,44.9874805491602,0 34.1355341709254,44.9876451945738,0 34.1361336446402,44.9876975383916,0 34.1397352885264,44.9897075330004,0 34.1432115206626,44.9915516212024,0 34.1483372220901,44.9930328310234,0 34.1494101155404,44.9926760417992,0 34.150995291224,44.9926417154385,0 34.1522785248856,44.9920651670903,0 34.1530471811203,44.9920621742661,0 34.1532839346468,44.9923335895951,0 34.1533922480444,44.9926056741745,0 34.1536871200109,44.9930114068031,0 34.1538157742996,44.9936569679153,0 34.1536857898362,44.9940348125943,0 34.1536586845664,44.9944284410209,0 34.1537689165367,44.9948061416334,0 34.1539730814079,44.9950947101462,0 34.154536345301,44.995279316695,0 34.1547258960316,44.9950615402651,0 34.1553676145385,44.9952266395454,0 34.1573021577903,44.9945681427324,0 34.1585746331695,44.994502817446,0 34.1590236679595,44.9946283689794,0 34.1598846649862,44.9950605237091,0 34.16057018342,44.9955101092169,0 34.1619106380039,44.9963309062649,0 34.163127219658,44.9976227000695,0 34.1633384272066,44.9987121218196,0 34.1633102640119,44.9997711550816,0 34.16318295452,45.0014729287665,0 34.164135322561,45.0014750303497,0 34.1644637093245,45.001435821227,0 34.1649176732003,45.0013240227246,0 34.1651610836684,45.0012169813995,0 34.1654549693963,45.0009764552522,0 34.1655936992197,44.9987170749867,0 34.1660542684918,44.9980052904371,0 34.1664925575226,44.9975610964796,0 34.167286491391,44.9970215704817,0 34.1681622326344,44.9967636999886,0 34.1695181837878,44.9964455830059,0 34.1700644279606,44.9968485829081,0 34.1722847107519,44.9984129664163,0 34.1762085703529,45.0006093317541,0 34.1795930852837,45.0023341244846,0 34.1801422061047,45.0026342129105,0 34.1813838446218,45.003258020634,0 34.1814973922094,45.0031318220377,0 34.1820338070358,45.0023757721676,0 34.1825924838445,45.0014943075858,0 34.1832412308857,45.0006049872463,0 34.1842338427031,44.9992165763176,0 34.1847544338821,44.9986138512134,0 34.1861056277558,44.9966729588821,0 34.1864525619652,44.9961000990289,0 34.1870936099197,44.9951371072203,0 34.1873992204537,44.993773004244,0 34.1876034743615,44.9928337892594,0 34.184281487595,44.991667885064,0 34.1821977555795,44.9908974205877,0 34.1827365352024,44.9901661789547,0 34.1837021304477,44.9896237278462,0 34.1826538865137,44.9874966653928,0 34.183069628911,44.9864535831043,0 34.1836623971033,44.98627465831,0 34.1821067158747,44.9850906949703,0 34.1823642079401,44.9847594853851,0 34.1827608335962,44.9843097524941,0 34.1833351676035,44.9839961732007,0 34.1854004685449,44.9832556934991,0 34.1859890179131,44.9829860006199,0 34.1866300658676,44.9826433573163,0 34.1874293641541,44.9820456301739,0 34.189215715358,44.981364137434,0 34.1891774938795,44.9794485851846,0 34.1903211823381,44.9792837681606,0 34.1917931726706,44.9790708013287,0 34.1942688410116,44.9787141358052,0 34.199214536067,44.9702371847484,0 34.1969147512476,44.9686954787818,0 34.1965983629706,44.9684220631274,0 34.196131658602,44.9682354654368,0 34.1936598714424,44.9675572388432,0 34.1925548013283,44.96736683014,0 34.1914914370063,44.9665903328225,0 34.189345538242,44.9656112319171,0 34.1868819481515,44.9652762097026,0 34.1835853358469,44.9649407684931,0 34.1825978056733,44.964705276738,0 34.174917275454,44.9644904244651,0 34.1748918731543,44.9651955013044,0 34.1743487258288,44.9652431053539,0 34.1737821091744,44.9653192717503,0 34.1734817017648,44.9654211441464,0 34.1725677390429,44.9659562092548,0 34.1706838549048,44.9659872426216,0 34.1703787536293,44.9659824822806,0 34.1703893125394,44.9651749781026,0 34.1681258875721,44.9635295246204,0 34.1659531731224,44.9635627447014,0 34.1660537559602,44.9586287040007,0 34.1670932684201,44.9588411848407,0 34.1679135575547,44.9591710152706,0 34.1686954214825,44.9593405034219,0 34.1693565860047,44.9594395299737,0 34.1697153314604,44.9594652387619,0 34.1710309549822,44.959358594824,0 34.1711942022528,44.9587373861584,0 34.171055309946,44.9572044921864,0 34.1701944446655,44.9568802795725,0 34.1689552641006,44.9569340799947,0 34.1678840464523,44.9568371184664,0 34.1655172307183,44.9571095456668,0 34.1643354464967,44.9571857272927,0 34.1641309280594,44.9569352941428,0 34.160455050029,44.9573447880773,0 34.1603876754379,44.9569818732543,0 34.1589157825911,44.9563622587904,0 34.158931408156,44.9555458300965,0 34.1576543773128,44.9555500691352,0 34.1570258613523,44.9553593209477,0 34.156290305815,44.955672395729,0 34.1557027879757,44.9558661763393,0 34.1546627614301,44.9560666219285,0 34.1544247153801,44.956193268897,0 34.1542201969427,44.9563722881921,0 34.1539720926088,44.9563194394693,0 34.1538768741888,44.9560604324078,0 34.1539715457933,44.9557075207677,0 34.1539829451816,44.9553528103002,0 34.1538680256636,44.9549653302372,0 34.1537929675721,44.9547781556639,0 34.1533676928482,44.9540136868803,0 34.1526311176985,44.9528457541005,0 34.1528060732137,44.9527598659302,0 34.1537963707387,44.9519724740732,0 34.1545701880395,44.9514434676925,0 34.1550744433343,44.9511001584949,0 34.1560628373563,44.9505492405242,0 34.1590239396101,44.9492631769597,0 34.1603589513685,44.9487308018249,0 34.1625622748686,44.9480412567115,0 34.1611547398322,44.9458527738898,0 34.1613084489527,44.9457235162451,0 34.1613124722662,44.945668276631,0 34.161803316516,44.9454754137656,0 34.1612423995558,44.9447761018311,0 34.1610850039164,44.9426357891896,0 34.156429085496,44.9445287813033,0 34.1516154404137,44.9459855186507,0 34.151002482746,44.9462858774805,0 34.1501803856829,44.9465935009738,0 34.1496144395808,44.9470382663718,0 34.1493205937942,44.9471095060595,0 34.1489960465034,44.9468209331203,0 34.1490324002246,44.946658263603,0 34.1488160860685,44.9463783425998,0 34.1468966652712,44.9445718883319,0 34.1467638959249,44.9445442679737,0 34.1461469878515,44.9441328182954,0 34.1454744144058,44.9434757997611,0 34.1440478162727,44.9421720479921,0 34.1432248233544,44.9418287790941,0 34.142970013498,44.9417735357071,0 34.1428868650186,44.9416697160935,0 34.1427420257317,44.9415725636234,0 34.1428895472276,44.9414611238215,0 34.1429834245431,44.9412249088207,0 34.1435766945549,44.940501591487,0 34.1411801408001,44.9398376993779,0 34.1419955323406,44.9378831256607,0 34.1452609169037,44.9375444289647,0 34.1465730983698,44.9376473035465,0 34.1465838272059,44.9378492420007,0 34.147506507107,44.9381159520709,0 34.1479624826395,44.9380969013929,0 34.1480134446108,44.9375787205126,0 34.148238750168,44.9370338634801,0 34.1486947257006,44.9365271036664,0 34.1495476681673,44.9361079756067,0 34.1499875504458,44.9356888444673,0 34.150022419163,44.9346619601597,0 34.1501377541506,44.934402854705,0 34.1503013689005,44.9343380781574,0 34.1512642819368,44.9344295273797,0 34.1524739582026,44.9338293891827,0 34.1518168169939,44.9334292935438,0 34.151835592457,44.9332387708246,0 34.152551742264,44.9328577234774,0 34.1525168735468,44.9326386201002,0 34.1532303411448,44.9316021544578,0 34.1536729056322,44.9313087398083,0 34.1546063143694,44.9314764055071,0 34.1551529219467,44.9322752999804,0 34.1557778766472,44.9319456886069,0 34.156469886573,44.9318256562463,0 34.1572209050972,44.9319647413393,0 34.157910232814,44.931305513099,0 34.1578887751419,44.9304786091024,0 34.1568947155597,44.9286275498668,0 34.1574177463176,44.9281359585803,0 34.1577007063388,44.9271858501503,0 34.1583471187114,44.9264941739528,0 34.1594842488282,44.9261744536551,0 34.1608360821717,44.9253531917712,0 34.1609782392495,44.9250845165239,0 34.1605655898596,44.9240640131026,0 34.1605548610236,44.9237858040557,0 34.1607721199538,44.9235971546837,0 34.1635600211671,44.9238301302645,0 34.1654643895676,44.9246361699299,0 34.1661429884484,44.9247238236752,0 34.1665319087556,44.9245999650828,0 34.1667545321038,44.9242855536023,0 34.1657567503503,44.9238682411434,0 34.1652685883096,44.9230869630383,0 34.1633052113107,44.9221074919617,0 34.1629771445051,44.9216847920908,0 34.1635466799389,44.9187280254306,0 34.1647107586514,44.9188023482653,0 34.1648143514354,44.9178916155807,0 34.1645461305339,44.9174704448508,0 34.1640365108211,44.9171655229259,0 34.1641142948826,44.9158086006065,0 34.164007006522,44.9153950378116,0 34.1641891188076,44.9138041231907,0 34.1648768555102,44.9133683014434,0 34.1664244901118,44.9133778309121,0 34.1668455969271,44.9131167228937,0 34.16809014191,44.9113708896884,0 34.1692139874873,44.9112908392875,0 34.1699902450161,44.9119961488555,0 34.1703067456799,44.912983417091,0 34.1710792218761,44.9132616787989,0 34.1722593938427,44.9142984776036,0 34.17321962467,44.9156821172614,0 34.1781920511872,44.9172926095837,0 34.1788357813508,44.9171630175609,0 34.1807079632432,44.9173078556847,0 34.1814670283944,44.9171020329778,0 34.181209536329,44.9161129301716,0 34.1796350796373,44.9153410750351,0 34.1767785270364,44.9143919647819,0 34.1762259919794,44.9140203209254,0 34.1744476874025,44.9117160750097,0 34.1751209218652,44.9118857042245,0 34.1752309273302,44.9109102958447,0 34.1756359300427,44.9101186188256,0 34.1765384933761,44.9090722139196,0 34.1758139078819,44.9082107618562,0 34.1747092099553,44.908430721085,0 34.1729094477063,44.9079732651528,0 34.1726864351774,44.907025945989,0 34.1722055598153,44.9059313457037,0 34.1740133686914,44.9046999645738,0 34.1749013761599,44.9045164477623,0 34.1749494596376,44.9039403454791,0 34.175620060699,44.9031077462843,0 34.1776896169146,44.9010119863447,0 34.1770925934481,44.9007675758568,0 34.1770121271777,44.9007742479574,0 34.1760076399016,44.9014614701412,0 34.1759620423483,44.9014738610339,0 34.1750614906715,44.9014934005132,0 34.1750185753273,44.9014838690607,0 34.1749951059984,44.9014581341312,0 34.1748814967025,44.9010843175636,0 34.173244428828,44.9016744106164,0 34.173457084549,44.9019053844377,0 34.1737080360885,44.9026374759163,0 34.1733279135953,44.9031849114948,0 34.1726392564307,44.9033655268681,0 34.1710220243221,44.9048188224866,0 34.1710329237972,44.9049742910391,0 34.1708316388057,44.9055263722662,0 34.1703316849624,44.9058116223684,0 34.1695388671251,44.9064814698358,0 34.1691720750423,44.9065243576057,0 34.1688864197822,44.9065958371506,0 34.168439161429,44.9065934545005,0 34.1675895717235,44.9063127776284,0 34.1674668606612,44.906476227995,0 34.1669230757339,44.9066372330034,0 34.1656418835402,44.9067762137956,0 34.1646280085326,44.9073061110237,0 34.1641921495676,44.9078293320586,0 34.1637942959723,44.9088102806969,0 34.1630726510881,44.9098408297844,0 34.1628071123957,44.9100409606592,0 34.1623833233713,44.9101724748521,0 34.1619488055109,44.9107385542239,0 34.1619060935326,44.9109846838538,0 34.1616296719454,44.9111394968298,0 34.160936320915,44.9112367011311,0 34.1605860290196,44.9117152795507,0 34.1605766412881,44.9117514925719,0 34.1603049035859,44.9119138964473,0 34.1593634482217,44.9117757154516,0 34.1574765141797,44.9103929341023,0 34.1566624637437,44.9094580367634,0 34.1556915040804,44.9074023523847,0 34.1551711555315,44.9075434030983,0 34.1544520574999,44.9087921351095,0 34.1541167813731,44.9088131016192,0 34.153558881898,44.9093525100842,0 34.1534569579554,44.9097375264368,0 34.1534355002833,44.9102502422022,0 34.1516732889606,44.9107496114952,0 34.1502656381256,44.9113800550938,0 34.1492891983416,44.9100431647637,0 34.1481290605565,44.9084518076349,0 34.1477803733846,44.9080105534925,0 34.1458708323115,44.905618245153,0 34.1453371163353,44.9044643186051,0 34.1450340267166,44.9038143037202,0 34.1449937935814,44.9036217758969,0 34.1447792168602,44.9034654657017,0 34.1444090720161,44.9032481556948,0 34.1436768289551,44.9027182208075,0 34.1430966488172,44.9020941203523,0 34.1426379910756,44.9017948351341,0 34.1420486542292,44.9015631458688,0 34.1413579854078,44.9019377302331,0 34.1363920462621,44.9035202720435,0 34.1344561319045,44.8977283961776,0 34.1342788769944,44.897755955951,0 34.1332100402782,44.8981450407801,0 34.1315666952881,44.8988360227386,0 34.130202792004,44.899450826668,0 34.1289995259901,44.8999073682893,0 34.1287876314779,44.9000274677893,0 34.1283839590211,44.9003353407507,0 34.1279089463884,44.9008639842784,0 34.1278579844171,44.9011089447605,0 34.1283472250874,44.9018429225051,0 34.127988118341,44.9020157218881,0 34.1284243062385,44.9025102148534,0 34.1280598674321,44.9027038822575,0 34.1288540214034,44.9033939820865,0 34.1295835822555,44.9041831545654,0 34.1295090707712,44.9045683536533,0 34.1294460388593,44.9047179891906,0 34.1290517541341,44.905063960301,0 34.1304289839537,44.9070984307653,0 34.1306068531001,44.9071965034146,0 34.1319100275606,44.9069296426424,0 34.1321682405729,44.9075164057871,0 34.1328648736696,44.9085760601975,0 34.1335897650929,44.9109706808618,0 34.1339036070716,44.9114925017163,0 34.1340256475818,44.9117421814758,0 34.1342277909981,44.9118804496551,0 34.1351024841771,44.9118681446159,0 34.1356577014432,44.9118109662676,0 34.1362424230084,44.911942476383,0 34.1364999150739,44.9121025752452,0 34.1366755997644,44.9122807799982,0 34.136940538731,44.9135932413218,0 34.134405851212,44.913626594324,0 34.1319623587994,44.9136084884109,0 34.1306846185031,44.9118842048129,0 34.1295027412536,44.9099916098913,0 34.1291732797055,44.909788137323,0 34.1284142145543,44.9095956296418,0 34.1279582390218,44.9092658872541,0 34.1269178506454,44.9079594446444,0 34.1267743524631,44.9078469861392,0 34.1262566861232,44.9065775239219,0 34.1251375762128,44.9052890871147,0 34.1233088413716,44.9042004896936,0 34.1222459446429,44.9037168962386,0 34.1230292376442,44.9033163653361,0 34.1234878953858,44.9029332119252,0 34.1236407812996,44.9026625248814,0 34.1236622389717,44.9023537113348,0 34.1238687690659,44.9020296459409,0 34.1231393231932,44.9013971606812,0 34.1229341342035,44.9013123305555,0 34.1225827648226,44.9009834934838,0 34.1219873144213,44.9006432166076,0 34.1219189180914,44.9005164462726,0 34.1219148947779,44.9004440059548,0 34.1220277916391,44.9001865580371,0 34.1185645465578,44.8981444570521,0 34.1164829536469,44.8975285484499,0 34.1155763669998,44.8973950987067,0 34.1144873901398,44.8973264672888,0 34.1131972476036,44.8974332272366,0 34.1099163500947,44.8982010265172,0 34.1088021779262,44.8992862200562,0 34.1089732016009,44.8997220307103,0 34.1093782151622,44.8998345052177,0 34.1099964643401,44.9001309412056,0 34.1096834887083,44.9004794184192,0 34.1082557415988,44.9007363731702,0 34.1076567287456,44.9014316370701,0 34.1074065834978,44.9025951848532,0 34.1070377797583,44.9033900870527,0 34.1067829699019,44.9033586342982,0 34.105437842081,44.9030336250299,0 34.1051139531125,44.9043769883435,0 34.1046212326926,44.9059236671172,0 34.1041300114874,44.9072233117275,0 34.1027533817813,44.9072528275153,0 34.1027748394535,44.9069383204674,0 34.1016814585005,44.9068280825597,0 34.101602714114,44.9071918323445,0 34.1012885148798,44.9072560031564,0 34.1004413176105,44.9072585458093,0 34.0990572977588,44.9066905258156,0 34.0986737418697,44.9062845214846,0 34.097472112231,44.9060348178567,0 34.0975123453662,44.9059318862724,0 34.0961068678424,44.9057393655888,0 34.0946450639293,44.9056650257452,0 34.0928500372333,44.9050109292106,0 34.0939534372933,44.9030941530418,0 34.0951908776875,44.9007794779446,0 34.0959944024883,44.9010515677194,0 34.0968662057468,44.9013135918847,0 34.0978280474341,44.9015971716027,0 34.0994678270928,44.9021093895036,0 34.0997065436952,44.902210421712,0 34.0998046285774,44.9022352121282,0 34.0999534911777,44.9022561810456,0 34.1002176887657,44.9022371183937,0 34.1005407106988,44.9020769829083,0 34.1005107201005,44.9020331476203,0 34.1001410615556,44.9013354387325,0 34.099093514691,44.8958223612184,0 34.0983671994452,44.8949855277888,0 34.0974005039738,44.8939390551204,0 34.0965797929032,44.8930799674922,0 </coordinates>
          </LinearRing>
        </outerBoundaryIs>
      </Polygon>
    </Placemark>
  </Document>
</kml>