<?xml version="1.0" encoding="UTF-8"?>
<kml xmlns="http://earth.google.com/kml/2.2">
  <Document>
    <Placemark>
      <name>Советский р-н</name>
      <description>24.10.2023 12:32:52</description>
      <Style>
        <LineStyle>
          <color>A6000000</color>
          <width>2</width>
        </LineStyle>
        <PolyStyle>
          <color>33FFFFFF</color>
          <fill>1</fill>
        </PolyStyle>
      </Style>
      <Polygon>
        <extrude>1</extrude>
        <outerBoundaryIs>
          <LinearRing>
            <coordinates>34.6687439469182,45.188087909171,0 34.6735799112416,45.2171780784184,0 34.6736228265859,45.2247301386633,0 34.6815192499257,45.2244875178904,0 34.6835362711049,45.2366476007741,0 34.694822887918,45.2370086869517,0 34.6965395016875,45.2381002301197,0 34.6941362424101,45.244224608614,0 34.694651226541,45.2504695774919,0 34.6997152371611,45.2598054262322,0 34.7040389089434,45.2629568205184,0 34.7085021047441,45.2631992759619,0 34.7107337026445,45.2662904914989,0 34.7125361471025,45.2655631619109,0 34.7137377767412,45.269260323289,0 34.7253249196855,45.2691997160404,0 34.7254421197582,45.2872384074815,0 34.7659542047192,45.2867537022884,0 34.7678815307154,45.3377579536035,0 34.7579770312122,45.3379265044145,0 34.7584920153431,45.3588671492569,0 34.8063446195506,45.3586809127303,0 34.8064304502391,45.3719917620243,0 34.8163009794139,45.3719917620243,0 34.8163009794139,45.3838478630256,0 34.7942136013363,45.3923259933349,0 34.7821973049496,45.3972242381341,0 34.7771332943295,45.4002476327051,0 34.771811791644,45.4050242642137,0 34.7585938656186,45.4220112664156,0 34.7755883419369,45.4218903806587,0 34.7774766170834,45.4291430649004,0 34.7828839504574,45.4274508558071,0 34.7914670193051,45.4272695446611,0 34.7915528499936,45.4294452397218,0 34.8548100674008,45.4289013238707,0 34.8403340411735,45.4458065738246,0 34.8421364856316,45.4482836228322,0 34.927869366055,45.4390343737299,0 34.9193349433936,45.4652392123719,0 34.9205365730323,45.4925920129324,0 34.9554159983788,45.4955822000662,0 35.0018915592008,45.4991029014952,0 35.0117003492981,45.5601136060322,0 35.0242316298157,45.5593297809739,0 35.0418269209534,45.5671072500374,0 35.0632845930725,45.5729547105904,0 35.0666319899231,45.5677101093525,0 35.0704085402161,45.5632487961997,0 35.0738417677551,45.5628870524756,0 35.0765883497864,45.5609577130166,0 35.0760733656555,45.5595106646566,0 35.0784766249329,45.5554104905836,0 35.0733267836243,45.5466061582304,0 35.0750433973938,45.5408162516562,0 35.078133302179,45.5375591654356,0 35.0863730482727,45.534060602029,0 35.0973593763977,45.5289933286622,0 35.1002776198059,45.5234429305397,0 35.1023375563294,45.5153576688087,0 35.1068007521301,45.4999079472912,0 35.1087748579651,45.4953808532423,0 35.1098048262268,45.4877141385326,0 35.1080882124573,45.4848765840838,0 35.1062857679993,45.4821596418074,0 35.1030242018372,45.4803482736816,0 35.0970160536438,45.4766045937943,0 35.0939261488586,45.4733437653779,0 35.0908362440735,45.4695996170487,0 35.0856005720764,45.4651908633902,0 35.0795065931946,45.4630769542856,0 35.0722968153626,45.4615065701562,0 35.059593873468,45.4591509114038,0 35.0460326246887,45.4551037791765,0 35.0407969526917,45.4526270316642,0 35.0386511854797,45.4508147080179,0 35.0382220320374,45.4497272856917,0 35.0365259989892,45.4487809433183,0 35.0325777873193,45.4457601639994,0 35.0245097026025,45.4426183807679,0 35.0193598612939,45.4429204829629,0 35.0176432475244,45.441349533767,0 35.0199606761132,45.4410474231044,0 35.0258829936181,45.4391138763031,0 35.0331786021386,45.4297473149962,0 35.0354710607436,45.42551664049,0 35.0407447380755,45.4159187991231,0 35.0470962090227,45.4055205424824,0 35.0544776482317,45.3927014352322,0 35.0587691826555,45.3873794365398,0 35.0711288017962,45.3734672850755,0 35.0836600823137,45.362093053955,0 35.0951613945696,45.3544686104388,0 35.111984209511,45.3447852869667,0 35.1253737969134,45.338005968295,0 35.13232608268,45.3353424409629,0 35.1305961022211,45.3311672377458,0 35.1313685784174,45.3130021149164,0 35.1058768639399,45.3130626750648,0 35.105533541186,45.3040384946811,0 35.0809859642817,45.3040990644708,0 35.0561808953119,45.300888775849,0 35.0567979909395,45.2847285163606,0 35.0441808797335,45.2846679257408,0 35.0437701093437,45.2665911954372,0 35.0563013898613,45.2665305853197,0 35.0564205833328,45.2624016830642,0 35.0919544883621,45.263007825685,0 35.0965796878606,45.2406674272178,0 35.1141422867202,45.2408953967157,0 35.1149317438604,45.2155717288491,0 35.114330929041,45.2152077382822,0 35.1150927961674,45.195916902357,0 35.1205987364076,45.1958778267186,0 35.120856228473,45.1828895212856,0 35.1202554136537,45.1734802406663,0 35.1079816252015,45.1734195305483,0 35.1055783659242,45.1703839415814,0 35.106265011432,45.168744655815,0 35.0708169370912,45.1684410791647,0 35.0680703550599,45.1686232253503,0 35.0681561857484,45.1746337205296,0 35.0443810850404,45.1749979724422,0 35.0446385771058,45.1853781659979,0 35.0168294340394,45.1860458325316,0 35.016568868453,45.175282349743,0 34.9787175348349,45.175585889686,0 34.978374212081,45.1691504941438,0 34.9528391591298,45.1692746995271,0 34.9520814456315,45.1144959154739,0 34.9011838473649,45.1146782352378,0 34.9014413394303,45.1214844201706,0 34.9041020907731,45.1216667174566,0 34.9099385775895,45.1340008048718,0 34.9070203341813,45.1378280791916,0 34.8882234134049,45.1387392968679,0 34.8905475400506,45.1600432171788,0 34.8640258573113,45.1602861146721,0 34.8643681561423,45.1780777218595,0 34.8250577008201,45.1785633609864,0 34.7987935101462,45.1778349007324,0 34.7878071820212,45.1788061789863,0 34.7846314465476,45.1598632446362,0 34.7648045575095,45.1613206185941,0 34.7681670899011,45.2237738101937,0 34.7371328596139,45.2238119052278,0 34.7359432000733,45.2154984791501,0 34.715822532895,45.213943716969,0 34.7133763582735,45.2113653256191,0 34.7106297762422,45.209757563215,0 34.7054799349336,45.208786816594,0 34.6956952364473,45.2062992022509,0 34.6950315194701,45.187430969631,0 34.6687439469182,45.188087909171,0 </coordinates>
          </LinearRing>
        </outerBoundaryIs>
      </Polygon>
    </Placemark>
  </Document>
</kml>