<?xml version="1.0" encoding="UTF-8"?>
<kml xmlns="http://earth.google.com/kml/2.2">
  <Document>
    <Placemark>
      <name>Судак</name>
      <description>14.08.2018 16:29:02</description>
      <Style>
        <LineStyle>
          <color>A6000000</color>
          <width>1</width>
        </LineStyle>
        <PolyStyle>
          <color>80008000</color>
          <fill>1</fill>
        </PolyStyle>
      </Style>
      <Polygon>
        <extrude>1</extrude>
        <outerBoundaryIs>
          <LinearRing>
            <coordinates>34.73022023684,44.8121965060168,0 34.7310343894785,44.8128863918048,0 34.7309700164621,44.8139402857979,0 34.7265155883507,44.8182650543573,0 34.7239339327521,44.822942026762,0 34.7223967092168,44.8277939586678,0 34.7217495512219,44.8330097590598,0 34.7216771732549,44.841135702606,0 34.7226057879977,44.8486748243045,0 34.7242085348957,44.8543124129526,0 34.7369554925602,44.8748983104576,0 34.7419477374896,44.8809192071739,0 34.7535062344799,44.8865973707994,0 34.7528667648708,44.8892371954492,0 34.7532254212052,44.8919655769489,0 34.755714511171,44.8942382088928,0 34.7705720663405,44.8967177757456,0 34.8009699974856,44.8992647358059,0 34.7992112045986,44.9018277929781,0 34.8050262337429,44.9040237843584,0 34.8056485062343,44.9049540052437,0 34.8072363739712,44.9092389254389,0 34.8092319374782,44.911099182136,0 34.8119356041653,44.9117853270908,0 34.8184587364895,44.911541365385,0 34.8257972603542,44.9135540182789,0 34.8263152433544,44.9159826909256,0 34.8277099920421,44.9178427278744,0 34.8281176878124,44.9190776369571,0 34.8369582487255,44.922629757319,0 34.8289974523693,44.9317453461986,0 34.8573734203988,44.9447905515908,0 34.8789477530504,44.9480382493997,0 34.883202321703,44.999703183808,0 34.8827517105885,45.000753635246,0 34.8839962555714,45.0013778073521,0 34.8890173508473,45.002778363749,0 34.8928797318287,45.0024738978992,0 34.8957979752369,45.0004796063053,0 34.8973214699574,44.99766312128,0 34.9089356874489,44.9929759680789,0 34.920840207118,45.0023585377933,0 34.9244880113782,45.0029979154927,0 34.9284791383924,45.0015669173556,0 34.9288439188184,44.9997552829971,0 34.9286722574415,44.9982633055184,0 34.929852429408,44.9969235373117,0 34.932362977046,44.9962384163832,0 34.93453020193,44.9967712889292,0 34.9377295344774,45.0001495191841,0 34.9386645947727,45.0082334967162,0 34.9488387929446,45.0106076855637,0 34.9571067767867,45.0106194620366,0 34.9620231604525,45.0246646636221,0 34.961036107535,45.0279058765823,0 34.9611260961573,45.0296229001018,0 34.9629285406153,45.033365929867,0 34.963958508877,45.0358763605318,0 34.9652459692041,45.0364545046146,0 34.9709697839787,45.0454804638634,0 34.9684417769532,45.0560586166745,0 34.964450649939,45.0586440865518,0 34.947001085488,45.0499378757395,0 34.9266162969749,45.0479908815841,0 34.9222389318626,45.051945643583,0 34.9220672704856,45.0552917656459,0 34.9362293340843,45.0595501813987,0 34.9457565405052,45.0608276438687,0 34.9432251196907,45.071517633555,0 34.9502632361458,45.0721866431353,0 34.949956446369,45.0795729914626,0 34.9560504252509,45.0821877948083,0 34.964890986164,45.0896666834042,0 34.9910573812504,45.0867964548722,0 35.0084810110111,45.0843642811071,0 35.0102834554691,45.0849723343215,0 35.0154332967777,45.0833913824119,0 35.0060777517338,45.0655113997959,0 35.0114850851078,45.0622875384926,0 35.0093393178959,45.0545616921558,0 35.0036101194401,45.052143347151,0 35.0015501829166,45.050181218011,0 35.00107811413,45.0490556249722,0 35.0001983495731,45.0477778977427,0 34.9988465162296,45.0468956407434,0 34.9992542119999,45.0459373115849,0 35.0004558416386,45.0447355744022,0 35.0012926908512,45.0431687143368,0 35.0003700109501,45.0416170239297,0 34.9994902463932,45.0410237193422,0 34.9882678838749,45.0307692205511,0 34.9887751907757,45.0279743602183,0 34.9949782843075,45.0230608183374,0 34.9919312948666,45.0221933956887,0 34.9913948530636,45.0209462927685,0 34.9914163107357,45.018861334988,0 34.9952143187008,45.016928495639,0 34.9986046308956,45.0156500461228,0 34.9994629377804,45.0140671640538,0 35.0010722631893,45.012545120527,0 35.004076337286,45.0115862121959,0 35.0125306358937,44.9997526184662,0 35.0211879014919,44.993304219339,0 35.0252539375822,44.9824045032074,0 35.0233200494965,44.980707247715,0 35.0201872293671,44.9802808297837,0 35.0114754144867,44.9806920185581,0 35.0088790361603,44.9811032043638,0 35.0052097742279,44.9795802791083,0 35.0033214990815,44.9711120720189,0 35.003547399829,44.968171595327,0 35.0047704871398,44.9670596114973,0 35.0079462226134,44.9661608689826,0 35.0671195514634,44.9654966068036,0 35.0688169821337,44.9683286961513,0 35.0763107748602,44.9684369467547,0 35.0785638304327,44.9665176275403,0 35.0822974653815,44.9658778401015,0 35.0903655500983,44.9686502004542,0 35.0943352194403,44.9713158043517,0 35.0947643728827,44.9729151068263,0 35.101758340233,44.9765414132163,0 35.1231094272546,44.972569224715,0 35.1329867961721,44.9782111280442,0 35.1315259870939,44.9816144024405,0 35.1413126792969,44.9830390839616,0 35.1556297062938,44.9764428897038,0 35.1563592671459,44.9750721466527,0 35.1555867909496,44.9729855077961,0 35.1552863835399,44.9713252806769,0 35.1532049893443,44.9704113735423,0 35.1500077961986,44.9697107014773,0 35.1478191136424,44.9693908265828,0 35.1473470448558,44.9684159586843,0 35.1499434231822,44.9658873173311,0 35.152968954951,44.9651408896972,0 35.1569600819652,44.9642878175714,0 35.1622815846507,44.9636327713782,0 35.1661654233043,44.9628406124345,0 35.1683578199527,44.9608373752189,0 35.1676711744449,44.9586130996005,0 35.1650318807743,44.9575466352976,0 35.1597318357608,44.9565715647581,0 35.156706303992,44.9567696273114,0 35.150934190192,44.958064634737,0 35.1478872007511,44.9575161645957,0 35.1446041769168,44.9564192084796,0 35.1425227827213,44.9562668517937,0 35.1385531133792,44.9586130996005,0 35.1365790075443,44.9588416250693,0 35.1339611715457,44.9580341643121,0 35.1335963911197,44.9563735015166,0 35.1335534757755,44.9542557053745,0 35.1308927244327,44.9540881066366,0 35.1273951238773,44.956541093535,0 35.1241979307315,44.9584759838794,0 35.1215157217166,44.9596490743871,0 35.1196918195865,44.958856860068,0 35.1162800497196,44.9579427529395,0 35.1113447851322,44.9578665766837,0 35.1114306158206,44.9564649154059,0 35.1137051290653,44.9557488360158,0 35.1175460523746,44.955246051494,0 35.1220950788639,44.9551241636694,0 35.1247129148624,44.9548499151109,0 35.1278242773197,44.9522749615176,0 35.1249704069278,44.9509341112289,0 35.1208290762088,44.9483285051455,0 35.1158723539493,44.9445494028652,0 35.1169881528995,44.9436655444191,0 35.1199278539798,44.9445798804983,0 35.1231250471256,44.9473532769225,0 35.1259360021732,44.9481913646846,0 35.1278457349918,44.9470789909794,0 35.1276097005985,44.9462256484959,0 35.1263007825992,44.9448541784632,0 35.1259360021732,44.944076997469,0 35.127159089484,44.9438026957656,0 35.1319656080387,44.9452046683872,0 35.1371154493473,44.9416387138426,0 35.1423511213443,44.9391698454539,0 35.1424154943607,44.9377067619018,0 35.1410207456729,44.9365789427147,0 35.1343259519718,44.9342470296217,0 35.131493539252,44.9337135720518,0 35.1296052641056,44.9322503485383,0 35.1274594968936,44.9312138758416,0 35.1239618963382,44.9307413599807,0 35.1198420232913,44.9306956324317,0 35.1150784200809,44.9305889346746,0 35.114735097327,44.933347769692,0 35.1119670576236,44.9357254431009,0 35.1031694120548,44.9316711455291,0 35.09977909986,44.9334544622893,0 35.0930843061588,44.9308480574527,0 35.0853595441959,44.9317778412621,0 35.0719699567935,44.9382097011061,0 35.0617788706913,44.9291465887695,0 35.0585387622014,44.9247107218688,0 35.0574444209233,44.9222106311913,0 35.0496767436161,44.9285216249572,0 35.0488184367314,44.9203354913024,0 35.055770722498,44.9140083451781,0 35.0593139154184,44.9124229043896,0 35.0805688167195,44.9139286549083,0 35.0928602711713,44.9134216965949,0 35.0929031865155,44.9150683636368,0 35.0949202076947,44.9166387518401,0 35.1032886998212,44.9194135069294,0 35.1090608136212,44.9203129864942,0 35.1123009221112,44.9212429419866,0 35.1115069882428,44.9236516087059,0 35.1119790570294,44.9255266396346,0 35.1136029446922,44.9267348000695,0 35.1152766431175,44.9271463752631,0 35.1187098706566,44.9269634533213,0 35.1218856061302,44.9269634533213,0 35.1253832066856,44.9279847599928,0 35.1279795850121,44.9276798942437,0 35.1289451802574,44.9264756586096,0 35.1278293813072,44.9252104216402,0 35.1283872807823,44.9240518667975,0 35.1315844739281,44.9232134242797,0 35.1323140347801,44.9243872403552,0 35.1316488469444,44.9275427041252,0 35.1333225453697,44.9290212913549,0 35.1361778619738,44.9308868909467,0 35.1392892244311,44.9314508595997,0 35.1446965578051,44.9317557051989,0 35.1503399255725,44.9305820407049,0 35.1572707536669,44.9269389542713,0 35.1606825235339,44.9263139662772,0 35.1674416902514,44.9268627365898,0 35.1727846506091,44.9264816466549,0 35.1733210924121,44.9239511449266,0 35.1721194627734,44.9226706073154,0 35.1663604117249,44.9208448196185,0 35.1639142371033,44.9186342294555,0 35.1626696921204,44.9163473219423,0 35.160974536023,44.9124898636579,0 35.1596063614449,44.9112412872994,0 35.155486488398,44.9091980563454,0 35.1522249222359,44.9087101097787,0 35.14973583227,44.9071547522661,0 35.1501649857124,44.9051723724546,0 35.150980377253,44.9039981611876,0 35.1516026497444,44.9028086758055,0 35.1483625412544,44.9009328985148,0 35.1474827766975,44.8980047327627,0 35.1460236549934,44.8974099307497,0 35.1429122925362,44.8969981411122,0 35.1412171364387,44.8965558452317,0 35.1393717766365,44.8957017469423,0 35.1388997078499,44.8946951147054,0 35.1392430306038,44.894024016692,0 35.1431268692574,44.8921632036896,0 35.1460021973213,44.8884719034468,0 35.1495212555489,44.8858634441798,0 35.1502937317451,44.8850702048839,0 35.1492893914381,44.8835470045921,0 35.1492035607497,44.8827232224785,0 35.1482165078322,44.8816858503315,0 35.1476156930129,44.8813807372927,0 35.146199486653,44.8793059254276,0 35.1446545342604,44.8760715096463,0 35.1437962273756,44.8754001928684,0 35.1435387353102,44.8739354743495,0 35.1440966347853,44.8734472265026,0 35.1433670739333,44.872775878904,0 35.1426804284255,44.8717688427227,0 35.1427233437697,44.8706397204541,0 35.1421225289504,44.8697241995405,0 35.1419937829176,44.868900218183,0 35.142594597737,44.8676642238801,0 35.1416504601637,44.867023327426,0 35.1406848649184,44.8653447550473,0 35.1397621850172,44.8650090346583,0 35.1390755395094,44.8643375879669,0 35.1386463860671,44.864062902957,0 35.1371403383138,44.8610443241908,0 35.1360245393636,44.8583583039023,0 35.1356168435934,44.8571831303575,0 35.1354880975607,44.8561452946819,0 35.1349516557577,44.8550311266001,0 35.1349945711019,44.8540237778729,0 35.134822909725,44.8534743074535,0 35.1342220949056,44.8526500919283,0 35.1340504335287,44.8512000543103,0 35.1335998224142,44.8501926381172,0 35.1331277536275,44.8489562394525,0 35.1330848382833,44.8484372493351,0 35.1337929414632,44.8473687254458,0 35.1329346345785,44.8464070368835,0 35.131947581661,44.8451858217633,0 35.1314755128744,44.8439645805787,0 35.1317973779562,44.8414762210102,0 35.1318617509725,44.8395678965012,0 35.1315398858907,44.8394762953243,0 35.130145137203,44.8368197974165,0 35.1300378488424,44.836132752028,0 35.1304884599569,44.8353693585906,0 35.1305528329733,44.8349418538184,0 35.1303811715963,44.8339036146502,0 35.1300163911703,44.8330180428315,0 35.1291795419576,44.8319186932383,0 35.1289649652364,44.8312468580937,0 35.1284499811056,44.8307429765611,0 35.1281066583517,44.8295672357376,0 35.1283412102847,44.828444771434,0 35.1292638901858,44.8273758742305,0 35.1300578240542,44.8266123640102,0 35.1305728081851,44.8257114088549,0 35.1304655198245,44.8246730022769,0 35.1301007393984,44.8235582213146,0 35.12929449443,44.8231422354721,0 35.1279855764307,44.822775724739,0 35.1269126928248,44.8226535539734,0 35.1257539785303,44.8225924684928,0 35.1244450605311,44.8221954112809,0 35.1221920049586,44.8205918829927,0 35.1199604070582,44.8198435544257,0 35.1191879308619,44.8194312059348,0 35.1176858938136,44.8191563052914,0 35.1169563329615,44.8186981346203,0 35.1163769758143,44.8179345086899,0 35.115432838241,44.8173541461734,0 35.1147891080775,44.8166821401231,0 35.1139737165369,44.8158879409895,0 35.1135016477503,44.81523119108,0 35.1133729017176,44.8142995096854,0 35.1128579175867,44.8138260264479,0 35.1113987958826,44.8132761700347,0 35.110197166244,44.8121611672162,0 35.1088453329005,44.8101754920209,0 35.1087380445399,44.8096714250565,0 35.1095319784083,44.8092590033323,0 35.1099182165064,44.8088160285438,0 35.1097894704737,44.8081133718541,0 35.1091457403101,44.8075787359912,0 35.1079655683436,44.8075787359912,0 35.1067424810328,44.8076245621178,0 35.1047683751978,44.8079453439776,0 35.1033736265101,44.8078689675072,0 35.1013995206751,44.8073801556858,0 35.0997687375941,44.8067385838413,0 35.0990177190699,44.8058067643206,0 35.0983525312342,44.8050124144034,0 35.0985671079554,44.8044319209612,0 35.0973654783167,44.8039736325107,0 35.0965500867762,44.803240363366,0 35.0950051343836,44.8031028743568,0 35.0929666555323,44.802232102971,0 35.0924945867457,44.802354317297,0 35.0917221105494,44.801941842902,0 35.0911212957301,44.8022168261619,0 35.0901771581568,44.8017890738541,0 35.0899840391077,44.8019723966627,0 35.089318851272,44.8017279661209,0 35.0886322057642,44.8011779935898,0 35.0885463750758,44.8005669068094,0 35.0879026449122,44.8001849742627,0 35.0856495893397,44.7991002719506,0 35.0859285390772,44.798825273736,0 35.084984401504,44.7984586073974,0 35.0849629438319,44.7980002711753,0 35.0847054517664,44.797679433639,0 35.0846625364222,44.7971752567389,0 35.0841475522913,44.796915527514,0 35.0841690099635,44.7964877356368,0 35.0836325681605,44.7954793564357,0 35.0829244649805,44.794791814991,0 35.082645515243,44.7940737073437,0 35.0821949041285,44.7936764524399,0 35.0817013776698,44.7937222896847,0 35.0815511739649,44.7935542196079,0 35.0823236501612,44.7926069063225,0 35.0823236501612,44.7924082741321,0 35.0820447004237,44.7923624358366,0 35.0818944967188,44.7925763475688,0 35.0802422559657,44.7924235535558,0 35.0782466924586,44.7937681268928,0 35.0773883855738,44.7940125913838,0 35.0762940442957,44.7948376513439,0 35.0760794675745,44.795189062165,0 35.0751997030177,44.795372406086,0 35.0747061765589,44.7963043952834,0 35.0740839040675,44.7966863536911,0 35.0732685125269,44.7967169102538,0 35.072195628921,44.7967627450673,0 35.0717664754786,44.7969766403787,0 35.0710798299708,44.7968238580948,0 35.0707150495448,44.7969766403787,0 35.0709725416102,44.7970988659126,0 35.0702644384303,44.7975877654415,0 35.0698138273157,44.7974960970975,0 35.069685081283,44.7977405456891,0 35.0691057241358,44.7980461049625,0 35.0677109754481,44.7978169356602,0 35.0665308034815,44.7983974961129,0 35.0639987981715,44.7993294361214,0 35.0621319806971,44.799146104858,0 35.0616599119105,44.7993141585385,0 35.0606514013209,44.7992836033605,0 35.0599432981409,44.7987947182974,0 35.0588918722071,44.799237770563,0 35.0583554304041,44.7990544390064,0 35.0576473272242,44.7991766601093,0 35.0573040044703,44.7989627730082,0 35.0569821393885,44.7991766601093,0 35.0569177663721,44.7997724842533,0 35.0562311208643,44.8000627553102,0 35.0555015600123,44.8004599659529,0 35.0541497266688,44.8003988568025,0 35.0538707769312,44.8002155289601,0 35.052926639358,44.8003988568025,0 35.0511671102442,44.8002766383061,0 35.0504804647364,44.8005210750382,0 35.0497079885401,44.8013154872174,0 35.0491715467371,44.8014835345365,0 35.0484419858851,44.8008571738426,0 35.0479270017542,44.8009641139579,0 35.0476051366724,44.8008571738426,0 35.0473047292628,44.8013460413121,0 35.0472618139185,44.8019876735369,0 35.0483561551966,44.8029501084041,0 35.0482703245081,44.8032709164344,0 35.0478197133936,44.8035153403949,0 35.0474549329676,44.8042180534738,0 35.0476480520167,44.8045999591414,0 35.0480557477869,44.8049207579351,0 35.0480342901148,44.8053790388105,0 35.0485063589014,44.8058067643206,0 35.0482917821803,44.8060359016734,0 35.0486351049342,44.8068302374017,0 35.0490642583765,44.8070135440829,0 35.0499737336333,44.8086990516946,0 35.0504028870757,44.8092489520416,0 35.050102479666,44.8100432432249,0 35.049909360617,44.810806974362,0 35.0495231225188,44.8116317925544,0 35.0498235299285,44.812502421096,0 35.0503170563872,44.812914819471,0 35.0510680749114,44.8131592022923,0 35.0512826516326,44.8139687129411,0 35.051003701895,44.8150836805766,0 35.0503814294036,44.8159389835046,0 35.0490939690764,44.816992821335,0 35.0464546754058,44.8188408089769,0 35.0456607415374,44.8188560813536,0 35.0450813843902,44.8186728125643,0 35.044330365866,44.819344795258,0 35.0444591118987,44.8198945934157,0 35.0436866357024,44.819925137603,0 35.042892701834,44.8204902021303,0 35.042527921408,44.8204443862953,0 35.0416481568511,44.8213912394376,0 35.041090257376,44.8214981412282,0 35.0410044266875,44.8220784617523,0 35.0414764954741,44.8227656758201,0 35.0419485642608,44.8228267611158,0 35.0416481568511,44.8233765258458,0 35.0411331727202,44.8235903218153,0 35.0405752732451,44.8235903218153,0 35.0397169663604,44.8224297055284,0 35.0395238473113,44.8227351331477,0 35.0398886277373,44.8233459834992,0 35.0405752732451,44.8240179113598,0 35.0401675774749,44.8243233305081,0 35.0395238473113,44.8243538723333,0 35.0392448975738,44.8241553501781,0 35.0390303208526,44.8237583038028,0 35.0385797097381,44.8242317049346,0 35.0385797097381,44.8245065812152,0 35.0378716065581,44.8247051021527,0 35.0372707917388,44.8246592896897,0 35.0369703843291,44.8250410590944,0 35.0379574372466,44.825483908415,0 35.0378930642302,44.8258198607873,0 35.0370562150176,44.8268429763242,0 35.0352752282317,44.827407972591,0 35.0343525483306,44.828003503161,0 35.0330650880034,44.8289349616311,0 35.0311553551848,44.829958021504,0 35.0292456223662,44.8306756794597,0 35.0278079583343,44.8308589098365,0 35.025962598532,44.8305229870311,0 35.0248467995818,44.8307367563171,0 35.0235593392547,44.8307367563171,0 35.0225937440093,44.8312406379045,0 35.02128482601,44.8318819353287,0 35.019847161978,44.8324621506175,0 35.0174009873565,44.8332408513675,0 35.0143754555877,44.8335767582247,0 35.0134527756865,44.8337141740982,0 35.0124442650969,44.8334851474592,0 35.0100195481475,44.8324163443611,0 35.0090539529021,44.8323858068365,0 35.0078308655913,44.8325690317397,0 35.007230050772,44.8329049425392,0 35.0057065560515,44.8336531004174,0 35.0057494713958,44.8338821263845,0 35.0046765877898,44.8343401755696,0 35.0035178734954,44.8343707120516,0 35.0029814316924,44.8347371485652,0 35.0022733285125,44.8352867989373,0 35.0013721062835,44.8356226937886,0 35.0004065110381,44.8354852824967,0 34.99931216976,44.8348134892103,0 34.9974453522857,44.8337752477139,0 34.9959003998931,44.8331797771817,0 34.9947631432708,44.8320040864045,0 34.99354005596,44.8312253688307,0 34.9920809342559,44.8305535255494,0 34.9909222199614,44.8302786782982,0 34.9906432702239,44.8300190991271,0 34.9898922516997,44.8301259848107,0 34.9895060136016,44.8299885603237,0 34.9892699792083,44.8302328702947,0 34.9885618760283,44.8301717928997,0 34.9877893998321,44.831133754302,0 34.9880683495696,44.8314849425323,0 34.9877035691436,44.8316070944552,0 34.9878537728484,44.83221785016,0 34.9877679421599,44.8324621506175,0 34.9880468918975,44.8327369873859,0 34.9880254342254,44.8331339714996,0 34.9881541802581,44.8335920266714,0 34.9879181458648,44.8342332977542,0 34.9881756379302,44.8345691987877,0 34.9880254342254,44.834966170195,0 34.9859011246856,44.8360043900906,0 34.9831760003264,44.8371647312182,0 34.9800115958813,44.8381258675202,0 34.9757200614575,44.8392556317799,0 34.971857680476,44.840217440534,0 34.9693900481823,44.8406143727682,0 34.9666434661511,44.8409044368906,0 34.9642187492016,44.8409960357817,0 34.9629527465466,44.84085863739,0 34.9622875587109,44.8404769734602,0 34.9617296592358,44.8397747051788,0 34.9615365401867,44.8390418943061,0 34.9604421989086,44.8390418943061,0 34.9596911803845,44.8387212865988,0 34.9587255851391,44.838339608415,0 34.9580389396313,44.8381716692077,0 34.9574381248119,44.8384770128544,0 34.9569231406811,44.8386296840668,0 34.9553352729443,44.8385380813882,0 34.9552923576,44.8383854099314,0 34.952588690913,44.8387365536732,0 34.9520307914379,44.8385075471294,0 34.9514299766186,44.8383854099314,0 34.9510651961926,44.8380800657961,0 34.9505287543896,44.8380800657961,0 34.9499064818981,44.8382785396694,0 34.9491125480297,44.8383243412347,0 34.9484259025219,44.8381564019826,0 34.9480611220959,44.8377899873586,0 34.9475246802929,44.837133488624,0 34.9467951194408,44.8367059970278,0 34.9457651511791,44.8363090376867,0 34.9443918601635,44.8362632345086,0 34.9428469077709,44.8363090376867,0 34.9417311088207,44.8365838559853,0 34.940701140559,44.836553320684,0 34.93979991833,44.8361868957971,0 34.9397570029858,44.8358815399327,0 34.9401217834118,44.8356677898584,0 34.9396282569531,44.8354693069318,0 34.9393707648876,44.8351486792119,0 34.9388557807568,44.8351486792119,0 34.9384051696423,44.8348738540225,0 34.9381905929211,44.8343547361757,0 34.9375039474133,44.8340035655509,0 34.9372464553478,44.8337134664533,0 34.9365812675121,44.833469171336,0 34.9363881484631,44.8330111151811,0 34.9354010955456,44.8325530553609,0 34.9350363151196,44.8320949918754,0 34.934220923579,44.8317896141821,0 34.9337059394482,44.8315147728653,0 34.9330622092846,44.8315147728653,0 34.9323326484325,44.8313468136333,0 34.9307233230236,44.8316063867842,0 34.9303156272533,44.8315758488275,0 34.9295860664013,44.831988109868,0 34.9285346404675,44.8320949918754,0 34.9278050796154,44.8319117654549,0 34.9273544685009,44.831239930229,0 34.9276334182385,44.8309192788189,0 34.9273330108288,44.8308429329804,0 34.9265605346325,44.8308276638005,0 34.925938262141,44.8314536968379,0 34.9252945319775,44.8313620826747,0 34.9248224631908,44.8311788539084,0 34.9239212409618,44.8310719701906,0 34.9231487647656,44.8311635848181,0 34.9227625266674,44.8309040096594,0 34.9209386245373,44.8306138948539,0 34.9195438758495,44.8305833563678,0 34.9181062118176,44.8298962361237,0 34.9166470901135,44.8286441291398,0 34.9154669181469,44.8271934831499,0 34.9150592223766,44.8262314555401,0 34.9153596297863,44.8255748242392,0 34.9161535636547,44.825208329076,0 34.9171406165722,44.824963997664,0 34.9188357726696,44.8241699133747,0 34.9187713996533,44.8238339513218,0 34.9189430610302,44.8233147333629,0 34.918900145686,44.822566440376,0 34.9181276694897,44.8227191540246,0 34.9178487197521,44.8223068262386,0 34.9173122779492,44.8223679120239,0 34.9171835319164,44.8221388399932,0 34.917290820277,44.8218181376108,0 34.9166470901135,44.8213752599395,0 34.916024817622,44.8216654215593,0 34.9144154922131,44.8215737917329,0 34.9141580001476,44.8213294448125,0 34.9124413863781,44.8213599882346,0 34.9112182990673,44.8215127051006,0 34.9098450080517,44.8213599882346,0 34.9093729392651,44.8209018351931,0 34.9091154471996,44.8198175250594,0 34.9090510741833,44.8185957425638,0 34.9089008704784,44.8181681125326,0 34.9087721244457,44.8176335705036,0 34.9094587699535,44.8168852032816,0 34.9100166694286,44.8167782928803,0 34.910617484248,44.8168241116481,0 34.9105101958874,44.8165339254992,0 34.910081042445,44.8161673724728,0 34.9089223281506,44.8160757338496,0 34.907913817561,44.8163506492792,0 34.9072271720532,44.8169921134834,0 34.9069911376598,44.8176946612737,0 34.9074846641186,44.8182902928674,0 34.9078923598888,44.8190233694021,0 34.9078279868725,44.8196800758298,0 34.907012595332,44.820428406533,0 34.9062830344799,44.8204436784863,0 34.9055963889721,44.8208712915267,0 34.9045235053661,44.8209018351931,0 34.9040943519238,44.8205505820458,0 34.9039226905468,44.8200771504819,0 34.9030429259899,44.8200313343164,0 34.9022489921215,44.8193746319164,0 34.9012404815319,44.8193899041508,0 34.9010044471386,44.8191608202078,0 34.9003821746471,44.8191608202078,0 34.8997813598278,44.8187179219863,0 34.8987943069103,44.8185499252132,0 34.8985153571728,44.8178626605555,0 34.8979574576977,44.817129569164,0 34.8974424735668,44.8167019281857,0 34.896927489436,44.8160146413528,0 34.8958975211742,44.8159535487907,0 34.894223822749,44.8161368262813,0 34.8926788703564,44.8162742840145,0 34.891884936488,44.8159993682183,0 34.891176833308,44.8162284648067,0 34.8886019126537,44.8163048301326,0 34.8876792327526,44.8170226592187,0 34.8863488570812,44.8175877523833,0 34.8853832618359,44.8182750203398,0 34.8849755660656,44.8189928247339,0 34.8849326507214,44.8198480692878,0 34.8844176665905,44.8211767274579,0 34.8821431533459,44.8218334091935,0 34.8774653808239,44.8223220976911,0 34.8754698173168,44.8221388399932,0 34.8740106956127,44.82238318346,0 34.8707705871227,44.822062482446,0 34.8688608543041,44.8215890633808,0 34.8670584098461,44.8218028660239,0 34.8643547431591,44.8218028660239,0 34.8628097907665,44.8213752599395,0 34.8615008727673,44.8208560196874,0 34.8596769706371,44.8198175250594,0 34.8596340552929,44.8195731706455,0 34.8590332404736,44.819359359678,0 34.8569947616222,44.8189622800493,0 34.8539263145092,44.8177252066343,0 34.8534327880505,44.8173281156757,0 34.8527246848705,44.8173739340037,0 34.8489695922497,44.8162131917294,0 34.8479825393322,44.8159688219373,0 34.8463946715954,44.8159840950799,0 34.8453861610058,44.8155869920501,0 34.8457509414318,44.8153731662014,0 34.8454076186779,44.8152662529777,0 34.8442918197277,44.815144066192,0 34.8441416160229,44.8153273462728,0 34.8444634811047,44.8154953524984,0 34.8442489043835,44.8157855439091,0 34.8425537482861,44.8164422874625,0 34.841995848811,44.8164881064992,0 34.8415237800243,44.8167172011327,0 34.8388415710095,44.817282297311,0 34.8375755683544,44.8178932058265,0 34.8363095656994,44.8180459319373,0 34.8351293937328,44.8186262874439,0 34.8337775603893,44.8190539140541,0 34.8325759307507,44.8189928247339,0 34.8307949439648,44.8192371816239,0 34.8289495841625,44.8192066370697,0 34.8265677825573,44.8188859182666,0 34.8258596793774,44.8188859182666,0 34.8233920470837,44.8194204486073,0 34.8200446502331,44.8194051763811,0 34.8181992904308,44.8193288151889,0 34.8152595893505,44.8195731706455,0 34.8120194808605,44.8200618784308,0 34.8109465972546,44.8199549739591,0 34.8086506263378,44.8202451427751,0 34.8065477744701,44.820199326744,0 34.8042518035534,44.8200160622531,0 34.8015695945385,44.8198327971757,0 34.7967630759838,44.8194968096773,0 34.7933942214611,44.819069186374,0 34.7909909621838,44.8183055653909,0 34.789059771693,44.8181375674082,0 34.7873860732678,44.8183208379103,0 34.7860556975964,44.8187179219863,0 34.7845322028759,44.8191455479123,0 34.7814208404186,44.8191760924992,0 34.7806269065502,44.8190539140541,0 34.7779232398632,44.8191150033092,0 34.7745329276684,44.8188095563821,0 34.7713357345226,44.8183361104257,0 34.7688990580511,44.8175848052545,0 34.7678261744451,44.8173862596326,0 34.7667962061834,44.8173404413145,0 34.7656804072332,44.8173862596326,0 34.763126944251,44.8170197120609,0 34.7603159892034,44.8164851593138,0 34.7584491717291,44.8160422404012,0 34.7566038119268,44.8153854922609,0 34.7554236399603,44.814713463113,0 34.7539859759283,44.8133693811637,0 34.7517114626837,44.8120252676763,0 34.7512608515691,44.8115517656405,0 34.750338171668,44.8113990222134,0 34.7493511187505,44.8108796915149,0 34.7477203356695,44.8105131023051,0 34.7461539256048,44.8104061800103,0 34.7445016848516,44.8107422208361,0 34.7435360896063,44.8112921015721,0 34.7418194758367,44.8117045086603,0 34.7377639758062,44.8122238318814,0 34.7342878329229,44.8120863644281,0 34.7322493540716,44.8124071213061,0 34.7311120974493,44.8123154766671,0 34.73022023684,44.8121965060168,0 </coordinates>
          </LinearRing>
        </outerBoundaryIs>
      </Polygon>
    </Placemark>
  </Document>
</kml>