<?xml version="1.0" encoding="UTF-8"?>
<kml xmlns="http://earth.google.com/kml/2.2">
  <Document>
    <Placemark>
      <name>Феодосия</name>
      <description>14.08.2018 16:41:08</description>
      <Style>
        <LineStyle>
          <color>A6000000</color>
          <width>1</width>
        </LineStyle>
        <PolyStyle>
          <color>3300FFFF</color>
          <fill>1</fill>
        </PolyStyle>
      </Style>
      <Polygon>
        <extrude>1</extrude>
        <outerBoundaryIs>
          <LinearRing>
            <coordinates>35.1502937317451,44.8850702048839,0 35.1495212555489,44.8858634441798,0 35.1460021973213,44.8884719034468,0 35.1431268692574,44.8921632036896,0 35.1392430306038,44.894024016692,0 35.1388997078499,44.8946951147054,0 35.1393717766365,44.8957017469423,0 35.1412171364387,44.8965558452317,0 35.1429122925362,44.8969981411122,0 35.1460236549934,44.8974099307497,0 35.1474827766975,44.8980047327627,0 35.1483625412544,44.9009328985148,0 35.1516026497444,44.9028086758055,0 35.150980377253,44.9039981611876,0 35.1501649857124,44.9051723724546,0 35.14973583227,44.9071547522661,0 35.1522249222359,44.9087101097787,0 35.155486488398,44.9091980563454,0 35.1596063614449,44.9112412872994,0 35.160974536023,44.9124898636579,0 35.1626696921204,44.9163473219423,0 35.1639142371033,44.9186342294555,0 35.1663604117249,44.9208448196185,0 35.1721194627734,44.9226706073154,0 35.1733210924121,44.9239511449266,0 35.1727846506091,44.9264816466549,0 35.1674416902514,44.9268627365898,0 35.1606825235339,44.9263139662772,0 35.1572707536669,44.9269389542713,0 35.1503399255725,44.9305820407049,0 35.1446965578051,44.9317557051989,0 35.1392892244311,44.9314508595997,0 35.1361778619738,44.9308868909467,0 35.1333225453697,44.9290212913549,0 35.1316488469444,44.9275427041252,0 35.1323140347801,44.9243872403552,0 35.1315844739281,44.9232134242797,0 35.1283872807823,44.9240518667975,0 35.1278293813072,44.9252104216402,0 35.1289451802574,44.9264756586096,0 35.1279795850121,44.9276798942437,0 35.1253832066856,44.9279847599928,0 35.1218856061302,44.9269634533213,0 35.1187098706566,44.9269634533213,0 35.1152766431175,44.9271463752631,0 35.1136029446922,44.9267348000695,0 35.1119790570294,44.9255266396346,0 35.1115069882428,44.9236516087059,0 35.1123009221112,44.9212429419866,0 35.1090608136212,44.9203129864942,0 35.1032886998212,44.9194135069294,0 35.0949202076947,44.9166387518401,0 35.0929031865155,44.9150683636368,0 35.0928602711713,44.9134216965949,0 35.0805688167195,44.9139286549083,0 35.0593139154184,44.9124229043896,0 35.055770722498,44.9140083451781,0 35.0488184367314,44.9203354913024,0 35.0496767436161,44.9285216249572,0 35.0574444209233,44.9222106311913,0 35.0585387622014,44.9247107218688,0 35.0617788706913,44.9291465887695,0 35.0719699567935,44.9382097011061,0 35.0853595441959,44.9317778412621,0 35.0930843061588,44.9308480574527,0 35.09977909986,44.9334544622893,0 35.1031694120548,44.9316711455291,0 35.1119670576236,44.9357254431009,0 35.114735097327,44.933347769692,0 35.1150784200809,44.9305889346746,0 35.1239618963382,44.9307413599807,0 35.1274594968936,44.9312138758416,0 35.1296052641056,44.9322503485383,0 35.131493539252,44.9337135720518,0 35.1343259519718,44.9342470296217,0 35.1410207456729,44.9365789427147,0 35.1424154943607,44.9377067619018,0 35.1423511213443,44.9391698454539,0 35.1371154493473,44.9416387138426,0 35.1319656080387,44.9452046683872,0 35.127159089484,44.9438026957656,0 35.1259360021732,44.944076997469,0 35.1263007825992,44.9448541784632,0 35.1276097005985,44.9462256484959,0 35.1278457349918,44.9470789909794,0 35.1259360021732,44.9481913646846,0 35.1231250471256,44.9473532769225,0 35.1199278539798,44.9445798804983,0 35.1169881528995,44.9436655444191,0 35.1158723539493,44.9445494028652,0 35.1208290762088,44.9483285051455,0 35.1249704069278,44.9509341112289,0 35.1278242773197,44.9522749615176,0 35.1247129148624,44.9548499151109,0 35.1220950788639,44.9551241636694,0 35.1175460523746,44.955246051494,0 35.1137051290653,44.9557488360158,0 35.1114306158206,44.9564649154059,0 35.1113447851322,44.9578665766837,0 35.1162800497196,44.9579427529395,0 35.1196918195865,44.958856860068,0 35.1215157217166,44.9596490743871,0 35.1241979307315,44.9584759838794,0 35.1273951238773,44.956541093535,0 35.1308927244327,44.9540881066366,0 35.133574206528,44.9542533077474,0 35.1335963911197,44.9563735015166,0 35.1339611715457,44.9580341643121,0 35.1365790075443,44.9588416250693,0 35.1385531133792,44.9586130996005,0 35.1425227827213,44.9562668517937,0 35.1446041769168,44.9564192084796,0 35.1478872007511,44.9575161645957,0 35.150934190192,44.958064634737,0 35.156706303992,44.9567696273114,0 35.1597318357608,44.9565715647581,0 35.1650318807743,44.9575466352976,0 35.1676711744449,44.9586130996005,0 35.1683578199527,44.9608373752189,0 35.1661654233043,44.9628406124345,0 35.1622815846507,44.9636327713782,0 35.1569600819652,44.9642878175714,0 35.152968954951,44.9651408896972,0 35.1499434231822,44.9658873173311,0 35.1473470448558,44.9684159586843,0 35.1478191136424,44.9693908265828,0 35.1500077961986,44.9697107014773,0 35.1532049893443,44.9704113735423,0 35.1552863835399,44.9713252806769,0 35.1555867909496,44.9729855077961,0 35.1563592671459,44.9750721466527,0 35.1556297062938,44.9764428897038,0 35.1580244852627,44.9795131751958,0 35.1661605559178,44.9797354831313,0 35.1644557365158,44.9844255144326,0 35.1664191135147,44.986321388854,0 35.1707824047288,44.9855807813702,0 35.171706961798,44.9877733082579,0 35.187098677444,44.9875387769999,0 35.1935504172884,44.9910181361162,0 35.1926271204754,44.9996022818968,0 35.1956021077602,45.0111952375644,0 35.2000783467569,45.011269915647,0 35.2027306442583,45.0149061062235,0 35.2287940861122,45.0164232830095,0 35.2358704982846,45.0190033253732,0 35.2335914884854,45.0287180891149,0 35.2377542768765,45.028436586661,0 35.2371498425829,45.0395681179329,0 35.2303947475996,45.0444626370939,0 35.231351579113,45.0597697746828,0 35.2371972940583,45.0593396506324,0 35.2444432520692,45.0576672060282,0 35.2498708950753,45.0567295826164,0 35.2590533460204,45.0761583972937,0 35.2604497508173,45.1111567332227,0 35.2630918384333,45.1138418472919,0 35.2934519409592,45.1080584871082,0 35.3073906457069,45.0929299461777,0 35.3142150943175,45.0889591847414,0 35.3159638945952,45.088875583685,0 35.3170367782011,45.0895671887187,0 35.3179380004301,45.0904639826926,0 35.3210171763792,45.0907299781795,0 35.3223368232145,45.0919155428969,0 35.3316175880692,45.0920882726431,0 35.3364028907339,45.0937033172737,0 35.3431419474258,45.0982753055594,0 35.3442633626917,45.10214038953,0 35.3351151227628,45.1140402138245,0 35.3345609062329,45.1169209664897,0 35.3351416627905,45.1199687330111,0 35.3397476988043,45.1273357627161,0 35.3756299264528,45.1252398609048,0 35.3765394095509,45.1379719498497,0 35.4072667960255,45.1392476472517,0 35.4422632512169,45.143674029958,0 35.4291191075951,45.1655493713321,0 35.4282648018008,45.1715990372956,0 35.4702360084658,45.1715990372956,0 35.4827672889834,45.1677740454398,0 35.489547913373,45.1672883136855,0 35.5053407600527,45.1630379829725,0 35.5104047706728,45.1655882197091,0 35.5080015113955,45.1727525555155,0 35.5086023262148,45.1756058942739,0 35.515125458539,45.1771235690205,0 35.5146250025299,45.1696707062949,0 35.5240102617849,45.1515291587939,0 35.5257697908987,45.1517720928235,0 35.5307908861746,45.1421450341751,0 35.5292888491262,45.1353717062238,0 35.5304078000357,45.1354680260156,0 35.5305794614127,45.1306988823844,0 35.5374030011466,45.1289369315885,0 35.5386046307852,45.1270230264003,0 35.5332831280997,45.1259900983285,0 35.5241850751212,45.1241976196349,0 35.5173615353873,45.1225569962201,0 35.5087784665396,45.1200655883597,0 35.499122514086,45.1173309902469,0 35.4982642072013,45.1159332558174,0 35.496590508776,45.115355920669,0 35.4958609479239,45.1160851851424,0 35.4922560590079,45.115629395946,0 35.4889515775016,45.1146266468135,0 35.4833725827506,45.1125907076456,0 35.4777935879996,45.1105546953595,0 35.4772356885245,45.1108281937984,0 35.4752186673453,45.110098861696,0 35.4695967572501,45.1077892481428,0 35.4634169476798,45.1054187574576,0 35.4594258206656,45.1035648431236,0 35.4563788312247,45.1022579490576,0 35.4484394925406,45.0984890626354,0 35.4406288998892,45.0942943623159,0 35.4333332913687,45.0900385522645,0 35.4227975707083,45.0833093904205,0 35.4087998747462,45.0731557428607,0 35.4041221022243,45.0689591694815,0 35.4005172133082,45.0646710458554,0 35.3994993633202,45.0648087395185,0 35.3949074214867,45.0600640666871,0 35.3905511543383,45.0549167579749,0 35.3882766410937,45.0516618749137,0 35.3861308738817,45.0486806034417,0 35.3848434135546,45.0449081581951,0 35.3838992759813,45.0419873834125,0 35.3830409690966,45.0394011554377,0 35.383298461162,45.0387317596133,0 35.3830745950549,45.0352625835117,0 35.3838899865954,45.0324934662157,0 35.3869369760364,45.0295416212339,0 35.3926018014758,45.0296024855645,0 35.3927734628528,45.0281721565701,0 35.3895118966907,45.0280199917935,0 35.3888252511829,45.0271678615192,0 35.3910568490832,45.0247635679708,0 35.3957346216052,45.0249461761114,0 35.3967645898669,45.0255548656783,0 35.3978374734729,45.0254331282862,0 35.3991678491443,45.0245200895379,0 35.4011848703235,45.0241548699337,0 35.4027727380603,45.0235157299822,0 35.4049185052722,45.0237896479839,0 35.4086092248767,45.0232418106611,0 35.411184145531,45.0235461653809,0 35.4130113649728,45.0224662343047,0 35.4148567247751,45.0213705288831,0 35.4156721163156,45.0203965507857,0 35.4162300157907,45.0200617419624,0 35.4173458147409,45.0189051144984,0 35.4177749681833,45.0173223230101,0 35.4182899523141,45.0162873970683,0 35.420607380903,45.0148567331425,0 35.4227531481149,45.0144001306981,0 35.424212269819,45.0145523319201,0 35.4253709841134,45.0136086777789,0 35.4249847460153,45.012482360409,0 35.4237831163766,45.0121170635,0 35.4188478517892,45.0099556754589,0 35.4145134020212,45.0081290863372,0 35.4098356294992,45.0068199947275,0 35.4082048464181,45.0063633277778,0 35.4049861956003,45.0049324142688,0 35.4027975130441,45.0047192964122,0 35.4012954759958,45.0038363710747,0 35.3994501161935,45.0037145871944,0 35.3973043489816,45.00237494731,0 35.3964031267526,45.0022227135096,0 35.3955877352121,45.0017660096647,0 35.3926694918039,45.0009134860149,0 35.3904378939035,45.0013093021548,0 35.3885067034128,45.0006699054836,0 35.3830135393503,44.9979295526705,0 35.3809106874826,44.9979295526705,0 35.3789365816476,44.99762506088,0 35.376662068403,44.9978077561498,0 35.3746450472238,44.9975032637077,0 35.3738296556833,44.996955173207,0 35.3711259889963,44.9957676256832,0 35.3704393434884,44.9957371754209,0 35.3675211000802,44.9943364457466,0 35.3667007792001,44.994376508743,0 35.3655635225778,44.994665792492,0 35.3648125040536,44.9944374107071,0 35.3640400278573,44.9938740650534,0 35.3625809061532,44.9922601250193,0 35.3610359537606,44.9915292691978,0 35.3606711733346,44.9910268003778,0 35.3603063929086,44.9909049890869,0 35.3595339167123,44.9897173153422,0 35.3591691362862,44.9897173153422,0 35.3586756098275,44.9890473346072,0 35.358589779139,44.9884839356141,0 35.3577100145821,44.9881184846376,0 35.3569375383859,44.9871591646641,0 35.3552638399606,44.9837328899573,0 35.3541694986825,44.980900347209,0 35.3537618029122,44.9783418004052,0 35.353354107142,44.9759811344484,0 35.3534613955026,44.9753262226856,0 35.3539334642892,44.9749149951722,0 35.3544913637643,44.9746408418473,0 35.3556500780587,44.9743971488952,0 35.3569804537301,44.9738792979106,0 35.3578816759591,44.9732700554311,0 35.3582893717294,44.9725694185244,0 35.3589331018929,44.9721581711094,0 35.3591905939584,44.9715489102227,0 35.3597029456938,44.9712120409325,0 35.3605397949064,44.9710444920556,0 35.3607972869718,44.9706027699273,0 35.3614839324797,44.9702981319814,0 35.3617843398893,44.9698716361203,0 35.3622564086759,44.9697345474869,0 35.3625139007414,44.9692928152022,0 35.3621491203153,44.9689881702517,0 35.3621705779875,44.9685311997717,0 35.3625782737577,44.967921900097,0 35.3635009536588,44.9670079383678,0 35.3645738372648,44.9667489798792,0 35.3645952949369,44.9662615254137,0 35.3643378028715,44.966063495846,0 35.3643807182157,44.965804533065,0 35.3649171600187,44.9655151026818,0 35.3645738372648,44.9649819376012,0 35.3640159377897,44.9646011023465,0 35.3639515647734,44.9639308261163,0 35.3641017684782,44.9632300743549,0 35.3646414304661,44.9627037622973,0 35.3656284833836,44.9616830772804,0 35.3659503484654,44.9612260482131,0 35.366422417252,44.9611346419599,0 35.3670017743992,44.9605404977402,0 35.3670017743992,44.9600682248393,0 35.3674523855137,44.9596873567459,0 35.3674953008579,44.9593826604387,0 35.3679244543003,44.9590017877639,0 35.3678171659397,44.9588342029807,0 35.3684394384312,44.9574782716124,0 35.3689973379063,44.9559394789624,0 35.370198967545,44.9545987148667,0 35.3721730733799,44.9539283209926,0 35.3744046712803,44.9541111564674,0 35.3749196554112,44.9545987148667,0 35.3768079305577,44.9546596593734,0 35.3787391210484,44.9547206038149,0 35.3794686819004,44.9551472130812,0 35.3845326925206,44.9561223079866,0 35.3849618459629,44.9555433473983,0 35.3859059835362,44.9550862690958,0 35.3877513433384,44.9547206038149,0 35.3907125020909,44.9544768256578,0 35.3904979253697,44.9540502113743,0 35.3898112798619,44.9538064303502,0 35.3889529729771,44.9539587936124,0 35.3883092428135,44.953623593898,0 35.3882663274693,44.9532274462397,0 35.385863068192,44.9516123542194,0 35.3844897771763,44.9503019629207,0 35.3837602163243,44.9493572435328,0 35.38371730098,44.9484125084906,0 35.3838031316685,44.9470715673592,0 35.3821723485875,44.9475287099242,0 35.3813140417027,44.9474982338673,0 35.3814857030796,44.9468887093069,0 35.3804128194737,44.9469801384063,0 35.3790395284581,44.9476201379974,0 35.378309967606,44.9487172634404,0 35.3769366765904,44.9503019629207,0 35.3749196554112,44.951520932548,0 35.3723447347569,44.9519780394388,0 35.3699843908238,44.9517951971223,0 35.3686969304966,44.9522218282819,0 35.3684394384312,44.9532579192343,0 35.3664653325962,44.9543549361883,0 35.3645770574498,44.9545377702948,0 35.3609721685337,44.9550253250452,0 35.3597276235508,44.9560004220356,0 35.3586547399449,44.9563660791066,0 35.3560369039463,44.9565793779814,0 35.3554790044712,44.9563051364243,0 35.3539769674229,44.9564270217237,0 35.3531615758824,44.9568231471466,0 35.3530757451939,44.9580115068978,0 35.3550927663731,44.9584685617432,0 35.3553502584385,44.9597178262871,0 35.3542773748326,44.9619725271272,0 35.3526036764073,44.9634045205307,0 35.3501145864415,44.9644099412053,0 35.3472821737217,44.965293478063,0 35.3453938985753,44.9651716117247,0 35.3443210149693,44.9658114070931,0 35.3423039937901,44.9665121271113,0 35.3411881948399,44.9664207293367,0 35.3404586339879,44.9667253880151,0 35.3391711736607,44.966969113785,0 35.3380982900547,44.9667253880151,0 35.3370254064488,44.9672128385123,0 35.3353517080235,44.9673956313736,0 35.3341500783848,44.9670300450645,0 35.3332059408116,44.9659942044504,0 35.3323905492711,44.9663597974056,0 35.3311030889439,44.9666035247392,0 35.3299014593052,44.9664816612027,0 35.3287427450108,44.9656895418625,0 35.3276698614048,44.9648364779505,0 35.3269403005528,44.9658723396107,0 35.3269403005528,44.966969113785,0 35.3264253164219,44.9678830761369,0 35.3245799566197,44.9688274884988,0 35.3225200200962,44.9693758497833,0 35.3214900518345,44.9692539921762,0 35.3205888296055,44.9698023493558,0 35.3194730306553,44.9698937417059,0 35.3185718084263,44.9697718852065,0 35.3168122793126,44.9699851339095,0 35.3140227819371,44.9701069899528,0 35.3120915914463,44.9696195642157,0 35.3082721258091,44.9687970238283,0 35.3051393056797,44.9684009816287,0 35.3029077077794,44.9678526109614,0 35.2999465490269,44.9669995794329,0 35.2971141363072,44.9655676763713,0 35.2959554220128,44.9645318091726,0 35.2954833532261,44.9630693763637,0 35.2952258611607,44.9618811220712,0 35.2946250463414,44.9616069060237,0 35.2941529775547,44.9620639320366,0 35.2942817235875,44.963465455622,0 35.2943675542759,44.9650497451258,0 35.2934663320469,44.9661465351335,0 35.2911489034581,44.967090976279,0 35.2896468664097,44.9671823729784,0 35.2884023214268,44.9674870275844,0 35.2871148610997,44.9670300450645,0 35.2852265859532,44.9674260967935,0 35.2844541097569,44.9674260967935,0 35.2829949880528,44.9680049366761,0 35.2810208822178,44.968309586884,0 35.2793471837925,44.9684009816287,0 35.2775018239903,44.9686447002311,0 35.2766006017613,44.9692235277337,0 35.2744977498936,44.9692539921762,0 35.2712790990757,44.9689493470181,0 35.2681462789463,44.9681267969547,0 35.2617518926548,44.9655981427685,0 35.2573316121983,44.9631607795138,0 35.2532546544957,44.9603576828879,0 35.2498214269566,44.9572192698166,0 35.2477185750889,44.9545072979845,0 35.2469890142369,44.9525570362389,0 35.2472894216465,44.9512771407077,0 35.2476756597447,44.9502714883461,0 35.2468602682042,44.9494181936432,0 35.2463023687291,44.9487782142349,0 35.2463881994175,44.9475896619893,0 35.2472894216465,44.9468887093069,0 35.2472465063023,44.9457915486782,0 35.2489631200718,44.9448162770629,0 35.24934935817,44.9438105107389,0 35.2493064428257,44.9429571193405,0 35.2508084798741,44.9422256308343,0 35.2508513952183,44.9413417363706,0 35.2520959402012,44.9406711866045,0 35.2521817708897,44.9393300634196,0 35.2529971624302,44.9391471805418,0 35.2535550619053,44.9378060215195,0 35.2532975698399,44.9374707268363,0 35.2524821782994,44.9374402454038,0 35.2517526174473,44.9370439852979,0 35.2520959402012,44.9357942238544,0 35.2512376333165,44.9358551884626,0 35.2500360036778,44.9348187812624,0 35.250078919022,44.9343005706007,0 35.2495210195469,44.9342091211717,0 35.2480618978428,44.9326849424379,0 35.2484052205967,44.9321971966421,0 35.2476327444004,44.9315875085331,0 35.2479760671544,44.93122169254,0 35.2470748449254,44.9300327743624,0 35.246474030106,44.9286304287679,0 35.2460019613194,44.9275634035944,0 35.2466027761387,44.9268926918431,0 35.2462594533848,44.926709769088,0 35.2457873845982,44.9269536659644,0 35.2449290777134,44.9265878202588,0 35.2446286703038,44.9255817324732,0 35.2450578237462,44.9251549019927,0 35.2440278554844,44.925124413979,0 35.2432982946324,44.9243622083439,0 35.2434270406651,44.924026834639,0 35.2429549718785,44.9233255923414,0 35.2422683263707,44.9232036362796,0 35.2422683263707,44.922685320109,0 35.2418391729283,44.9218925921539,0 35.242697479813,44.9212218137447,0 35.2420537496495,44.9204595559821,0 35.2412812734532,44.9196667971089,0 35.2396934057164,44.9187215702142,0 35.2396075750279,44.9182337050467,0 35.2382771993565,44.9175933756859,0 35.2380626226353,44.9171664854543,0 35.2370326543736,44.9172884544177,0 35.2367751623082,44.9164346662006,0 35.235659363358,44.9164651588568,0 35.235487701981,44.9160992459068,0 35.2341144109654,44.9163431881341,0 35.2315394903111,44.9169530391412,0 35.2314107442784,44.9161602315614,0 35.2320115590977,44.9158248096549,0 35.2322261358189,44.9150929731991,0 35.2312390829014,44.9155198789386,0 35.2298228765416,44.9155198789386,0 35.2295224691319,44.9149709995442,0 35.2289216543126,44.9151844532692,0 35.22737670192,44.9145745833659,0 35.2268617177891,44.9140866827518,0 35.2256171728062,44.9134463068671,0 35.2247588659214,44.9135072953561,0 35.2240293050694,44.9128974075339,0 35.2231709981846,44.9124704821814,0 35.2225701833653,44.9127449345602,0 35.221797707169,44.9120435536361,0 35.2208535695958,44.9122875131958,0 35.2200810933995,44.9119825635832,0 35.2194373632359,44.9121655335462,0 35.2179353261876,44.9117081075392,0 35.217119934647,44.9117995930338,0 35.2164332891392,44.9115251361101,0 35.2157466436314,44.9117690978852,0 35.2129142309117,44.911220182425,0 35.2125279928135,44.911555631389,0 35.211712601273,44.9112506778669,0 35.2108542943882,44.911555631389,0 35.2097814107823,44.9115251361101,0 35.2067344213414,44.9125009769553,0 35.2042024160313,44.9124704821814,0 35.2026574636387,44.9121045436237,0 35.2020566488194,44.911220182425,0 35.2012841726231,44.9110677049717,0 35.1998679662632,44.9116166218979,0 35.1984088445591,44.9112811732924,0 35.1976363683629,44.9104577910857,0 35.1963489080357,44.9105187827675,0 35.1950614477086,44.910915227111,0 35.1940743947911,44.9104882869347,0 35.1931731725621,44.9094819153149,0 35.1918857122349,44.9091769507157,0 35.1890962148594,44.9089329778634,0 35.187036278336,44.9086585071585,0 35.1849334264683,44.9076216059206,0 35.18343138942,44.9065541879175,0 35.1827447439122,44.9065541879175,0 35.1819293523716,44.9057002391474,0 35.1802556539463,44.9045107892204,0 35.1785390401768,44.9036873093721,0 35.1769082570958,44.9024368172645,0 35.1765649343419,44.9015523063127,0 35.1757066274571,44.9016133075079,0 35.1741616750645,44.9022233158753,0 35.1712434316563,44.9021013147231,0 35.1699988866734,44.9016743086378,0 35.1675527120518,44.9013693023364,0 35.1660506750035,44.9004542736582,0 35.1658360982823,44.8996612369446,0 35.1639049077916,44.8988681892191,0 35.1626174474644,44.8980751304815,0 35.1625316167759,44.896977030973,0 35.1611583257603,44.8967940123357,0 35.1590554738926,44.8951163141675,0 35.1569097066807,44.893194526625,0 35.1551930929112,44.8906015362068,0 35.1536052251744,44.88864908928,0 35.1540343786168,44.8870626770214,0 35.1529614950108,44.8864525067315,0 35.1521890188145,44.8864830154008,0 35.1510732198643,44.8858728389207,0 35.1502937317451,44.8850702048839,0 </coordinates>
          </LinearRing>
        </outerBoundaryIs>
      </Polygon>
    </Placemark>
  </Document>
</kml>