<?xml version="1.0" encoding="UTF-8"?>
<kml xmlns="http://earth.google.com/kml/2.2">
  <Document>
    <Placemark>
      <name>Черноморский</name>
      <description>07.10.2018 12:58:12</description>
      <Style>
        <LineStyle>
          <color>A6000000</color>
          <width>1</width>
        </LineStyle>
        <PolyStyle>
          <color>80008000</color>
          <fill>1</fill>
        </PolyStyle>
      </Style>
      <Polygon>
        <extrude>1</extrude>
        <outerBoundaryIs>
          <LinearRing>
            <coordinates>32.983228343987,45.3276990177276,0 32.9843441429372,45.3285314966533,0 32.984311956429,45.3287812379294,0 32.9836145820851,45.3294623448666,0 32.981801408791,45.3305293958254,0 32.9808465423817,45.3308169663809,0 32.9764416536645,45.3325607955746,0 32.973823817666,45.334069229766,0 32.9681213501275,45.3367067386666,0 32.9640014770806,45.3385921370898,0 32.9572423103631,45.3418047113763,0 32.9482300880731,45.3451829966108,0 32.9400761726678,45.3487118828562,0 32.9352193740348,45.3510264740061,0 32.9274210812695,45.3541916492361,0 32.9196913841546,45.357065719473,0 32.9118807915032,45.3596590785472,0 32.903555214721,45.3615889430438,0 32.8953154686273,45.3626141567837,0 32.8917964103997,45.3629458396044,0 32.8865607384026,45.3642423992451,0 32.8838999870599,45.3645439204842,0 32.8799517753899,45.3644233121814,0 32.8762610557855,45.3647851363184,0 32.8738577965081,45.3654786261124,0 32.8706391456902,45.3667449768431,0 32.8691371086419,45.3668052785517,0 32.8660042885125,45.3663530141701,0 32.863386452514,45.3664736183587,0 32.8611119392693,45.3673479910367,0 32.8593524101556,45.3681017497388,0 32.8565199974358,45.3688253486433,0 32.8536017540276,45.3687951988738,0 32.850597679931,45.3674384426113,0 32.8478510978997,45.3668655801961,0 32.8443749550164,45.3671067861306,0 32.8397400978387,45.3680715995836,0 32.837808907348,45.3685540001389,0 32.8333886268914,45.3687650490881,0 32.8308137062371,45.368252500274,0 32.8283675316155,45.3675590444857,0 32.8168662193597,45.3662022585726,0 32.8029187324822,45.3664133162965,0 32.8008587959588,45.3665942222903,0 32.7978976372064,45.3662625608598,0 32.7951510551751,45.3662625608598,0 32.7939494255364,45.3661419562212,0 32.7902587059319,45.3661118050213,0 32.7851946953118,45.3659007461725,0 32.7838214042962,45.3665037693657,0 32.7827105404981,45.367382558507,0 32.7788003090203,45.3674384426113,0 32.7749857785352,45.3663540209121,0 32.7707751396478,45.3662927119793,0 32.7692301872552,45.3664736183587,0 32.7684147957147,45.3660213513254,0 32.7656682136834,45.3660816538054,0 32.7644236687005,45.3662022585726,0 32.763436615783,45.365719837961,0 32.7588017586053,45.3657499893698,0 32.7568705681146,45.3653580198024,0 32.7534802559197,45.364966047519,0 32.7528794411004,45.3642122470328,0 32.7511628273309,45.3635187417144,0 32.7491458061517,45.3633679785637,0 32.747944176513,45.363307673191,0 32.7465708854974,45.3620713988827,0 32.7439959648431,45.3608954055678,0 32.7419360283196,45.3604732481591,0 32.7343623411836,45.3563005164071,0 32.729384161252,45.3562400027861,0 32.7269156578362,45.3532960902795,0 32.7255423668206,45.3529040344278,0 32.7251784575166,45.3524275133395,0 32.7226241234124,45.3514865790733,0 32.7218087318719,45.3503405253854,0 32.7197058800042,45.3496468500374,0 32.7190621498406,45.3489833265321,0 32.7170880440057,45.3481689915992,0 32.7151139381707,45.3469625479413,0 32.7133114937127,45.3451829966108,0 32.7114232185662,45.3440066523079,0 32.7116807106316,45.3435843689035,0 32.7100928428948,45.342739792645,0 32.7051799071016,45.342017495481,0 32.6988061073602,45.3394216925082,0 32.6972834837617,45.3376592413796,0 32.6955016258538,45.3371592400135,0 32.694643318969,45.336495570134,0 32.6924546364129,45.3361938994356,0 32.6911671760857,45.3353793805224,0 32.6877562773408,45.3352983794074,0 32.6843436363519,45.3340821595479,0 32.6785929802239,45.3301601479762,0 32.6777775886834,45.3289834915426,0 32.6778205040276,45.3278671538688,0 32.6779492500604,45.3264792439189,0 32.6754601600945,45.3247895685158,0 32.6740010383904,45.323612800517,0 32.6732508909883,45.3218577393938,0 32.6718981865228,45.32144024153,0 32.6698811653436,45.3210781402656,0 32.6676066520989,45.3204142819371,0 32.6645167473138,45.3189658367663,0 32.6603539589227,45.3174268232009,0 32.6567919853509,45.3163706132337,0 32.6526291969598,45.3152238486929,0 32.6516850593865,45.3157972338641,0 32.6506121757806,45.3157670558418,0 32.6497332823457,45.3162868035064,0 32.6468356254876,45.3165215015772,0 32.6457198265374,45.3172155827824,0 32.6426728370965,45.3174268232009,0 32.6414712074578,45.3177889478005,0 32.6400979164422,45.3179700092324,0 32.6372655037225,45.3189356604315,0 32.6330168846429,45.3200219983595,0 32.6314290169061,45.3200521741158,0 32.6302703026116,45.319780591731,0 32.6294978264153,45.3200521741158,0 32.627995789367,45.3199918225872,0 32.6250775459588,45.3189054840807,0 32.6238330009759,45.3194184798598,0 32.622416794616,45.3198107676159,0 32.6205098064967,45.32126952565,0 32.6188977363885,45.3213497164308,0 32.6176102760613,45.3221342624847,0 32.617677393777,45.3247813907357,0 32.615874949319,45.3256895960403,0 32.613900843484,45.3252052217018,0 32.607997238952,45.3262076923424,0 32.6060660484612,45.3259964846608,0 32.6025040748895,45.3274145782738,0 32.6008732918084,45.3298886140457,0 32.5991137626946,45.3300092959533,0 32.5980408790887,45.3289533205434,0 32.5970967415154,45.3281386974901,0 32.5952942970574,45.3283197258477,0 32.5934489372552,45.3281386974901,0 32.588728249389,45.3288929784968,0 32.5853055558869,45.3289388485239,0 32.5834067467034,45.3299187845467,0 32.582076371032,45.3296170788135,0 32.5819047096551,45.3290136625258,0 32.5806172493279,45.3290136625258,0 32.5765832069695,45.3308238921038,0 32.5743086937249,45.3310350817859,0 32.5738900743195,45.3313605178381,0 32.57350356115,45.332449345967,0 32.5709286404957,45.3325700224183,0 32.5712290479054,45.3333845817391,0 32.5722590161671,45.3336862674032,0 32.5726026139923,45.3339636961037,0 32.5719586087574,45.334500810669,0 32.5698557568898,45.3345611467412,0 32.5665083600392,45.3345309787131,0 32.5641051007618,45.3349533296432,0 32.5625601483693,45.3348628261376,0 32.5615301801075,45.3354360125634,0 32.5590410901417,45.3349533296432,0 32.5579682065358,45.3347119866403,0 32.5555220319142,45.3348024903869,0 32.5532904340138,45.334500810669,0 32.5516167355885,45.334500810669,0 32.5509730054249,45.336099694861,0 32.5507155133595,45.3374572026063,0 32.5495997144093,45.3385431853711,0 32.5481405927052,45.3382415255812,0 32.5470677090992,45.3372460368722,0 32.5456085873951,45.3375175355285,0 32.5437632275929,45.3388750092837,0 32.5412744126984,45.3391091592301,0 32.5380984021534,45.3385431853711,0 32.5357380582203,45.3389956720426,0 32.5339478814047,45.340125823286,0 32.53167336816,45.3408196153109,0 32.5299996697347,45.3409101092961,0 32.5281113945883,45.3415737274346,0 32.5233357988068,45.3411672126977,0 32.5226182305258,45.3409402739257,0 32.5213307701986,45.3416642202144,0 32.5188416802328,45.3417848770292,0 32.5158376061361,45.3414832345101,0 32.5142926537435,45.3421166819441,0 32.5130716294279,45.3430449589797,0 32.5107112854948,45.3434370831244,0 32.508222195529,45.3434672464076,0 32.5057760209074,45.343980019764,0 32.5021711319914,45.344010182758,0 32.5003686875334,45.344643601919,0 32.4980083436003,45.3450055525432,0 32.4966779679289,45.3462120379102,0 32.4940601319304,45.3467851094518,0 32.4932447403898,45.3478407523677,0 32.4946180314055,45.3492884592105,0 32.4985662430754,45.3514599500485,0 32.5018707245817,45.3532996201502,0 32.5059905976286,45.3565867506156,0 32.5079217881193,45.3584564093585,0 32.5110116929045,45.3593007511222,0 32.5132710958943,45.3610588423465,0 32.5144298101888,45.3637424758886,0 32.5155026937947,45.3686571151228,0 32.5150735403523,45.3721543897353,0 32.5133569265828,45.3762845131344,0 32.5108249212728,45.3801731857193,0 32.507091286324,45.3832779028249,0 32.5057060880321,45.3838841629076,0 32.5038607282299,45.3835827447676,0 32.5027364335724,45.3837036194624,0 32.501543299641,45.3846678425504,0 32.4996550244945,45.3846377012266,0 32.496865527119,45.3845774185307,0 32.4937756223339,45.3846377012266,0 32.4919302625316,45.385029537183,0 32.4917156858104,45.3860241854902,0 32.4909432096142,45.3866269941286,0 32.488926188435,45.3859639042728,0 32.4862654370922,45.3878024524843,0 32.4834330243725,45.3894601086228,0 32.4813301725048,45.3897916340168,0 32.4800856275219,45.3902437109659,0 32.4808581037182,45.3914190941111,0 32.4806864423412,45.3923533555847,0 32.4802143735546,45.3929259598222,0 32.4807722730297,45.3939807419149,0 32.4807722730297,45.3947341456425,0 32.4800427121776,45.3955176748645,0 32.4801285428661,45.3986818169662,0 32.4805576963085,45.3993146241252,0 32.4809010190624,45.3996460917134,0 32.4805921159455,45.4008784720607,0 32.4812014264721,45.4014239301373,0 32.4814160031933,45.4020868386206,0 32.482445971455,45.4025689489957,0 32.4827463788646,45.4040755174016,0 32.4836046857494,45.40491917816,0 32.4851925534862,45.4053410038144,0 32.4867375058788,45.4055217852735,0 32.4874585710236,45.406078271348,0 32.4888403577465,45.4060339962659,0 32.489655749287,45.4063654244331,0 32.4905998868602,45.4062750351258,0 32.491458193745,45.4066064618788,0 32.4912436170238,45.4075706013767,0 32.4901707334179,45.4087154956566,0 32.4901707334179,45.409830238842,0 32.4912865323681,45.4108244506892,0 32.492359415974,45.4113366135987,0 32.4924452466625,45.4119090254721,0 32.493260638203,45.4125115580187,0 32.494161860432,45.4141383637858,0 32.4958355588573,45.4157349979525,0 32.4974722166743,45.4178997532727,0 32.4979803850444,45.4183696772691,0 32.4979013701167,45.4190444381755,0 32.4987596770015,45.4195565265402,0 32.5011629362788,45.4228096853233,0 32.5048107405391,45.4254301491374,0 32.5074714918819,45.4268156325696,0 32.5103897352901,45.4278396636857,0 32.5135670282028,45.4306633000634,0 32.5197468377731,45.4334339760336,0 32.5214634515426,45.4351204078551,0 32.5261841394088,45.4378908650129,0 32.5316773034713,45.44451531973,0 32.5376854516647,45.4489713334623,0 32.5404757745426,45.4496467740849,0 32.5378571130416,45.4523432179814,0 32.5419769860885,45.4565577901538,0 32.5483721978824,45.4564126242984,0 32.5479851342819,45.4595680060077,0 32.5541649438522,45.4630596550729,0 32.5613747216842,45.4670326478719,0 32.5635204888961,45.4698015378742,0 32.5689278222701,45.4713063123489,0 32.5723610498092,45.4743157407739,0 32.5781975366256,45.4761815056944,0 32.582403240361,45.478167574666,0 32.5838876847053,45.4804969996378,0 32.5872955896041,45.4815377133427,0 32.5924707535529,45.4806177590157,0 32.5919304467819,45.4832828845046,0 32.5993118859908,45.4856899284363,0 32.6010284997604,45.4858102779331,0 32.6018868066451,45.4873747979947,0 32.6173363305709,45.4926096068525,0 32.6215664935628,45.4924638924516,0 32.6212143473572,45.4944782270054,0 32.6247334055848,45.4956213584644,0 32.6262783579773,45.4968847925536,0 32.6299779010335,45.4977759225101,0 32.6317715220398,45.4994717358125,0 32.634689765448,45.4994115756912,0 32.6396679453797,45.5024195030142,0 32.6472210459656,45.5057280374653,0 32.6524567179627,45.5075927621092,0 32.6537441782898,45.507292004248,0 32.6544308237977,45.5088559275785,0 32.6578640513367,45.5096378729492,0 32.6602673106141,45.5111415835146,0 32.6620697550721,45.5116829094835,0 32.6636147074646,45.5125851078618,0 32.6655029826111,45.5128858374406,0 32.667648749823,45.5143894612305,0 32.6727215838948,45.5153985905508,0 32.6758884959168,45.517156024038,0 32.6790642313904,45.5173965882891,0 32.6814763141195,45.5181742579527,0 32.6815533213562,45.5169154587584,0 32.6825062823812,45.5169674629728,0 32.686188178534,45.5192609263645,0 32.6883339457459,45.5198021742357,0 32.689964728827,45.5218468414288,0 32.6924626422445,45.5227598412794,0 32.6947712473816,45.5225083354943,0 32.6947712473816,45.5211853395857,0 32.6938359332601,45.5205877697555,0 32.6950287394471,45.5189000915578,0 32.6969170145936,45.5183588350091,0 32.697002845282,45.5169154587584,0 32.6954578928895,45.5155321884426,0 32.6923679881043,45.5138481612942,0 32.6907372050232,45.5116829094835,0 32.6895355753846,45.5092769764356,0 32.6936642718831,45.5093640555252,0 32.6976124835531,45.5106917091134,0 32.6986424518148,45.5134676102053,0 32.7010457110921,45.5144331087148,0 32.7051567606873,45.5140285951848,0 32.7109932475037,45.5155321884426,0 32.7128815226502,45.5173965882891,0 32.7141348910848,45.5192754356391,0 32.7101866794149,45.5215380614335,0 32.7126747386279,45.5232107277604,0 32.7121946232143,45.5247633552519,0 32.7097055332484,45.5255024171806,0 32.7094909565272,45.52652803795,0 32.7106282131496,45.5272972411746,0 32.7109074168152,45.5286418191243,0 32.71285981105,45.5287149605532,0 32.7139756100001,45.5294388884909,0 32.7154347317042,45.5293333162508,0 32.7180313639588,45.5302051491702,0 32.7192790503841,45.5303953700408,0 32.7208637766785,45.5313475551868,0 32.7226264472347,45.5314058198083,0 32.7243645186764,45.5310438697532,0 32.7256948943477,45.5318431729966,0 32.7265113563476,45.5336975889394,0 32.727476951593,45.5346476577074,0 32.7287000389038,45.534798460788,0 32.7295368881164,45.5355072298141,0 32.7306097717224,45.5365779063977,0 32.7325439027181,45.5371526900815,0 32.7349980404862,45.5398321715705,0 32.7372296383866,45.5412749598762,0 32.7407621911397,45.5426564919902,0 32.7462309189689,45.545817473183,0 32.7470892258537,45.5457420865667,0 32.7482072298033,45.546613746192,0 32.7546874467833,45.5488451121317,0 32.7568332139952,45.5499306092691,0 32.7612534944517,45.5510160853049,0 32.7635923807127,45.5525085803992,0 32.7669612352354,45.5533377271019,0 32.7691928331358,45.5548452350148,0 32.7718535844786,45.5560662865854,0 32.7746001665098,45.5567747857465,0 32.7791062776548,45.5568501574686,0 32.7800504152281,45.5566843395458,0 32.7809945528013,45.5575737208223,0 32.7830330316526,45.5579053508918,0 32.7845994417173,45.5590811143542,0 32.7845265054923,45.560187975061,0 32.7868095819456,45.5601211921583,0 32.7877108041746,45.5609200793407,0 32.7916375581724,45.562276654023,0 32.793010849188,45.5620957793037,0 32.7939549867613,45.5607392002253,0 32.7979890291197,45.5598950899364,0 32.7994554942078,45.5592282531274,0 32.7999704783387,45.5587609667176,0 32.7985113566346,45.5566204434879,0 32.8000133936829,45.5545099881211,0 32.8036611979432,45.5535150314911,0 32.8089827006287,45.5538768359536,0 32.8124214792472,45.5560412544567,0 32.815960102606,45.5582938856726,0 32.8191162729483,45.5592865400919,0 32.8222311072828,45.556594272571,0 32.8256041477512,45.5550349075272,0 32.8296734476309,45.5563417517412,0 32.8359390878897,45.5597072115439,0 32.8408314371329,45.5642142080232,0 32.8440071726065,45.5684804982148,0 32.8449513101798,45.5748492862347,0 32.8437496805411,45.5792349184178,0 32.8410030985099,45.5821785068055,0 32.8357674265128,45.5837403481796,0 32.8259703410983,45.5840220049587,0 32.821764637363,45.5836001274921,0 32.8217002643466,45.5852424182327,0 32.8236314548373,45.5881652747814,0 32.827641903904,45.5912252139913,0 32.8331050716648,45.5941568905974,0 32.8425260406564,45.5997491560858,0 32.848660671015,45.6037364034539,0 32.8499270204157,45.6040263145182,0 32.8555918458551,45.6074451906483,0 32.8569222215265,45.6077915848978,0 32.8622224985365,45.6113485401117,0 32.8639292540449,45.6118123477768,0 32.8697265261154,45.6153730420937,0 32.8702200525742,45.6163518375327,0 32.8731168383103,45.6175715431666,0 32.8799908097041,45.621169074364,0 32.883209460522,45.6236534168553,0 32.8884727281888,45.6268764339815,0 32.8940088075956,45.6298422715734,0 32.9037390522671,45.6356735625585,0 32.9098654947475,45.6388423307594,0 32.920607762396,45.6428097346159,0 32.9214231539365,45.6442546220375,0 32.9265300799009,45.6459402766212,0 32.9325938048261,45.6486647569206,0 32.9337827730772,45.6480171736676,0 32.93897552973,45.6509969340438,0 32.9416918578046,45.6547844714026,0 32.9487052278674,45.6559734091444,0 32.9514677339662,45.6577786174427,0 32.9559753262234,45.6609834321179,0 32.9626969062296,45.6614557223016,0 32.9694617745027,45.6652691012804,0 32.9803590306254,45.6713308507797,0 32.9871821226972,45.6740991826404,0 32.9897038468333,45.6740762019645,0 32.9971282013865,45.677851778612,0 33.0016016783613,45.6794965128335,0 33.0024568153428,45.6780413852764,0 33.008979947667,45.6794251930411,0 33.0152026725816,45.6844788070196,0 33.0258965367732,45.6889698369597,0 33.0325054997859,45.6888796051741,0 33.0394594013771,45.6925508720511,0 33.0458537876686,45.6936937216643,0 33.0524627506813,45.6955883942308,0 33.0606595814308,45.7013321653817,0 33.0678693592629,45.7050006507976,0 33.0719463169655,45.705481745667,0 33.0734912693581,45.7055418822326,0 33.0787376046646,45.7063886803413,0 33.0880931497086,45.7106741270302,0 33.0960429374732,45.7147230709976,0 33.0975667774757,45.7137799761881,0 33.0996263687171,45.7132847402211,0 33.1001637180387,45.6961987350826,0 33.124711294943,45.6969505631088,0 33.1261354361172,45.6796852842575,0 33.112359385718,45.6792025257147,0 33.1140532354875,45.6616804607105,0 33.1537180979161,45.6633843715994,0 33.1544047434239,45.6589307130722,0 33.2037436884003,45.6592992188837,0 33.2041350361434,45.6475860857907,0 33.2041350361434,45.6083223281899,0 33.2275926835937,45.6076424149928,0 33.2316008564559,45.55745512334,0 33.2398406025496,45.5569727477881,0 33.2914424699545,45.5552248580094,0 33.3199293212714,45.5532805174577,0 33.3207145052516,45.5414753665739,0 33.318490840455,45.5118618582717,0 33.3342001320541,45.4790558932269,0 33.3335134865463,45.4683069884412,0 33.2816717507065,45.4677030561599,0 33.2536083946729,45.4784412349521,0 33.2508618126416,45.4763882102682,0 33.2542950401807,45.4740935641658,0 33.2551104317212,45.4721007688778,0 33.2546812782788,45.4705910282557,0 33.2518488655591,45.468718893348,0 33.2388884315991,45.4632531091464,0 33.2336098442578,45.4619847293738,0 33.231292415669,45.4629511165678,0 33.2287604103589,45.4618035299186,0 33.2270437965894,45.4592666759934,0 33.2252842674756,45.4530448573535,0 33.2222372780347,45.4512325472225,0 33.219233203938,45.451021107222,0 33.2132250557446,45.45201788881,0 33.2103068123364,45.4513835753058,0 33.2055861244702,45.4465202665316,0 33.1989771614575,45.4437410434344,0 33.1918961296582,45.4448285819301,0 33.1888491402173,45.4442848153202,0 33.1850296745801,45.4365506746455,0 33.1792361031079,45.4337709571655,0 33.1682497749829,45.4360672554193,0 33.1652457008862,45.4352816902855,0 33.1594092140698,45.4221671698755,0 33.1502682457471,45.4140672706036,0 33.1403184884947,45.4097422646427,0 33.130469416992,45.4030312436036,0 33.119483088867,45.3976346378431,0 33.113346194641,45.3939912576768,0 33.1033254617613,45.3864618640393,0 33.0955363267821,45.378281197822,0 33.0922103876036,45.3773111883092,0 33.0877257341307,45.3777951139604,0 33.079679107086,45.3834053226277,0 33.0773616784972,45.3835262913056,0 33.0751086229247,45.3827551115195,0 33.0687571519774,45.3800029718425,0 33.0586344951552,45.374048362024,0 33.0431849712294,45.3616758786745,0 33.0300743335646,45.3562299126993,0 33.0238267951925,45.3525207630546,0 33.0180519991834,45.3485018687587,0 32.9960605674703,45.3331820467679,0 32.984969458565,45.3265818757815,0 32.983228343987,45.3276990177276,0 </coordinates>
          </LinearRing>
        </outerBoundaryIs>
      </Polygon>
    </Placemark>
  </Document>
</kml>