<?xml version="1.0" encoding="UTF-8"?>
<kml xmlns="http://earth.google.com/kml/2.2">
  <Document>
    <Placemark>
      <name>Ялта</name>
      <description>14.08.2018 15:08:17</description>
      <Style>
        <LineStyle>
          <color>A6000000</color>
          <width>2</width>
        </LineStyle>
        <PolyStyle>
          <color>33FF00FF</color>
          <fill>1</fill>
        </PolyStyle>
      </Style>
      <Polygon>
        <extrude>1</extrude>
        <outerBoundaryIs>
          <LinearRing>
            <coordinates>33.7578661628214,44.3908105910994,0 33.7571687884775,44.3915798908644,0 33.7573297210184,44.3916337414667,0 33.7601192183939,44.3917106708119,0 33.7637278396184,44.3928903846569,0 33.7641462642247,44.3932134802376,0 33.7653049785191,44.3932134802376,0 33.7660452682073,44.392921155742,0 33.7666138965184,44.3929519268108,0 33.7670001346166,44.3930442399193,0 33.7705299216802,44.3947520059827,0 33.7709483462865,44.3951058611434,0 33.7716993648106,44.3949058563173,0 33.7745746269208,44.3952527514458,0 33.7753685607892,44.3952835212802,0 33.776956428526,44.3954527550782,0 33.7775357856732,44.3953604457949,0 33.7779649391156,44.3958835297949,0 33.7787910594922,44.3960296847769,0 33.7795849933606,44.3959758382474,0 33.7799712314587,44.3963989167786,0 33.7811514034253,44.3963835321587,0 33.7817093029004,44.3964912244125,0 33.7825676097851,44.3962296857357,0 33.7829967632275,44.3960296847769,0 33.7848957672101,44.3961912240663,0 33.7852069034558,44.3966912237829,0 33.7859901084882,44.3967450696497,0 33.7856682434064,44.3970989126758,0 33.7854751243573,44.397933683,0 33.7860330238324,44.4007950759068,0 33.7852584750488,44.4026549732645,0 33.7819432647063,44.4058622322553,0 33.7825011641814,44.4061083455349,0 33.7839280993774,44.4061083455349,0 33.7853979499175,44.4057237930773,0 33.7865888507201,44.4057391752245,0 33.7887131602599,44.4059699069434,0 33.7895821959808,44.4062775478099,0 33.7909769446685,44.4058007037724,0 33.7913739116027,44.4054315315071,0 33.7934660346343,44.4054469137317,0 33.7944101722076,44.4052084887934,0 33.7954937846496,44.405385384809,0 33.7958049208953,44.4044778256309,0 33.7965344817474,44.4042317054442,0 33.7969099910094,44.4036394744722,0 33.7970923812225,44.4043086181145,0 33.7974786193206,44.4031395345373,0 33.8003968627288,44.4025088349447,0 33.8011264235809,44.4026395903008,0 33.8028001220062,44.4055392069935,0 33.8076913079259,44.4054289280403,0 33.8080348394496,44.406694698671,0 33.8113178632838,44.4067869899506,0 33.8164965338673,44.4107176899303,0 33.8275022030656,44.4123816275368,0 33.8439547506081,44.4193475699092,0 33.8534218880223,44.4217099483103,0 33.8684839749445,44.423496839586,0 33.8896748850386,44.4250902116268,0 33.8935909102004,44.4246442763082,0 33.8943599106066,44.4256789916183,0 33.8973532558672,44.4246487325251,0 33.8974524067671,44.4251044920111,0 33.9261627720625,44.4214292686053,0 33.9466763066084,44.4259348449975,0 33.9538472793091,44.4327923410234,0 33.9658850333679,44.4349755472451,0 33.9760559699524,44.437850489314,0 33.9820923902238,44.4417805756843,0 33.9938090939327,44.4522672449968,0 33.9981359256189,44.4584333103362,0 34.0013228610982,44.4641994180007,0 34.0030694157486,44.4690161619272,0 34.0026831776505,44.4725347277745,0 34.0031767041092,44.4734412232388,0 34.0043354184036,44.4740557883712,0 34.0061807782059,44.4738099631002,0 34.017725005806,44.4752541716371,0 34.0215659291153,44.4743016125996,0 34.0309205492824,44.4735815804316,0 34.0326371630519,44.4738888630682,0 34.0354266604274,44.4764085192405,0 34.0356347653294,44.4845599204536,0 34.0382690326158,44.488581163844,0 34.0413160220567,44.4906086742412,0 34.0438480273668,44.4910694621623,0 34.0451784030382,44.4921446197237,0 34.0440411464158,44.4940952117814,0 34.0435720070847,44.496111607362,0 34.0444088562973,44.496910228218,0 34.055695591832,44.5008570965071,0 34.0657135768087,44.5032766676469,0 34.0714427752645,44.5062864240512,0 34.0774061544647,44.5030726204943,0 34.0824916227569,44.5048385741885,0 34.0877048913053,44.5137953895706,0 34.0977803181809,44.5163833626141,0 34.1007843922776,44.518348490558,0 34.1057411145371,44.5197148292538,0 34.1086958868582,44.5252898343206,0 34.1148971541006,44.53040131166,0 34.1178618223072,44.5349446181003,0 34.1181546836507,44.5403039259595,0 34.1231205540243,44.5460678814492,0 34.1299413955868,44.5497972229184,0 34.142654872591,44.557349129709,0 34.1564061396086,44.5580898094916,0 34.1645171396696,44.5606518258159,0 34.185006078941,44.5717012051301,0 34.182302412254,44.5752442071387,0 34.1835254995647,44.5768239172009,0 34.1888899175945,44.5747534146331,0 34.2008836814703,44.5844332935982,0 34.2018834125627,44.5876535191295,0 34.2063466083635,44.5892328897493,0 34.2052774600307,44.5999300168096,0 34.205994230343,44.6124849511843,0 34.2075561777723,44.6167710338997,0 34.2117618815077,44.618809378425,0 34.213263918556,44.6205104980269,0 34.2133497492445,44.6236520734855,0 34.2090831193636,44.6321778591122,0 34.2065530356999,44.6393693237954,0 34.2058920620779,44.6455557420686,0 34.2058920620779,44.6502123835126,0 34.2057470285451,44.6523544757386,0 34.2039599753404,44.6540438031499,0 34.202264819243,44.6562952496131,0 34.20243648062,44.6571988666411,0 34.2046251631761,44.6578114802911,0 34.2050543166185,44.6594348749492,0 34.2048141120036,44.6673156897697,0 34.2061015723307,44.6725524060038,0 34.2068955061991,44.6742366286919,0 34.2108002525333,44.6720945827305,0 34.2116156440738,44.6720945827305,0 34.212023339844,44.6717883526936,0 34.2176735657948,44.6711996078366,0 34.2193043488759,44.6708627494692,0 34.2210638779897,44.6692090525301,0 34.2229950684804,44.6662690295674,0 34.226426538081,44.6628348892513,0 34.2338171326852,44.6506688793791,0 34.2308774316049,44.6485397549253,0 34.2306628548837,44.6472224155004,0 34.2316470178289,44.6448990143049,0 34.2350158723517,44.6433058481937,0 34.2381272348089,44.6426011645169,0 34.2419467004461,44.6426164838189,0 34.2540273698492,44.6439186096034,0 34.2555937799139,44.6428003151252,0 34.257417682044,44.639521902135,0 34.2641983064337,44.6393533805395,0 34.2639193566961,44.6370399888243,0 34.2554247342193,44.6187925284554,0 34.2533745474655,44.6150448318218,0 34.2422380156357,44.6107072329458,0 34.246237008647,44.6046671731785,0 34.246430127696,44.6027203083643,0 34.2572392252326,44.6041298443076,0 34.2664690547639,44.6021656040651,0 34.2668764512014,44.5992069730839,0 34.276855043472,44.596434808318,0 34.2774099020066,44.5782564418737,0 34.2767989488438,44.5736939087144,0 34.2865472298007,44.5736985152473,0 34.2900019150119,44.5730236564174,0 34.2971290854135,44.5759588999466,0 34.2998756674448,44.5750386719645,0 34.3007983473459,44.5731214832446,0 34.3054761198679,44.5708207727818,0 34.3096603659311,44.573581614341,0 34.3139948156992,44.5711582160506,0 34.3155183104196,44.5703912966796,0 34.3168272284189,44.5681058165743,0 34.3179859427133,44.5674002138463,0 34.3187155035654,44.567584284954,0 34.3200029638925,44.5674308924049,0 34.3213118818918,44.5667099419692,0 34.3212904242197,44.5660810204122,0 34.3206681517282,44.5658816048304,0 34.3199385908762,44.5658509254491,0 34.3193163183847,44.5662037373511,0 34.3192304876963,44.5650379159072,0 34.3201746252695,44.5649305364332,0 34.3206896094004,44.5646083968138,0 34.3208398131052,44.5640561532877,0 34.3201960829416,44.5609266736075,0 34.3197883871714,44.5603897360401,0 34.3186940458933,44.5599294998687,0 34.3175997046152,44.5591010655232,0 34.3176855353037,44.5584413778287,0 34.3190373686472,44.5581192020317,0 34.3195952681223,44.5572140318477,0 34.319552352778,44.5568304808833,0 34.3191017416635,44.5564009007812,0 34.3184150961557,44.5560940558962,0 34.3183721808115,44.554835974836,0 34.3194665220896,44.5546211777718,0 34.3199815062204,44.5547592616905,0 34.3209685591379,44.5540534959739,0 34.3202819136301,44.5524117902094,0 34.3175782469431,44.5530562036388,0 34.314316680781,44.5534858086005,0 34.3113340643564,44.5536085522888,0 34.3071712759653,44.5533323786236,0 34.3042959479013,44.5523350738464,0 34.3035878447214,44.5518594301233,0 34.3039526251474,44.5509541619019,0 34.3030514029184,44.5506166006313,0 34.3019570616404,44.5504938505896,0 34.3012918738047,44.5500642233911,0 34.2988886145273,44.5496499369972,0 34.2967213896433,44.5481308614848,0 34.2962493208567,44.54744035942,0 34.2967643049875,44.5466270908559,0 34.2958416250864,44.5461667450888,0 34.2964209822336,44.5457524307645,0 34.2963995245615,44.5454608744602,0 34.2961205748239,44.5452767328789,0 34.2955412176767,44.5451539714989,0 34.2951120642343,44.5452613877207,0 34.2947258261362,44.5456143253299,0 34.2934383658091,44.5455222548569,0 34.2920221594492,44.5456296703945,0 34.2904557493845,44.5453074231832,0 34.2886747625986,44.5442639436988,0 34.2867006567636,44.5442639436988,0 34.2843188551584,44.5430669881593,0 34.2841042784372,44.5424531551942,0 34.2845119742075,44.542176928234,0 34.2836536673227,44.5419006999542,0 34.2825807837168,44.542176928234,0 34.2819585112253,44.5420541602725,0 34.2822803763071,44.5415477396764,0 34.281550815455,44.5415323935285,0 34.2815293577829,44.5419927761941,0 34.281186035029,44.542315041879,0 34.2806925085703,44.5425145387839,0 34.2797912863413,44.5423303878192,0 34.2788686064402,44.5417318931336,0 34.2764868048349,44.5400744909062,0 34.2755212095896,44.5386779391904,0 34.2746414450327,44.5366060695714,0 34.273976257197,44.5343499493498,0 34.2734612730661,44.5326309415395,0 34.2729677466074,44.5316793259623,0 34.272710254542,44.5301444291395,0 34.2732037810007,44.5290853265861,0 34.2732466963449,44.5280876035457,0 34.2726673391977,44.5268289130103,0 34.2716159132639,44.5254934431118,0 34.2704571989695,44.524557060776,0 34.2699851301828,44.5245877620765,0 34.2695130613962,44.5233136444164,0 34.2691911963144,44.5229145174507,0 34.2690195349375,44.5221776604349,0 34.2684187201181,44.5214407940356,0 34.2673029211679,44.5204582909068,0 34.2663158682505,44.5199670330868,0 34.2655219343821,44.5194450670835,0 34.2652429846445,44.5188616877438,0 34.2650069502512,44.5182475978749,0 34.2647709158579,44.5173264508535,0 34.2643203047434,44.5168658718448,0 34.2632045057932,44.5152845226857,0 34.262088706843,44.5143326217777,0 34.2608012465158,44.5131964614907,0 34.2598785666147,44.5126437268007,0 34.2583550718943,44.5116917824619,0 34.2577542570749,44.511169741823,0 34.2565740851084,44.5105709247046,0 34.2554368284861,44.5098492650746,0 34.2535914686838,44.5091736606718,0 34.2523040083567,44.5083137891193,0 34.251467159144,44.5075153255274,0 34.2511452940622,44.5068089831702,0 34.2494286802927,44.5065018751096,0 34.2486347464243,44.5059644320835,0 34.2472185400644,44.5059183653063,0 34.2463602331797,44.5057494534762,0 34.2458023337046,44.5057494534762,0 34.2446865347544,44.5055805411533,0 34.2432703283945,44.5055805411533,0 34.241746833674,44.5054423397953,0 34.2399144003367,44.5058142266654,0 34.2389917204356,44.5059140381493,0 34.2383265325999,44.5057988710372,0 34.2376077005839,44.5055685361259,0 34.2372321913218,44.5052614214853,0 34.2367815802073,44.5050617960953,0 34.2358589003062,44.5046625432506,0 34.2349684069133,44.5045166617167,0 34.2329513857341,44.5041557952906,0 34.2320072481608,44.5037258238465,0 34.2312240431285,44.5037565361984,0 34.2304301092601,44.5041174051129,0 34.2288958857036,44.5041250831505,0 34.2272972891307,44.5038793854431,0 34.2250871489024,44.5036106523818,0 34.2233276197886,44.5034570900725,0 34.2222547361827,44.5035108369271,0 34.2218148539042,44.5033879869005,0 34.2218041250682,44.5032190676883,0 34.2209243605113,44.503226745845,0 34.2208921740031,44.503318883646,0 34.219615442512,44.503249780309,0 34.2174160311198,44.5035031588081,0 34.2165255377269,44.503787248534,0 34.2157423326945,44.5038870635122,0 34.2146265337443,44.5037642142838,0 34.2134570906138,44.5036106523818,0 34.2119657824016,44.5034417338192,0 34.2108392546153,44.5030424698032,0 34.2103564569926,44.5028198021368,0 34.210420830009,44.5026739159601,0 34.209701997993,44.5024128555687,0 34.2098522016978,44.5020596543421,0 34.2067837545848,44.5012687829133,0 34.2063786858844,44.5009692795256,0 34.203245865755,44.4998789285742,0 34.2031171197223,44.5000248217927,0 34.1990723485278,44.4990957060659,0 34.1977634305286,44.499003561545,0 34.197302090578,44.4992262438863,0 34.1973771924304,44.4996408914814,0 34.196583258562,44.4997023205023,0 34.1966047162341,44.4998405355609,0 34.1944482201862,44.4999096429666,0 34.1929569119739,44.5000094646291,0 34.1919484013843,44.5003396427485,0 34.1904034489917,44.5002628573073,0 34.1886761063861,44.5000017860458,0 34.1869487637805,44.4995641051137,0 34.1856183881091,44.4995026759463,0 34.1844704026508,44.4992569586248,0 34.1832043999957,44.4991264208737,0 34.1817238206195,44.4985735518421,0 34.1813375825214,44.4981896119092,0 34.1803612584399,44.4981819330846,0 34.17712114995,44.4973218982841,0 34.175501095705,44.4968150860818,0 34.1745891446399,44.4959857474567,0 34.1739561433124,44.4955480361722,0 34.1741921777057,44.4954866027447,0 34.1741921777057,44.4952331891677,0 34.17388104146,44.4950412084469,0 34.1728403443622,44.494987453731,0 34.1723468179034,44.4946649243882,0 34.1718962067889,44.4948415478222,0 34.170651661806,44.4958091275119,0 34.1685058945941,44.4955019611077,0 34.166681992464,44.4942579205115,0 34.1660275334644,44.4933747890567,0 34.1651692265796,44.4930368917211,0 34.1637315625476,44.4907099542715,0 34.1638817662524,44.4903643615296,0 34.1631843919086,44.4891355706381,0 34.1623046273517,44.4884750847638,0 34.1607811326312,44.4859866750067,0 34.159482943468,44.4837362618053,0 34.1592898244189,44.482699352588,0 34.1590583083687,44.4822203609051,0 34.1585325954017,44.4810528460754,0 34.1581141707954,44.4797086386853,0 34.1578355918553,44.4786523281228,0 34.1571489463474,44.4778457740204,0 34.1569343696263,44.4774309703968,0 34.1559258590367,44.4761250877515,0 34.1555718074467,44.4753645895949,0 34.1543949712359,44.4742337351281,0 34.1539658177935,44.4737804953652,0 34.1533113587939,44.4734732121541,0 34.1529358495318,44.4733810268731,0 34.15225993286,44.4728125477338,0 34.1508437265002,44.4705155279489,0 34.1505433190905,44.470523210441,0 34.1498137582385,44.4684335350583,0 34.1497923005663,44.4678112274655,0 34.1493846047961,44.4667740332993,0 34.1489769090258,44.4645382405438,0 34.149031644878,44.4639369566002,0 34.1489136276814,44.4634144854644,0 34.1479158459278,44.4626384534704,0 34.1467571316334,44.460548493877,0 34.1455340443226,44.4595572734711,0 34.1447615681263,44.4591269709665,0 34.1442251263233,44.4581510945266,0 34.1438496170612,44.4571444646149,0 34.1436028538319,44.4559764446511,0 34.1436564980122,44.4554539017883,0 34.1426691054453,44.4551482790175,0 34.1418429850687,44.4548485816131,0 34.1414567469706,44.4543567671322,0 34.141177797233,44.453718939016,0 34.1403624056925,44.4525508500648,0 34.1396221160044,44.4517593027335,0 34.1394933699717,44.4512290368291,0 34.1392144202341,44.4504835823604,0 34.1388595139586,44.4500421063605,0 34.1382479703032,44.4495348805811,0 34.1380226647459,44.4491967275976,0 34.1377437150084,44.448420505339,0 34.1372287308775,44.447990120205,0 34.1367888485991,44.4478056684558,0 34.1363811528288,44.4478210394573,0 34.135683778485,44.4467988589882,0 34.1354906594359,44.4468065446229,0 34.1350722348296,44.445476914683,0 34.1350016774741,44.4443613670075,0 34.1352591695395,44.4440616138695,0 34.1352484407035,44.443585080052,0 34.1349373044577,44.4431623451639,0 34.1344759645072,44.4429010166016,0 34.1339395227042,44.4421708276154,0 34.1337678613272,44.4417327098131,0 34.1340253533927,44.4416712193305,0 34.1338644208518,44.4407719135773,0 34.1336176576224,44.4408103457322,0 34.133370894393,44.4404413959947,0 34.1329953851309,44.439972518985,0 34.1326306047049,44.4397726686163,0 34.132276553115,44.439257666417,0 34.1318259420005,44.4383967570124,0 34.1314718904105,44.4362674887197,0 34.1308925332633,44.4355449033867,0 34.1305219453446,44.4339711492395,0 34.1307365220658,44.4338712138075,0 34.1306399625413,44.4335406569221,0 34.1287624162308,44.4329102874109,0 34.1282474321,44.4325259123979,0 34.1279255670182,44.4323490990371,0 34.1277860921494,44.4319032194749,0 34.1280435842148,44.4313958351172,0 34.1282796186081,44.4311421412752,0 34.1281723302476,44.4308115688477,0 34.1288375180832,44.430565560238,0 34.1283332627884,44.4302811114834,0 34.1281937879197,44.4298121523852,0 34.1279792111985,44.4295584516218,0 34.127721719133,44.4294815723837,0 34.127346209871,44.4295430757824,0 34.126992158281,44.4294046930438,0 34.1266059201829,44.4290433587823,0 34.126273326265,44.428781966638,0 34.1259300035111,44.4288357827639,0 34.1254901212327,44.4285051972023,0 34.1247069162003,44.428143857342,0 34.1224216741196,44.4275903110667,0 34.1216706555955,44.4275979992455,0 34.120501212465,44.4273827298526,0 34.1196429055802,44.4274673000665,0 34.1189884465806,44.4274057944686,0 34.1175400537125,44.4278747730063,0 34.1152977269761,44.4286589581628,0 34.1143321317307,44.4288819108322,0 34.1126906198136,44.4290433587823,0 34.1106628697983,44.4290433587823,0 34.1092466634385,44.4289126628573,0 34.1073476594559,44.4285282613723,0 34.1056632321946,44.4278978374268,0 34.1045045179001,44.4270675125158,0 34.1040539067856,44.4267522934674,0 34.1019403260819,44.4261295386094,0 34.1011893075577,44.4264908910071,0 34.1000823829813,44.4268679636005,0 34.0985588882609,44.4273907639484,0 34.097131953065,44.427990440903,0 34.0960268829508,44.4282364604258,0 34.094986185853,44.4283671578732,0 34.093720183198,44.4283902220981,0 34.0921537731333,44.4279750646482,0 34.092282519166,44.4277213558562,0 34.0909521434946,44.4272831289675,0 34.0890102241679,44.4267372627779,0 34.0882484768076,44.4264681719226,0 34.0863816593333,44.4259684284537,0 34.0862529133005,44.4261375728786,0 34.0857379291697,44.4260606891102,0 34.0852873180552,44.4257070224641,0 34.0846865032359,44.4252457149053,0 34.0825621936961,44.4246460095993,0 34.0822188709421,44.4245537466948,0 34.0815644119425,44.4241308731729,0 34.0804486129923,44.4234927127544,0 34.07966540796,44.4233466268527,0 34.0789680336161,44.4233004943864,0 34.0777556751414,44.4233158718792,0 34.0763931129618,44.4233004943864,0 34.0757279251261,44.4231005866086,0 34.0750412796183,44.4227084578146,0 34.0739898536845,44.4218857476208,0 34.0731530044718,44.4211706722826,0 34.0728847835703,44.4212014283924,0 34.0727453087015,44.4215705004387,0 34.0722088668986,44.4220625928516,0 34.0710501526041,44.4225469922473,0 34.0704064224406,44.4226930801609,0 34.0688078258677,44.4228391677068,0 34.0680997226878,44.4227622795706,0 34.0669088218851,44.4228929893416,0 34.065267309968,44.4228391677068,0 34.0640871380015,44.4225623699398,0 34.0634219501658,44.4221548597147,0 34.0629606102152,44.4218549918735,0 34.0626602028056,44.421808858222,0 34.0616409633799,44.4213782757073,0 34.0613834713145,44.4211860503395,0 34.0608470295115,44.4210015133878,0 34.0602998588724,44.4211014709761,0 34.0593771789713,44.4207862195362,0 34.0589694832011,44.4202710488653,0 34.0590338562174,44.4198712117617,0 34.0588836525126,44.4197174275273,0 34.0585725162669,44.4196866706315,0 34.0581326339884,44.4197481844067,0 34.0570812080546,44.4192176259526,0 34.0568880890055,44.4187255094301,0 34.0568880890055,44.4181103579124,0 34.0565769527598,44.4178950533417,0 34.056255087678,44.4179565690148,0 34.0557401035471,44.417933500645,0 34.0556113575144,44.4177489533571,0 34.0557508323832,44.4174798208442,0 34.0556864593668,44.4174259941919,0 34.0552251194163,44.4174721313255,0 34.0553002212687,44.4176413005016,0 34.0551392887278,44.4177720218001,0 34.0548925254984,44.417741263874,0 34.0548281524821,44.4175182684224,0 34.054635033433,44.417525957935,0 34.0544419143839,44.4176797479729,0 34.0545599315806,44.4177874007571,0 34.0535299633189,44.4181641839303,0 34.0532188270731,44.4183794875032,0 34.0527145717783,44.4184256238792,0 34.0520386551066,44.4182103204774,0 34.0509121273203,44.4172491348405,0 34.0495817516489,44.4169031041167,0 34.048508868043,44.4160803116719,0 34.0478865955515,44.4153190260372,0 34.0474574421091,44.4149729838135,0 34.0469210003062,44.4147576676116,0 34.0462343547984,44.4146730788853,0 34.0454404209299,44.4146961485501,0 34.0444533680125,44.4148730156762,0 34.0436165187998,44.4148730156762,0 34.0429191444559,44.4146038698358,0 34.0420822952433,44.4138810148342,0 34.0415458534403,44.4132119814441,0 34.0415673111124,44.4122584032928,0 34.0415243957682,44.4110433374824,0 34.0413741920634,44.4108280067128,0 34.0407519195719,44.4104281045944,0 34.0401618335886,44.4096052204208,0 34.0384666774912,44.4085439133403,0 34.036449656312,44.407505659391,0 34.0351621959849,44.4067288794872,0 34.034110770051,44.4060828368048,0 34.0340571258707,44.4057136663323,0 34.0336816166087,44.4055906089868,0 34.0334348533793,44.4058290323569,0 34.0326194618388,44.4055136980135,0 34.0312568996592,44.4053598757615,0 34.0311388824625,44.4052214353865,0 34.029422268693,44.4052291265271,0 34.0292184208079,44.4053829491253,0 34.0281455372019,44.4054060224799,0 34.0270404670878,44.4058444144763,0 34.0268902633829,44.4056675198583,0 34.0244870041056,44.4061982020964,0 34.0208284710093,44.406844243496,0 34.0201632831736,44.4068211707126,0 34.0199165199442,44.4070442072351,0 34.0188221786661,44.4072980063744,0 34.018983111207,44.4076364035021,0 34.0184573982401,44.4077594565143,0 34.0185325000925,44.4078671276863,0 34.018081888978,44.4078825092659,0 34.0179746006174,44.4075441135718,0 34.0173952434702,44.4076133310333,0 34.0158824775858,44.4072595520306,0 34.0145628307505,44.4064212410106,0 34.0137152527018,44.4058751787027,0 34.0132217262431,44.4053214201349,0 34.0130715225382,44.4050676123607,0 34.0127174709483,44.4050753035217,0 34.0113145298584,44.4046032045218,0 34.0104884094818,44.4036264109965,0 34.009608644925,44.4031033966894,0 34.0073234028443,44.4028803450381,0 34.0071195549591,44.4027111328695,0 34.0057999081238,44.402272717231,0 34.0056711620911,44.402218876486,0 34.0047377533539,44.4021342695001,0 34.0049737877472,44.4022881002919,0 34.0047806686982,44.4024419306765,0 34.0040725655182,44.4027649731584,0 34.0027851051911,44.4028111219378,0 34.0016585774048,44.4023803985715,0 34.0008002705201,44.4017035411164,0 34.0007144398316,44.4014727924546,0 34.0007144398316,44.4010266757767,0 34.0010899490937,44.4010266757767,0 34.0012937969788,44.4009036085043,0 34.001143593274,44.4002575010475,0 34.0009182877167,44.40031134361,0 34.0002745575531,44.4007190071068,0 34.000424761258,44.4009651421731,0 33.9999205059632,44.4009036085043,0 33.9995020813568,44.4009805255801,0 33.9990407414063,44.4014420258971,0 33.9984828419312,44.4015727836538,0 33.998085874997,44.4014420258971,0 33.9975601620301,44.4016035501421,0 33.9968735165222,44.401449717538,0 33.9962512440308,44.4009036085043,0 33.9957148022278,44.4007728492417,0 33.9952427334412,44.400126740331,0 33.9944058842285,44.40014212396,0 33.9930325932129,44.3996498458127,0 33.9923459477051,44.4000036711526,0 33.9921850151642,44.3999652119809,0 33.9915412850006,44.4003498025526,0 33.991605658017,44.400542096884,0 33.9911014027222,44.4006959318909,0 33.9896959251984,44.4012497345438,0 33.9885586685761,44.4012574262101,0 33.9881724304779,44.4009728338771,0 33.9875716156586,44.400734390579,0 33.9855438656433,44.4006267061882,0 33.9839452690705,44.4001728912058,0 33.9824325031861,44.3995652350862,0 33.9811343140229,44.3985498967583,0 33.9812094158753,44.3984499003573,0 33.9805013126953,44.3976729993806,0 33.9799970574005,44.3967653197375,0 33.9801150745972,44.3967191661565,0 33.9801794476136,44.3961653203263,0 33.9801043457611,44.3954883904773,0 33.979716412517,44.394814203454,0 33.9775384587969,44.3942988024173,0 33.9765728635515,44.3940141760052,0 33.9760042352404,44.3936526215261,0 33.975768200847,44.3936218508283,0 33.9755965394701,44.3934833824865,0 33.9754677934374,44.3931679811433,0 33.9751351995195,44.3930141262084,0 33.9740086717333,44.3928064214003,0 33.9728070420946,44.3922602311407,0 33.9716912431444,44.3919063586553,0 33.9687729997362,44.3917217286772,0 33.968740813228,44.3916678781564,0 33.9653505010332,44.3913447739843,0 33.9637948198046,44.3913678529133,0 33.9625502748217,44.3915678699141,0 33.9606083554949,44.391421703712,0 33.9600182695116,44.3912986160988,0 33.9583280655415,44.3913449150159,0 33.9579418274434,44.3912910641461,0 33.9564612480672,44.3912910641461,0 33.9556243988545,44.3915603179964,0 33.9538219543965,44.3915526250466,0 33.9527383419545,44.3918218776853,0 33.9520946117909,44.3917911060182,0 33.9513221355946,44.3918911138765,0 33.9493373009236,44.3925142358863,0 33.947781619695,44.3927373273276,0 33.9453032585652,44.39260654969,0 33.945077953008,44.392691170548,0 33.9436295601399,44.392421921936,0 33.9434471699269,44.3921680578167,0 33.9428034397633,44.3919911215626,0 33.9416769119771,44.392014200235,0 33.9414194199117,44.3921295934594,0 33.9403894516499,44.3920757433165,0 33.9402821632893,44.392360379221,0 33.9400568577321,44.3927834840707,0 33.9398100945027,44.3929527251482,0 33.9392092796834,44.3937373818869,0 33.9387479397328,44.3939220054625,0 33.937514123586,44.3944681801066,0 33.9361944767506,44.3948681920829,0 33.9354434582265,44.3949758871446,0 33.9335980984242,44.3948758845939,0 33.9332762333424,44.394806651958,0 33.9324501129659,44.3948604995708,0 33.9319029423268,44.3949835796413,0 33.931398687032,44.395352818289,0 33.9294567677052,44.3961912890063,0 33.9284053417714,44.3965143662376,0 33.9279547306569,44.3965220585308,0 33.9270964237721,44.3963066739379,0 33.9264097782643,44.3963066739379,0 33.9253368946584,44.3964374432502,0 33.9232662292989,44.3973605123795,0 33.9214101406606,44.3981912620606,0 33.9200690361531,44.398706628579,0 33.9188674065144,44.3988220085167,0 33.9178481670888,44.3989835400446,0 33.9167645546468,44.3990604596619,0 33.9159169765981,44.3992142985912,0 33.915005025533,44.3992758340489,0 33.9143183800252,44.39958351036,0 33.9133098694356,44.399729656037,0 33.9121833416493,44.3997373479046,0 33.9108744236501,44.3998834931948,0 33.9108422371419,44.3999604116209,0 33.9100912186177,44.4000450217721,0 33.9083960625203,44.4000142544586,0 33.9071300598653,44.4002219335082,0 33.9066901775868,44.4002296253106,0 33.9054885479482,44.4007603572173,0 33.9047589870961,44.4008295827608,0 33.9038577648671,44.4007757406785,0 33.9019909473927,44.4011987842666,0 33.9014115902455,44.4011449425265,0 33.900596198705,44.4018294980791,0 33.9006927582295,44.4019141055088,0 33.9002850624593,44.4024217474997,0 33.8990512463124,44.4031447451031,0 33.8981929394276,44.403267807629,0 33.8975492092641,44.4032062763986,0 33.8971200558217,44.4030062994499,0 33.896991309789,44.4027755559615,0 33.8966587158711,44.4027140242099,0 33.8967123600514,44.4026140349745,0 33.8963797661336,44.4025448115569,0 33.8963475796254,44.4023679068927,0 33.8954678150685,44.4021217777684,0 33.8948884579213,44.4021833101472,0 33.8948026272328,44.4022833001238,0 33.8935366245778,44.4023294492858,0 33.8933220478566,44.4024063644742,0 33.8926461311848,44.4024832795609,0 33.8919272991689,44.4027755559615,0 33.8905969234975,44.4030062994499,0 33.8898459049733,44.402837087648,0 33.8888588520558,44.4030524480376,0 33.8880541893514,44.4029909165792,0 33.887270984319,44.4030524480376,0 33.8869491192372,44.4028140132732,0 33.8863375755818,44.4029601508255,0 33.8857689472707,44.4028909278203,0 33.8853183361562,44.4030062994499,0 33.8851895901234,44.4032062763986,0 33.8846746059926,44.4034600923039,0 33.884749707845,44.4035677714438,0 33.8844493004353,44.4039061902989,0 33.8841381641896,44.4041215467259,0 33.8839986893208,44.40382158577,0 33.8837090107472,44.403760055126,0 33.8832047554524,44.4038984989832,0 33.8821104141743,44.4041446205814,0 33.8817456337483,44.4042599897217,0 33.8812735649617,44.4042830635223,0 33.881155547765,44.4044061236372,0 33.8799861046346,44.4045214922582,0 33.8800290199788,44.4039061902989,0 33.8795784088643,44.4040446338079,0 33.8789561363728,44.4039831034002,0 33.8783982368977,44.4040753989873,0 33.8781300159962,44.4042446071829,0 33.8772609802754,44.4044599623555,0 33.8771429630788,44.4045599484143,0 33.8763490292104,44.4044753448373,0 33.8759413334401,44.4045907133209,0 33.8754585358174,44.404490727315,0 33.8747933479817,44.4046445518682,0 33.8739672276051,44.4046060957681,0 33.8732698532613,44.4041676944278,0 33.8732376667531,44.4039523381719,0 33.872508105901,44.4036831417295,0 33.8722613426717,44.4038369684208,0 33.8717678162129,44.4037292897797,0 33.8709309670003,44.4037677464601,0 33.8697186085255,44.4038600423893,0 33.8681092831166,44.4042061508181,0 33.8679161640675,44.4043753586329,0 33.8669505688222,44.4047599200157,0 33.8659420582326,44.4048675967468,0 33.8657489391835,44.4050137291341,0 33.8648584457906,44.4053598306904,0 33.8641074272664,44.40579053197,0 33.8633564087422,44.4059828082962,0 33.8632491203816,44.4061673929706,0 33.8626804920705,44.4064058139737,0 33.8622835251363,44.4070133985579,0 33.861704167989,44.407174907315,0 33.8607814880879,44.407174907315,0 33.8598373505147,44.4070518530646,0 33.8591292473347,44.4067672891122,0 33.8586464497121,44.406482723766,0 33.8583996864827,44.4059981903748,0 33.8586142632039,44.4057982230353,0 33.8581314655812,44.4058136051628,0 33.8580134483846,44.4056520926212,0 33.8574984642537,44.4054751974177,0 33.8574448200734,44.4055828728231,0 33.857015666631,44.4057520766285,0 33.8569512936147,44.4056444015366,0 33.8565114113362,44.4054290507542,0 33.856286105779,44.4054521240905,0 33.8558891388448,44.4048445231784,0 33.8556745621236,44.4048060672106,0 33.8554707142384,44.4048445231784,0 33.854859170583,44.4048752879342,0 33.8541725250752,44.4049752732783,0 33.854129609731,44.4050368026353,0 33.8534966084035,44.4048983614905,0 33.8533249470265,44.404752228813,0 33.8530352684529,44.4046522430851,0 33.852327165273,44.4047753024181,0 33.8520589443715,44.4049752732783,0 33.8513293835194,44.4050906407692,0 33.8506427380116,44.4053598306904,0 33.8502779575856,44.4053598306904,0 33.8499024483235,44.4052213903153,0 33.8496020409139,44.405206008031,0 33.8487008186848,44.4052675371436,0 33.8480463596852,44.405182934597,0 33.8474348160298,44.4051444788532,0 33.8474240871938,44.4050521849643,0 33.8467696281941,44.4050521849643,0 33.8467374416859,44.4051598611538,0 33.8464263054402,44.4050752584503,0 33.8461902710469,44.4050368026353,0 33.8458254906209,44.4048214496008,0 33.844774064687,44.4048599055583,0 33.8439801308186,44.4050752584503,0 33.8432076546223,44.405182934597,0 33.8424351784261,44.4049598909289,0 33.8420489403279,44.404798376014,0 33.8412335487874,44.4047445376093,0 33.8407829376729,44.4046445518682,0 33.8395813080342,44.4046368606502,0 33.83883028951,44.4044445798697,0 33.8384976955922,44.40422922464,0 33.8374891850026,44.4027524815623,0 33.8365772339375,44.4020910115545,0 33.8359549614461,44.4017910401158,0 33.8357403847249,44.4015756750509,0 33.8356438252004,44.4012757009518,0 33.8357833000691,44.4007526654851,0 33.8352039429219,44.4004065364848,0 33.8313952061208,44.4003988447058,0 33.830354509023,44.4007295902826,0 33.8300970169576,44.4010372588965,0 33.8297536942036,44.4011910925925,0 33.8293567272694,44.4011987842666,0 33.8291314217122,44.401083409048,0 33.8290563198598,44.4008988082218,0 33.828916844991,44.4008988082218,0 33.8283589455159,44.4011757092413,0 33.8279190632375,44.4010603339768,0 33.8276186558278,44.4009911087082,0 33.8274899097951,44.4007526654851,0 33.8269534679921,44.4005219130473,0 33.8263526531728,44.4004065364848,0 33.8260737034352,44.4000373299452,0 33.8266101452382,44.3998450339435,0 33.8264062973531,44.3997219641685,0 33.8258805843861,44.3996604291832,0 33.8252153965504,44.3998834931948,0 33.8246253105672,44.3997065804282,0 33.8243356319936,44.3997527316367,0 33.8241425129445,44.3995681265831,0 33.8236275288136,44.3995296671231,0 33.8234558674367,44.3997219641685,0 33.8229837986501,44.3995065914349,0 33.8227263065846,44.3996296616661,0 33.8223829838307,44.3995296671231,0 33.8220503899129,44.3992450663282,0 33.8218250843556,44.3989143123019,0 33.8218465420277,44.3982604906646,0 33.8217900084873,44.3977656720303,0 33.8215110587497,44.3972041439714,0 33.8213393973728,44.3968656860823,0 33.8209531592746,44.3966349182096,0 33.8206742095371,44.3962118413965,0 33.8204489039798,44.395634913506,0 33.8198480891605,44.3956426059155,0 33.8188288497348,44.3957810691132,0 33.8181958484073,44.3959349167237,0 33.8167045401951,44.3959349167237,0 33.8157711314579,44.3957810691132,0 33.8150522994419,44.3958964548593,0 33.8142047213932,44.3959964556539,0 33.8134000586887,44.3959272243529,0 33.8127777861973,44.3959810709275,0 33.8120267676731,44.3957887615034,0 33.8112435626407,44.396019532736,0 33.8095162200351,44.3958964548593,0 33.8084647941013,44.3958887624833,0 33.8075850295444,44.3955349120892,0 33.8070378589054,44.3950964423078,0 33.8061259078403,44.3944887331061,0 33.8059757041355,44.3941425667962,0 33.8058147715946,44.3939502512887,0 33.8053963469883,44.3938194763801,0 33.8050637530704,44.39361177445,0 33.8045916842838,44.3935886964119,0 33.8040337848087,44.3940194849447,0 33.8038084792515,44.3941117963578,0 33.8033471393009,44.3939733291832,0 33.8030252742191,44.3939733291832,0 33.8025210189243,44.3943810371417,0 33.8020060347934,44.3946656617572,0 33.8013515757938,44.395634913506,0 33.8006542014499,44.3958426082063,0 33.7995491313358,44.3957579919365,0 33.7985406207462,44.3953349087396,0 33.7982509421726,44.3949118224628,0 33.7982509421726,44.3945348884583,0 33.7976715850254,44.3937887057707,0 33.7967918204685,44.3933117592405,0 33.7958476828952,44.3932117538266,0 33.7952254104038,44.3928117304501,0 33.7943885611911,44.3919962896568,0 33.7940774249454,44.3919193606896,0 33.7933371352573,44.3920578327573,0 33.7921355056186,44.3916962661088,0 33.7917385386844,44.3913193112508,0 33.7917278098484,44.390965433037,0 33.7916848945041,44.3904807702485,0 33.7912771987339,44.3899268649705,0 33.7907085704227,44.3896499103523,0 33.7898717212101,44.3895114325483,0 33.7887130069156,44.3893344882077,0 33.7876293944736,44.3889113582527,0 33.7870178508182,44.3887882653239,0 33.7859342383762,44.3883343578961,0 33.784818439426,44.3879343009536,0 33.7836597251316,44.3876111760288,0 33.7829301642795,44.3879035272287,0 33.7825010108371,44.3883266645193,0 33.781932382526,44.3885036119276,0 33.7809989737888,44.388611318782,0 33.7803767012973,44.3884420650641,0 33.7799904631992,44.3880727825145,0 33.7801513957401,44.3877727387157,0 33.7796364116092,44.3873726779084,0 33.779046325626,44.3874265324082,0 33.7786600875278,44.3873111298475,0 33.778338222446,44.3869341465529,0 33.7779305266758,44.3868264365911,0 33.7774906443973,44.3864725310261,0 33.7771151351352,44.3865033055086,0 33.7766216086765,44.3864956118895,0 33.775999336185,44.3866571776766,0 33.7757203864475,44.3868418237407,0 33.7755058097263,44.3870110821177,0 33.7749800967594,44.3872265011574,0 33.7747762488743,44.3877881256148,0 33.7745187568088,44.3880343154474,0 33.7739715861698,44.3881881835632,0 33.7734458732029,44.3885266919847,0 33.7726626681705,44.3887267187617,0 33.7718580054661,44.3886959454562,0 33.771310834827,44.3885420786842,0 33.7702915954014,44.3884343717016,0 33.7694332885166,44.3882728108534,0 33.7688539313694,44.3880958627426,0 33.7683496760746,44.3880804759249,0 33.7674484538456,44.3884882252178,0 33.7665794181247,44.3888805850449,0 33.7660537051578,44.3892113961748,0 33.7654528903385,44.3893421814511,0 33.764648227634,44.3891113837062,0 33.764111785831,44.3893421814511,0 33.7634895133396,44.3895883647024,0 33.763210563602,44.3894037273617,0 33.7624166297336,44.3893267949633,0 33.7616977977176,44.3892729422238,0 33.7607751178165,44.389557591853,0 33.7603674220463,44.3899576376244,0 33.75959494585,44.3903499875338,0 33.7593374537845,44.3906192457433,0 33.7585757064243,44.3908115722721,0 33.7578661628214,44.3908105910994,0 </coordinates>
          </LinearRing>
        </outerBoundaryIs>
      </Polygon>
    </Placemark>
  </Document>
</kml>